{
"type": "FeatureCollection",
"name": "dallas_city_limits",
"crs": { "type": "name", "properties": { "name": "urn:ogc:def:crs:OGC:1.3:CRS84" } },
"features": [
{ "type": "Feature", "properties": { "NAME": "Dallas" }, "geometry": { "type": "MultiPolygon", "coordinates": [ [ [ [ -96.597238, 32.890847 ], [ -96.595062, 32.893603 ], [ -96.594114, 32.89374 ], [ -96.593758, 32.89289 ], [ -96.593421, 32.893424 ], [ -96.593121, 32.892515 ], [ -96.592665, 32.892645 ], [ -96.592005, 32.890785 ], [ -96.5921, 32.890124 ], [ -96.59078, 32.88918 ], [ -96.590115, 32.889131 ], [ -96.588297, 32.887924 ], [ -96.586525, 32.888171 ], [ -96.585286, 32.887412 ], [ -96.583065, 32.887161 ], [ -96.580635, 32.885795 ], [ -96.57996, 32.885062 ], [ -96.579741, 32.880582 ], [ -96.579046, 32.879423 ], [ -96.577847, 32.878609 ], [ -96.573366, 32.877735 ], [ -96.572036, 32.876676 ], [ -96.571523, 32.87671 ], [ -96.571309, 32.877187 ], [ -96.571088, 32.876145 ], [ -96.56987, 32.875432 ], [ -96.570933, 32.87147 ], [ -96.57043, 32.871453 ], [ -96.569553, 32.874489 ], [ -96.568529, 32.874285 ], [ -96.567539, 32.874663 ], [ -96.564163, 32.873224 ], [ -96.562013, 32.873265 ], [ -96.561555, 32.873418 ], [ -96.561859, 32.874548 ], [ -96.560702, 32.874658 ], [ -96.56053, 32.875396 ], [ -96.559446, 32.875798 ], [ -96.559635, 32.876542 ], [ -96.55925, 32.878407 ], [ -96.55967, 32.879635 ], [ -96.559513, 32.882168 ], [ -96.559285, 32.882311 ], [ -96.559995, 32.882993 ], [ -96.559761, 32.884169 ], [ -96.559462, 32.883813 ], [ -96.559769, 32.88301 ], [ -96.559033, 32.882641 ], [ -96.558757, 32.881997 ], [ -96.558988, 32.881268 ], [ -96.558687, 32.881336 ], [ -96.558658, 32.879835 ], [ -96.556623, 32.878135 ], [ -96.556531, 32.87742 ], [ -96.555957, 32.876673 ], [ -96.554801, 32.877131 ], [ -96.554364, 32.876339 ], [ -96.554527, 32.875455 ], [ -96.553786, 32.874827 ], [ -96.553495, 32.874718 ], [ -96.552981, 32.875442 ], [ -96.551376, 32.875208 ], [ -96.548046, 32.876222 ], [ -96.547976, 32.876911 ], [ -96.549685, 32.878331 ], [ -96.550117, 32.8798 ], [ -96.549772, 32.880719 ], [ -96.550102, 32.881529 ], [ -96.549466, 32.881857 ], [ -96.54907, 32.882622 ], [ -96.549082, 32.885064 ], [ -96.548803, 32.885769 ], [ -96.549685, 32.889882 ], [ -96.549445, 32.891157 ], [ -96.546888, 32.891632 ], [ -96.540779, 32.891593 ], [ -96.540927, 32.891862 ], [ -96.548728, 32.891878 ], [ -96.548598, 32.892583 ], [ -96.547414, 32.893777 ], [ -96.547513, 32.894581 ], [ -96.545955, 32.894821 ], [ -96.544468, 32.895951 ], [ -96.543468, 32.898621 ], [ -96.543633, 32.898959 ], [ -96.541049, 32.896968 ], [ -96.53864, 32.89457 ], [ -96.538298, 32.894759 ], [ -96.543905, 32.899741 ], [ -96.54352, 32.899776 ], [ -96.54404, 32.900107 ], [ -96.544177, 32.901158 ], [ -96.545581, 32.902364 ], [ -96.545711, 32.90328 ], [ -96.545354, 32.903608 ], [ -96.546052, 32.903857 ], [ -96.546046, 32.906002 ], [ -96.548254, 32.906151 ], [ -96.546325, 32.90645 ], [ -96.54553, 32.907666 ], [ -96.541164, 32.907642 ], [ -96.541068, 32.908023 ], [ -96.545872, 32.908049 ], [ -96.546438, 32.90915 ], [ -96.547072, 32.909324 ], [ -96.548308, 32.910553 ], [ -96.547629, 32.910525 ], [ -96.548309, 32.911036 ], [ -96.547769, 32.911478 ], [ -96.547513, 32.911212 ], [ -96.547499, 32.912163 ], [ -96.546819, 32.912981 ], [ -96.546701, 32.91355 ], [ -96.547227, 32.914291 ], [ -96.546858, 32.915482 ], [ -96.54726, 32.916668 ], [ -96.54712, 32.917251 ], [ -96.546235, 32.91796 ], [ -96.546253, 32.918623 ], [ -96.545807, 32.91869 ], [ -96.545179, 32.918108 ], [ -96.544531, 32.918035 ], [ -96.544543, 32.918367 ], [ -96.543877, 32.91805 ], [ -96.543214, 32.91821 ], [ -96.543099, 32.91906 ], [ -96.543431, 32.919166 ], [ -96.542752, 32.919662 ], [ -96.542404, 32.920942 ], [ -96.5414, 32.920282 ], [ -96.541909, 32.920337 ], [ -96.542288, 32.920187 ], [ -96.541206, 32.91998 ], [ -96.541271, 32.920487 ], [ -96.541724, 32.920675 ], [ -96.541155, 32.920628 ], [ -96.540951, 32.920215 ], [ -96.540285, 32.920521 ], [ -96.540224, 32.920892 ], [ -96.53989, 32.920857 ], [ -96.539582, 32.920554 ], [ -96.539769, 32.920152 ], [ -96.539269, 32.919818 ], [ -96.539947, 32.919115 ], [ -96.539984, 32.917655 ], [ -96.539384, 32.91742 ], [ -96.539354, 32.916762 ], [ -96.539047, 32.91675 ], [ -96.539457, 32.916524 ], [ -96.539138, 32.915267 ], [ -96.539564, 32.914524 ], [ -96.54042, 32.914085 ], [ -96.540469, 32.913662 ], [ -96.539779, 32.912019 ], [ -96.538369, 32.911884 ], [ -96.538938, 32.91077 ], [ -96.537999, 32.908603 ], [ -96.538319, 32.908053 ], [ -96.539823, 32.908058 ], [ -96.539986, 32.907707 ], [ -96.538431, 32.907383 ], [ -96.538791, 32.90681 ], [ -96.538068, 32.906326 ], [ -96.537952, 32.905532 ], [ -96.538431, 32.90498 ], [ -96.538205, 32.90474 ], [ -96.537395, 32.905338 ], [ -96.535786, 32.905276 ], [ -96.534805, 32.903755 ], [ -96.534253, 32.903401 ], [ -96.534271, 32.90312 ], [ -96.534889, 32.902994 ], [ -96.534675, 32.902796 ], [ -96.534837, 32.901176 ], [ -96.535468, 32.900393 ], [ -96.534849, 32.900082 ], [ -96.53487, 32.898148 ], [ -96.535898, 32.895933 ], [ -96.536303, 32.8938 ], [ -96.536659, 32.893245 ], [ -96.537612, 32.894089 ], [ -96.537893, 32.893867 ], [ -96.536747, 32.892646 ], [ -96.537003, 32.891799 ], [ -96.540331, 32.891767 ], [ -96.540173, 32.891526 ], [ -96.536833, 32.891378 ], [ -96.538817, 32.889764 ], [ -96.541205, 32.888931 ], [ -96.540457, 32.886771 ], [ -96.541065, 32.884635 ], [ -96.540474, 32.882663 ], [ -96.538926, 32.880627 ], [ -96.537669, 32.880905 ], [ -96.537192, 32.880562 ], [ -96.536842, 32.881103 ], [ -96.53585, 32.881252 ], [ -96.534664, 32.880876 ], [ -96.53453, 32.880578 ], [ -96.531289, 32.880391 ], [ -96.529703, 32.879201 ], [ -96.52889, 32.879118 ], [ -96.528166, 32.878358 ], [ -96.528851, 32.879303 ], [ -96.52842, 32.880031 ], [ -96.528392, 32.880936 ], [ -96.528053, 32.881174 ], [ -96.527302, 32.879416 ], [ -96.526578, 32.878785 ], [ -96.524791, 32.878039 ], [ -96.522029, 32.873761 ], [ -96.521793, 32.872843 ], [ -96.520889, 32.872562 ], [ -96.520217, 32.871633 ], [ -96.519939, 32.870917 ], [ -96.520579, 32.870584 ], [ -96.520558, 32.870273 ], [ -96.520263, 32.870044 ], [ -96.520195, 32.867776 ], [ -96.519798, 32.867034 ], [ -96.517724, 32.867254 ], [ -96.516797, 32.867734 ], [ -96.515195, 32.870314 ], [ -96.51219, 32.872758 ], [ -96.510879, 32.873252 ], [ -96.512049, 32.87292 ], [ -96.513165, 32.874219 ], [ -96.515501, 32.873415 ], [ -96.516646, 32.874475 ], [ -96.516261, 32.87497 ], [ -96.515003, 32.875459 ], [ -96.514952, 32.875887 ], [ -96.516279, 32.876474 ], [ -96.516741, 32.877266 ], [ -96.518306, 32.876517 ], [ -96.518279, 32.877341 ], [ -96.515889, 32.878468 ], [ -96.517274, 32.878912 ], [ -96.517954, 32.880356 ], [ -96.517793, 32.88083 ], [ -96.518176, 32.881704 ], [ -96.517374, 32.882114 ], [ -96.517362, 32.882979 ], [ -96.51604, 32.884239 ], [ -96.516126, 32.885832 ], [ -96.516525, 32.886541 ], [ -96.516178, 32.88724 ], [ -96.516841, 32.888186 ], [ -96.517941, 32.888966 ], [ -96.518256, 32.890309 ], [ -96.516771, 32.890287 ], [ -96.516649, 32.890819 ], [ -96.516074, 32.89082 ], [ -96.515902, 32.891952 ], [ -96.515225, 32.89327 ], [ -96.517817, 32.895511 ], [ -96.516456, 32.894624 ], [ -96.51536, 32.89493 ], [ -96.514397, 32.894764 ], [ -96.51227, 32.898414 ], [ -96.513573, 32.898846 ], [ -96.513474, 32.902361 ], [ -96.512348, 32.902188 ], [ -96.511933, 32.901178 ], [ -96.511103, 32.901052 ], [ -96.509068, 32.904195 ], [ -96.508567, 32.906131 ], [ -96.508809, 32.906551 ], [ -96.510683, 32.90742 ], [ -96.511021, 32.908571 ], [ -96.507852, 32.908482 ], [ -96.507043, 32.908881 ], [ -96.506935, 32.909733 ], [ -96.506294, 32.909713 ], [ -96.505178, 32.910296 ], [ -96.504728, 32.911067 ], [ -96.504597, 32.911686 ], [ -96.504943, 32.912489 ], [ -96.503969, 32.912415 ], [ -96.503725, 32.913554 ], [ -96.503396, 32.913658 ], [ -96.503042, 32.913193 ], [ -96.501487, 32.914606 ], [ -96.502744, 32.915982 ], [ -96.503377, 32.915991 ], [ -96.504607, 32.920172 ], [ -96.505705, 32.921144 ], [ -96.505239, 32.922016 ], [ -96.505394, 32.92246 ], [ -96.507471, 32.92401 ], [ -96.508852, 32.923664 ], [ -96.509138, 32.923949 ], [ -96.509093, 32.924951 ], [ -96.512213, 32.926769 ], [ -96.514149, 32.927325 ], [ -96.514502, 32.928206 ], [ -96.515861, 32.929646 ], [ -96.51659, 32.932284 ], [ -96.516461, 32.93435 ], [ -96.515921, 32.935835 ], [ -96.516957, 32.938226 ], [ -96.521121, 32.938241 ], [ -96.521215, 32.93773 ], [ -96.522674, 32.937475 ], [ -96.523098, 32.938174 ], [ -96.521576, 32.939346 ], [ -96.521908, 32.939946 ], [ -96.521297, 32.940573 ], [ -96.521413, 32.942111 ], [ -96.520687, 32.941924 ], [ -96.521154, 32.941702 ], [ -96.520163, 32.940911 ], [ -96.519588, 32.941258 ], [ -96.518705, 32.940782 ], [ -96.518128, 32.941015 ], [ -96.518353, 32.942298 ], [ -96.519053, 32.943269 ], [ -96.518308, 32.944342 ], [ -96.517763, 32.944324 ], [ -96.517339, 32.945112 ], [ -96.517779, 32.948255 ], [ -96.519175, 32.949517 ], [ -96.52, 32.949685 ], [ -96.520382, 32.950353 ], [ -96.519992, 32.950717 ], [ -96.520324, 32.951017 ], [ -96.51938, 32.951923 ], [ -96.519468, 32.953221 ], [ -96.519768, 32.954121 ], [ -96.520568, 32.954822 ], [ -96.521368, 32.956322 ], [ -96.521168, 32.957822 ], [ -96.521468, 32.959722 ], [ -96.520295, 32.959291 ], [ -96.518964, 32.955364 ], [ -96.517677, 32.9546 ], [ -96.517195, 32.953735 ], [ -96.517165, 32.954167 ], [ -96.515987, 32.952423 ], [ -96.51551, 32.95233 ], [ -96.514955, 32.953148 ], [ -96.516254, 32.954898 ], [ -96.516263, 32.956017 ], [ -96.515364, 32.960231 ], [ -96.514212, 32.961185 ], [ -96.514564, 32.9615 ], [ -96.512747, 32.963163 ], [ -96.510855, 32.963768 ], [ -96.509327, 32.96469 ], [ -96.506099, 32.973743 ], [ -96.505975, 32.978999 ], [ -96.505519, 32.980542 ], [ -96.506044, 32.982816 ], [ -96.50712, 32.982826 ], [ -96.506561, 32.983169 ], [ -96.504975, 32.985521 ], [ -96.504921, 32.986474 ], [ -96.50732, 32.990771 ], [ -96.50727, 32.991129 ], [ -96.505963, 32.991729 ], [ -96.504538, 32.991692 ], [ -96.502435, 32.989187 ], [ -96.500949, 32.988055 ], [ -96.498732, 32.988275 ], [ -96.497053, 32.989108 ], [ -96.496186, 32.990552 ], [ -96.497562, 32.994244 ], [ -96.497361, 32.995984 ], [ -96.49817, 32.998896 ], [ -96.497063, 33.001344 ], [ -96.496878, 33.002871 ], [ -96.495839, 33.004634 ], [ -96.493345, 33.007267 ], [ -96.492514, 33.007826 ], [ -96.491659, 33.007624 ], [ -96.491421, 33.008428 ], [ -96.490544, 33.008681 ], [ -96.490525, 33.011735 ], [ -96.48962, 33.01374 ], [ -96.488565, 33.014933 ], [ -96.486429, 33.014944 ], [ -96.486206, 33.019913 ], [ -96.486554, 33.020772 ], [ -96.486482, 33.022731 ], [ -96.484069, 33.023792 ], [ -96.470715, 33.020096 ], [ -96.467699, 33.020024 ], [ -96.467771, 33.019157 ], [ -96.467029, 33.017524 ], [ -96.46778, 33.015959 ], [ -96.466596, 33.015725 ], [ -96.46727, 33.013219 ], [ -96.467901, 33.012087 ], [ -96.468278, 33.009054 ], [ -96.46652, 33.002809 ], [ -96.466727, 33.002224 ], [ -96.469513, 32.996558 ], [ -96.470089, 32.996282 ], [ -96.470761, 32.995224 ], [ -96.472174, 32.994369 ], [ -96.472094, 32.993851 ], [ -96.472715, 32.992506 ], [ -96.473308, 32.992201 ], [ -96.47342, 32.991636 ], [ -96.475293, 32.989538 ], [ -96.478177, 32.988301 ], [ -96.479085, 32.986269 ], [ -96.479935, 32.986018 ], [ -96.481042, 32.98626 ], [ -96.480678, 32.985588 ], [ -96.471365, 32.985674 ], [ -96.466774, 32.986235 ], [ -96.466739, 32.982467 ], [ -96.46371, 32.982439 ], [ -96.463781, 32.979346 ], [ -96.465048, 32.979324 ], [ -96.465493, 32.977951 ], [ -96.466556, 32.977307 ], [ -96.467568, 32.977298 ], [ -96.468147, 32.976191 ], [ -96.468583, 32.975932 ], [ -96.469342, 32.976127 ], [ -96.469608, 32.975388 ], [ -96.470134, 32.975814 ], [ -96.472233, 32.975023 ], [ -96.472738, 32.975165 ], [ -96.473561, 32.97452 ], [ -96.474826, 32.974498 ], [ -96.474936, 32.970773 ], [ -96.478258, 32.970786 ], [ -96.479332, 32.967469 ], [ -96.478972, 32.966492 ], [ -96.479497, 32.965775 ], [ -96.4804, 32.965809 ], [ -96.480433, 32.964556 ], [ -96.480903, 32.964278 ], [ -96.480544, 32.963591 ], [ -96.480809, 32.963043 ], [ -96.480439, 32.962532 ], [ -96.48044, 32.961051 ], [ -96.479505, 32.961048 ], [ -96.479493, 32.960737 ], [ -96.481251, 32.960764 ], [ -96.480947, 32.960313 ], [ -96.482854, 32.958501 ], [ -96.484915, 32.956885 ], [ -96.48699, 32.956153 ], [ -96.485674, 32.95593 ], [ -96.486598, 32.955531 ], [ -96.487096, 32.954859 ], [ -96.48706, 32.953621 ], [ -96.488663, 32.953584 ], [ -96.488191, 32.952562 ], [ -96.488685, 32.953054 ], [ -96.489471, 32.953234 ], [ -96.489279, 32.952482 ], [ -96.490478, 32.952706 ], [ -96.491183, 32.952458 ], [ -96.491854, 32.951451 ], [ -96.490613, 32.949036 ], [ -96.491884, 32.949363 ], [ -96.491866, 32.949695 ], [ -96.491355, 32.949858 ], [ -96.491469, 32.95019 ], [ -96.49228, 32.949236 ], [ -96.492879, 32.949976 ], [ -96.493235, 32.949865 ], [ -96.493402, 32.949178 ], [ -96.493852, 32.949059 ], [ -96.494591, 32.948031 ], [ -96.495323, 32.945909 ], [ -96.494997, 32.945718 ], [ -96.494451, 32.946147 ], [ -96.49371, 32.945777 ], [ -96.492522, 32.946967 ], [ -96.490197, 32.946716 ], [ -96.490743, 32.947639 ], [ -96.490338, 32.948216 ], [ -96.489607, 32.948127 ], [ -96.489519, 32.947505 ], [ -96.489757, 32.947329 ], [ -96.48936, 32.946812 ], [ -96.489052, 32.946959 ], [ -96.489034, 32.94659 ], [ -96.488594, 32.946612 ], [ -96.485833, 32.941111 ], [ -96.484924, 32.940326 ], [ -96.482794, 32.939591 ], [ -96.482615, 32.938927 ], [ -96.481621, 32.93779 ], [ -96.480956, 32.935675 ], [ -96.48045, 32.935322 ], [ -96.480246, 32.933912 ], [ -96.47924, 32.932437 ], [ -96.47709, 32.930624 ], [ -96.476044, 32.930132 ], [ -96.475037, 32.93021 ], [ -96.474025, 32.92962 ], [ -96.474075, 32.92859 ], [ -96.478081, 32.927888 ], [ -96.478063, 32.927473 ], [ -96.473894, 32.928361 ], [ -96.473859, 32.928055 ], [ -96.472908, 32.928024 ], [ -96.472306, 32.92535 ], [ -96.471682, 32.924563 ], [ -96.471115, 32.924422 ], [ -96.470928, 32.923561 ], [ -96.471247, 32.922795 ], [ -96.470778, 32.922763 ], [ -96.470575, 32.921622 ], [ -96.469474, 32.919775 ], [ -96.469712, 32.919486 ], [ -96.469296, 32.919652 ], [ -96.46941, 32.919387 ], [ -96.468441, 32.918401 ], [ -96.46733, 32.915815 ], [ -96.466992, 32.91464 ], [ -96.466883, 32.911835 ], [ -96.467139, 32.91179 ], [ -96.467704, 32.909976 ], [ -96.468472, 32.909675 ], [ -96.469049, 32.908772 ], [ -96.471902, 32.907769 ], [ -96.471595, 32.905714 ], [ -96.473231, 32.904139 ], [ -96.47564, 32.90278 ], [ -96.476248, 32.901704 ], [ -96.480401, 32.900906 ], [ -96.482009, 32.900242 ], [ -96.482309, 32.899357 ], [ -96.481923, 32.897652 ], [ -96.482769, 32.897261 ], [ -96.481831, 32.897287 ], [ -96.481733, 32.897045 ], [ -96.481536, 32.89517 ], [ -96.482079, 32.894039 ], [ -96.487925, 32.891249 ], [ -96.489168, 32.890337 ], [ -96.488775, 32.889953 ], [ -96.482979, 32.892532 ], [ -96.482606, 32.892505 ], [ -96.482453, 32.891019 ], [ -96.481664, 32.891014 ], [ -96.482136, 32.890676 ], [ -96.482153, 32.88798 ], [ -96.482569, 32.886882 ], [ -96.483138, 32.885947 ], [ -96.485083, 32.884372 ], [ -96.485653, 32.882286 ], [ -96.486341, 32.881841 ], [ -96.487185, 32.880497 ], [ -96.487299, 32.879536 ], [ -96.486611, 32.878627 ], [ -96.48668, 32.878301 ], [ -96.484511, 32.877506 ], [ -96.482804, 32.876307 ], [ -96.482479, 32.875436 ], [ -96.48176, 32.875445 ], [ -96.480886, 32.874158 ], [ -96.479827, 32.870601 ], [ -96.480293, 32.86909 ], [ -96.482158, 32.86704 ], [ -96.48187, 32.865374 ], [ -96.482368, 32.865859 ], [ -96.484126, 32.865254 ], [ -96.486334, 32.863241 ], [ -96.48682, 32.862136 ], [ -96.48717, 32.862223 ], [ -96.489259, 32.85942 ], [ -96.488835, 32.858992 ], [ -96.489639, 32.859026 ], [ -96.48955, 32.858728 ], [ -96.489999, 32.858486 ], [ -96.489981, 32.857641 ], [ -96.491467, 32.85484 ], [ -96.490554, 32.8517 ], [ -96.489958, 32.851602 ], [ -96.489309, 32.852198 ], [ -96.489588, 32.851695 ], [ -96.489297, 32.851138 ], [ -96.487251, 32.849741 ], [ -96.4876, 32.849663 ], [ -96.4897, 32.850952 ], [ -96.490584, 32.850948 ], [ -96.492416, 32.850669 ], [ -96.492485, 32.850312 ], [ -96.493655, 32.849687 ], [ -96.493701, 32.84931 ], [ -96.495815, 32.848979 ], [ -96.495338, 32.848481 ], [ -96.495542, 32.848391 ], [ -96.496127, 32.848816 ], [ -96.496668, 32.848646 ], [ -96.497784, 32.847012 ], [ -96.497545, 32.845999 ], [ -96.49801, 32.844727 ], [ -96.497682, 32.843792 ], [ -96.496751, 32.843217 ], [ -96.497928, 32.842826 ], [ -96.499363, 32.842951 ], [ -96.501162, 32.842042 ], [ -96.50165, 32.841485 ], [ -96.503836, 32.841243 ], [ -96.504706, 32.840685 ], [ -96.505456, 32.840966 ], [ -96.505988, 32.839694 ], [ -96.507918, 32.837037 ], [ -96.507618, 32.836135 ], [ -96.508391, 32.834896 ], [ -96.507547, 32.833848 ], [ -96.507152, 32.835393 ], [ -96.5063, 32.836652 ], [ -96.505303, 32.835531 ], [ -96.505634, 32.834795 ], [ -96.505098, 32.833914 ], [ -96.505406, 32.832058 ], [ -96.504901, 32.831719 ], [ -96.504333, 32.83233 ], [ -96.503655, 32.832416 ], [ -96.502881, 32.832986 ], [ -96.502424, 32.832926 ], [ -96.502021, 32.83223 ], [ -96.500898, 32.832593 ], [ -96.49947, 32.833653 ], [ -96.498228, 32.835188 ], [ -96.495032, 32.836823 ], [ -96.49497, 32.836104 ], [ -96.49569, 32.83565 ], [ -96.495423, 32.835014 ], [ -96.496856, 32.834822 ], [ -96.49752, 32.833874 ], [ -96.497423, 32.833205 ], [ -96.497852, 32.832355 ], [ -96.499935, 32.830132 ], [ -96.501301, 32.829106 ], [ -96.501267, 32.829304 ], [ -96.502679, 32.829344 ], [ -96.503316, 32.828908 ], [ -96.503441, 32.828319 ], [ -96.501993, 32.827872 ], [ -96.501651, 32.826751 ], [ -96.500208, 32.82484 ], [ -96.499751, 32.823192 ], [ -96.498708, 32.822288 ], [ -96.498132, 32.822229 ], [ -96.498094, 32.823245 ], [ -96.496373, 32.825041 ], [ -96.494825, 32.824869 ], [ -96.492478, 32.825347 ], [ -96.490957, 32.82423 ], [ -96.490281, 32.824143 ], [ -96.491206, 32.822885 ], [ -96.49321, 32.823638 ], [ -96.493658, 32.82323 ], [ -96.493873, 32.822153 ], [ -96.496258, 32.821917 ], [ -96.496332, 32.820886 ], [ -96.497311, 32.820386 ], [ -96.495299, 32.819316 ], [ -96.493089, 32.817447 ], [ -96.492066, 32.817452 ], [ -96.491707, 32.817157 ], [ -96.492424, 32.816133 ], [ -96.492293, 32.815677 ], [ -96.491757, 32.814932 ], [ -96.490721, 32.814313 ], [ -96.490922, 32.813313 ], [ -96.489424, 32.812923 ], [ -96.489378, 32.811549 ], [ -96.48904, 32.811544 ], [ -96.489099, 32.812719 ], [ -96.488642, 32.813229 ], [ -96.487187, 32.813262 ], [ -96.487375, 32.812442 ], [ -96.486914, 32.812245 ], [ -96.487551, 32.81175 ], [ -96.486837, 32.811515 ], [ -96.485859, 32.81169 ], [ -96.485039, 32.812614 ], [ -96.483205, 32.813299 ], [ -96.484097, 32.812871 ], [ -96.486087, 32.81072 ], [ -96.485394, 32.81017 ], [ -96.484654, 32.810573 ], [ -96.484616, 32.810086 ], [ -96.483158, 32.809734 ], [ -96.485168, 32.809483 ], [ -96.488508, 32.809955 ], [ -96.48895, 32.81023 ], [ -96.489022, 32.811136 ], [ -96.489367, 32.811142 ], [ -96.489314, 32.81012 ], [ -96.490037, 32.80965 ], [ -96.490621, 32.808586 ], [ -96.491761, 32.808146 ], [ -96.49286, 32.805821 ], [ -96.491021, 32.805807 ], [ -96.491024, 32.802848 ], [ -96.489871, 32.802859 ], [ -96.489907, 32.798344 ], [ -96.490914, 32.79834 ], [ -96.490925, 32.794847 ], [ -96.493411, 32.792882 ], [ -96.496235, 32.792908 ], [ -96.497411, 32.78579 ], [ -96.500752, 32.774416 ], [ -96.503554, 32.774975 ], [ -96.502183, 32.778933 ], [ -96.502249, 32.779704 ], [ -96.508525, 32.787036 ], [ -96.509178, 32.789433 ], [ -96.519349, 32.789626 ], [ -96.519261, 32.796028 ], [ -96.525896, 32.79584 ], [ -96.5293, 32.796868 ], [ -96.532151, 32.79815 ], [ -96.534865, 32.803778 ], [ -96.534911, 32.80812 ], [ -96.535154, 32.808753 ], [ -96.534276, 32.810831 ], [ -96.535053, 32.810792 ], [ -96.53507, 32.81156 ], [ -96.533776, 32.811548 ], [ -96.533659, 32.813418 ], [ -96.532877, 32.813429 ], [ -96.533596, 32.814771 ], [ -96.534974, 32.814703 ], [ -96.540874, 32.81814 ], [ -96.542557, 32.820332 ], [ -96.542349, 32.82182 ], [ -96.543472, 32.822519 ], [ -96.543572, 32.823726 ], [ -96.541866, 32.823546 ], [ -96.538898, 32.828038 ], [ -96.541373, 32.827956 ], [ -96.543448, 32.829243 ], [ -96.543356, 32.833616 ], [ -96.545544, 32.833583 ], [ -96.545526, 32.840759 ], [ -96.543376, 32.840735 ], [ -96.543365, 32.845578 ], [ -96.54788, 32.846106 ], [ -96.54888, 32.847239 ], [ -96.549888, 32.847367 ], [ -96.549872, 32.848146 ], [ -96.549376, 32.848597 ], [ -96.548865, 32.847971 ], [ -96.548056, 32.847755 ], [ -96.547827, 32.847158 ], [ -96.547443, 32.847226 ], [ -96.546073, 32.846379 ], [ -96.545353, 32.84648 ], [ -96.544893, 32.847423 ], [ -96.545181, 32.84825 ], [ -96.546501, 32.84935 ], [ -96.546623, 32.850622 ], [ -96.548135, 32.851927 ], [ -96.54781, 32.853187 ], [ -96.546551, 32.854929 ], [ -96.547065, 32.856133 ], [ -96.547685, 32.856374 ], [ -96.547502, 32.857413 ], [ -96.548954, 32.858629 ], [ -96.550213, 32.858255 ], [ -96.550805, 32.858457 ], [ -96.54881, 32.85897 ], [ -96.545062, 32.857724 ], [ -96.544219, 32.857988 ], [ -96.542208, 32.857637 ], [ -96.540376, 32.857688 ], [ -96.539143, 32.858189 ], [ -96.538261, 32.859959 ], [ -96.53813, 32.862195 ], [ -96.539793, 32.864024 ], [ -96.538557, 32.863779 ], [ -96.537131, 32.864938 ], [ -96.537346, 32.865208 ], [ -96.537126, 32.866705 ], [ -96.53785, 32.867272 ], [ -96.537492, 32.867652 ], [ -96.537729, 32.868119 ], [ -96.539998, 32.868171 ], [ -96.542031, 32.867713 ], [ -96.544156, 32.868209 ], [ -96.544822, 32.867746 ], [ -96.546824, 32.867662 ], [ -96.547029, 32.867316 ], [ -96.546819, 32.866801 ], [ -96.547374, 32.865317 ], [ -96.548031, 32.864618 ], [ -96.550878, 32.863266 ], [ -96.552473, 32.861999 ], [ -96.553429, 32.861775 ], [ -96.557623, 32.86244 ], [ -96.560228, 32.863407 ], [ -96.561542, 32.863202 ], [ -96.562341, 32.862711 ], [ -96.562455, 32.862972 ], [ -96.563395, 32.862604 ], [ -96.565156, 32.862524 ], [ -96.566804, 32.863586 ], [ -96.567618, 32.863574 ], [ -96.567686, 32.864199 ], [ -96.568225, 32.864584 ], [ -96.567958, 32.864861 ], [ -96.569046, 32.865765 ], [ -96.571781, 32.866835 ], [ -96.571381, 32.868378 ], [ -96.571926, 32.868256 ], [ -96.572613, 32.866362 ], [ -96.573894, 32.865766 ], [ -96.576963, 32.866177 ], [ -96.578834, 32.867338 ], [ -96.579447, 32.867153 ], [ -96.580907, 32.867422 ], [ -96.581539, 32.868274 ], [ -96.581937, 32.868122 ], [ -96.581582, 32.86859 ], [ -96.582328, 32.869817 ], [ -96.583949, 32.869713 ], [ -96.584042, 32.870374 ], [ -96.584487, 32.870755 ], [ -96.586169, 32.871462 ], [ -96.585858, 32.872266 ], [ -96.586785, 32.872356 ], [ -96.585579, 32.872655 ], [ -96.585613, 32.873213 ], [ -96.586712, 32.873445 ], [ -96.587814, 32.874503 ], [ -96.588423, 32.874499 ], [ -96.588518, 32.875204 ], [ -96.589538, 32.875679 ], [ -96.590731, 32.877311 ], [ -96.591665, 32.877963 ], [ -96.592001, 32.879865 ], [ -96.591843, 32.880843 ], [ -96.592592, 32.882098 ], [ -96.592511, 32.882727 ], [ -96.593139, 32.883027 ], [ -96.593753, 32.882693 ], [ -96.593386, 32.882506 ], [ -96.593617, 32.88233 ], [ -96.59419, 32.882889 ], [ -96.593083, 32.883333 ], [ -96.593274, 32.883701 ], [ -96.594024, 32.883342 ], [ -96.595206, 32.883908 ], [ -96.594854, 32.884351 ], [ -96.593717, 32.883887 ], [ -96.592591, 32.884988 ], [ -96.59291, 32.885332 ], [ -96.593446, 32.885267 ], [ -96.594825, 32.887006 ], [ -96.596395, 32.888014 ], [ -96.596597, 32.890433 ], [ -96.597238, 32.890847 ] ] ], [ [ [ -96.99352, 32.931249 ], [ -96.99344, 32.944294 ], [ -96.991714, 32.944443 ], [ -96.991662, 32.947708 ], [ -96.988741, 32.947683 ], [ -96.986879, 32.948162 ], [ -96.985554, 32.949064 ], [ -96.983775, 32.951481 ], [ -96.98257, 32.952522 ], [ -96.97913, 32.953873 ], [ -96.979277, 32.954129 ], [ -96.974406, 32.955737 ], [ -96.972139, 32.955742 ], [ -96.968221, 32.954613 ], [ -96.968223, 32.953947 ], [ -96.966258, 32.952709 ], [ -96.968235, 32.952728 ], [ -96.968244, 32.952223 ], [ -96.969978, 32.952212 ], [ -96.970022, 32.951633 ], [ -96.970065, 32.949155 ], [ -96.968987, 32.947526 ], [ -96.967569, 32.947477 ], [ -96.967707, 32.925344 ], [ -96.99145, 32.92572 ], [ -96.991391, 32.931226 ], [ -96.99352, 32.931249 ] ] ], [ [ [ -97.000482, 32.622213 ], [ -96.999372, 32.623252 ], [ -96.998501, 32.627088 ], [ -96.996137, 32.62996 ], [ -96.996263, 32.634922 ], [ -96.995451, 32.639723 ], [ -96.991896, 32.642799 ], [ -96.990313, 32.642532 ], [ -96.989602, 32.644047 ], [ -96.989517, 32.64599 ], [ -96.988123, 32.646732 ], [ -96.98811, 32.647091 ], [ -96.98868, 32.647417 ], [ -96.989031, 32.650074 ], [ -96.994977, 32.658758 ], [ -96.98889, 32.661768 ], [ -96.98971, 32.663063 ], [ -96.98827, 32.664423 ], [ -96.987976, 32.665819 ], [ -96.988161, 32.668008 ], [ -96.987251, 32.668231 ], [ -96.987774, 32.668977 ], [ -96.983736, 32.670876 ], [ -96.983174, 32.673347 ], [ -96.983394, 32.679272 ], [ -96.985, 32.679237 ], [ -96.984912, 32.68753 ], [ -96.991224, 32.687542 ], [ -96.991063, 32.694485 ], [ -96.985231, 32.694411 ], [ -96.985251, 32.704154 ], [ -96.984652, 32.704653 ], [ -96.980975, 32.705882 ], [ -96.978492, 32.705893 ], [ -96.978657, 32.706325 ], [ -96.977935, 32.707061 ], [ -96.977889, 32.70809 ], [ -96.977149, 32.708635 ], [ -96.976838, 32.70939 ], [ -96.976702, 32.710195 ], [ -96.977258, 32.711382 ], [ -96.977111, 32.711906 ], [ -96.975386, 32.714669 ], [ -96.974744, 32.715162 ], [ -96.974422, 32.716073 ], [ -96.975672, 32.717236 ], [ -96.977246, 32.717225 ], [ -96.977214, 32.726259 ], [ -96.981501, 32.726278 ], [ -96.981466, 32.72915 ], [ -96.98252, 32.729151 ], [ -96.984738, 32.727184 ], [ -96.987376, 32.727371 ], [ -96.987401, 32.725518 ], [ -96.989875, 32.725541 ], [ -96.989851, 32.727168 ], [ -96.989065, 32.727608 ], [ -96.989469, 32.729001 ], [ -96.991352, 32.730582 ], [ -96.9926, 32.730393 ], [ -96.993301, 32.731352 ], [ -96.994004, 32.731358 ], [ -96.994007, 32.731599 ], [ -96.99292, 32.731595 ], [ -96.992963, 32.73493 ], [ -96.991217, 32.734928 ], [ -96.99106, 32.732843 ], [ -96.989281, 32.732849 ], [ -96.989264, 32.73493 ], [ -96.983894, 32.734895 ], [ -96.983891, 32.738157 ], [ -96.987716, 32.738211 ], [ -96.987445, 32.74537 ], [ -96.957964, 32.746495 ], [ -96.958206, 32.738782 ], [ -96.951442, 32.738913 ], [ -96.95141, 32.737952 ], [ -96.950358, 32.737825 ], [ -96.948664, 32.73669 ], [ -96.948642, 32.738759 ], [ -96.943073, 32.738733 ], [ -96.942898, 32.742228 ], [ -96.938274, 32.742159 ], [ -96.937095, 32.743117 ], [ -96.934972, 32.743075 ], [ -96.934969, 32.743742 ], [ -96.934369, 32.743504 ], [ -96.93501, 32.742825 ], [ -96.931089, 32.742589 ], [ -96.92973, 32.744406 ], [ -96.92806, 32.744463 ], [ -96.927312, 32.744837 ], [ -96.926654, 32.746096 ], [ -96.926703, 32.746943 ], [ -96.926257, 32.747824 ], [ -96.926242, 32.751364 ], [ -96.925634, 32.754354 ], [ -96.925918, 32.755831 ], [ -96.925225, 32.758749 ], [ -96.924017, 32.761065 ], [ -96.92472, 32.76225 ], [ -96.925913, 32.762154 ], [ -96.926691, 32.762464 ], [ -96.928001, 32.764508 ], [ -96.927032, 32.766178 ], [ -96.926976, 32.766728 ], [ -96.927496, 32.76731 ], [ -96.926455, 32.767939 ], [ -96.926081, 32.76887 ], [ -96.926704, 32.771206 ], [ -96.926052, 32.775007 ], [ -96.926354, 32.776204 ], [ -96.926095, 32.777524 ], [ -96.926416, 32.778694 ], [ -96.926077, 32.782076 ], [ -96.918902, 32.785719 ], [ -96.918009, 32.785595 ], [ -96.915655, 32.784311 ], [ -96.913925, 32.784495 ], [ -96.9125, 32.785705 ], [ -96.91146, 32.787519 ], [ -96.910654, 32.789654 ], [ -96.910391, 32.792268 ], [ -96.90806, 32.796433 ], [ -96.907353, 32.797111 ], [ -96.904122, 32.798195 ], [ -96.898522, 32.798192 ], [ -96.900006, 32.799092 ], [ -96.901537, 32.800668 ], [ -96.903705, 32.804281 ], [ -96.900875, 32.806819 ], [ -96.902209, 32.807665 ], [ -96.904565, 32.805594 ], [ -96.905721, 32.807403 ], [ -96.906158, 32.809647 ], [ -96.905907, 32.815694 ], [ -96.904643, 32.817574 ], [ -96.896964, 32.825104 ], [ -96.895569, 32.825066 ], [ -96.895582, 32.825611 ], [ -96.892142, 32.828525 ], [ -96.890732, 32.830314 ], [ -96.891334, 32.830721 ], [ -96.890817, 32.831436 ], [ -96.89003, 32.834533 ], [ -96.890609, 32.836134 ], [ -96.890278, 32.837892 ], [ -96.890393, 32.84065 ], [ -96.891292, 32.840637 ], [ -96.891228, 32.837424 ], [ -96.891871, 32.837411 ], [ -96.891855, 32.841338 ], [ -96.890344, 32.841339 ], [ -96.890401, 32.845333 ], [ -96.889453, 32.847479 ], [ -96.891027, 32.846683 ], [ -96.89273, 32.846872 ], [ -96.893665, 32.847463 ], [ -96.893201, 32.847803 ], [ -96.893855, 32.848657 ], [ -96.893723, 32.84996 ], [ -96.894373, 32.850699 ], [ -96.895293, 32.850935 ], [ -96.897666, 32.850353 ], [ -96.898746, 32.850716 ], [ -96.89879, 32.851073 ], [ -96.897878, 32.852064 ], [ -96.898153, 32.852908 ], [ -96.89889, 32.853501 ], [ -96.900214, 32.853558 ], [ -96.901282, 32.852263 ], [ -96.902662, 32.852404 ], [ -96.903486, 32.852966 ], [ -96.903711, 32.854141 ], [ -96.905633, 32.853856 ], [ -96.906536, 32.854139 ], [ -96.907429, 32.855623 ], [ -96.908145, 32.856056 ], [ -96.910525, 32.855288 ], [ -96.911413, 32.85546 ], [ -96.911946, 32.856115 ], [ -96.912366, 32.857765 ], [ -96.912845, 32.858141 ], [ -96.913717, 32.857942 ], [ -96.914099, 32.856403 ], [ -96.915488, 32.855952 ], [ -96.916743, 32.856318 ], [ -96.916727, 32.858096 ], [ -96.917147, 32.858556 ], [ -96.918416, 32.857643 ], [ -96.919342, 32.857413 ], [ -96.925049, 32.858655 ], [ -96.925295, 32.859147 ], [ -96.92509, 32.859569 ], [ -96.92239, 32.86074 ], [ -96.922117, 32.861367 ], [ -96.922261, 32.861993 ], [ -96.922791, 32.862416 ], [ -96.924755, 32.862813 ], [ -96.925264, 32.863273 ], [ -96.92416, 32.865329 ], [ -96.924244, 32.865736 ], [ -96.926201, 32.865333 ], [ -96.926896, 32.865958 ], [ -96.926863, 32.867074 ], [ -96.924975, 32.868151 ], [ -96.925019, 32.870913 ], [ -96.927413, 32.869275 ], [ -96.930748, 32.870446 ], [ -96.931549, 32.871301 ], [ -96.931349, 32.873123 ], [ -96.930582, 32.874046 ], [ -96.930829, 32.874204 ], [ -96.929569, 32.876428 ], [ -96.929651, 32.880598 ], [ -96.928196, 32.88227 ], [ -96.928321, 32.883017 ], [ -96.928711, 32.88327 ], [ -96.930034, 32.882881 ], [ -96.931023, 32.882973 ], [ -96.93173, 32.883303 ], [ -96.932263, 32.884153 ], [ -96.931853, 32.885657 ], [ -96.930121, 32.887355 ], [ -96.931115, 32.889769 ], [ -96.931099, 32.890479 ], [ -96.930342, 32.891053 ], [ -96.928017, 32.891222 ], [ -96.927248, 32.891916 ], [ -96.927205, 32.893193 ], [ -96.928547, 32.895106 ], [ -96.928513, 32.895973 ], [ -96.927566, 32.897424 ], [ -96.922916, 32.897659 ], [ -96.922215, 32.898974 ], [ -96.922332, 32.899445 ], [ -96.92315, 32.899759 ], [ -96.924856, 32.89893 ], [ -96.92565, 32.898974 ], [ -96.926771, 32.899661 ], [ -96.927448, 32.900551 ], [ -96.92753, 32.901287 ], [ -96.926701, 32.902759 ], [ -96.926655, 32.903603 ], [ -96.927099, 32.904546 ], [ -96.928127, 32.905507 ], [ -96.929949, 32.905997 ], [ -96.931682, 32.907093 ], [ -96.931853, 32.907561 ], [ -96.931243, 32.908454 ], [ -96.931075, 32.90943 ], [ -96.932006, 32.911239 ], [ -96.933536, 32.912155 ], [ -96.937001, 32.91265 ], [ -96.937906, 32.913103 ], [ -96.938465, 32.913894 ], [ -96.938503, 32.914434 ], [ -96.937727, 32.915902 ], [ -96.938694, 32.918504 ], [ -96.938119, 32.920918 ], [ -96.938413, 32.922556 ], [ -96.938008, 32.92325 ], [ -96.936462, 32.924103 ], [ -96.935859, 32.924919 ], [ -96.937157, 32.926735 ], [ -96.937443, 32.927386 ], [ -96.937416, 32.927832 ], [ -96.936905, 32.928084 ], [ -96.935872, 32.927374 ], [ -96.935093, 32.927323 ], [ -96.933639, 32.927853 ], [ -96.932954, 32.928722 ], [ -96.933651, 32.929743 ], [ -96.936316, 32.930031 ], [ -96.939437, 32.931545 ], [ -96.940214, 32.932116 ], [ -96.940302, 32.933 ], [ -96.939444, 32.934666 ], [ -96.938551, 32.935353 ], [ -96.937801, 32.935435 ], [ -96.935793, 32.934713 ], [ -96.935272, 32.934883 ], [ -96.935245, 32.937044 ], [ -96.93617, 32.936743 ], [ -96.937506, 32.937508 ], [ -96.937425, 32.938006 ], [ -96.937766, 32.937911 ], [ -96.93775, 32.938212 ], [ -96.937345, 32.938511 ], [ -96.934721, 32.938513 ], [ -96.932728, 32.941333 ], [ -96.933661, 32.942821 ], [ -96.934038, 32.944783 ], [ -96.935342, 32.947273 ], [ -96.937456, 32.947426 ], [ -96.938535, 32.947971 ], [ -96.93941, 32.948887 ], [ -96.939592, 32.949913 ], [ -96.938907, 32.951141 ], [ -96.938887, 32.952153 ], [ -96.941813, 32.955437 ], [ -96.942887, 32.956215 ], [ -96.943724, 32.957758 ], [ -96.944132, 32.961225 ], [ -96.943944, 32.962612 ], [ -96.944153, 32.963693 ], [ -96.944841, 32.964425 ], [ -96.945006, 32.966549 ], [ -96.942608, 32.967953 ], [ -96.942029, 32.968608 ], [ -96.941983, 32.966867 ], [ -96.939864, 32.966882 ], [ -96.939902, 32.965123 ], [ -96.944088, 32.965191 ], [ -96.943434, 32.962962 ], [ -96.943678, 32.961495 ], [ -96.943237, 32.957899 ], [ -96.94205, 32.956141 ], [ -96.938791, 32.952569 ], [ -96.938781, 32.951013 ], [ -96.939478, 32.950024 ], [ -96.939249, 32.949026 ], [ -96.937376, 32.947586 ], [ -96.935643, 32.947568 ], [ -96.934792, 32.947029 ], [ -96.933481, 32.94443 ], [ -96.933403, 32.942852 ], [ -96.932594, 32.941554 ], [ -96.932554, 32.941066 ], [ -96.934782, 32.938236 ], [ -96.934992, 32.935043 ], [ -96.93566, 32.934497 ], [ -96.937287, 32.935208 ], [ -96.938344, 32.935302 ], [ -96.939383, 32.934556 ], [ -96.940171, 32.932947 ], [ -96.939986, 32.932026 ], [ -96.939347, 32.931609 ], [ -96.936411, 32.93017 ], [ -96.933513, 32.929819 ], [ -96.932818, 32.928927 ], [ -96.933189, 32.928002 ], [ -96.934428, 32.927364 ], [ -96.935534, 32.927194 ], [ -96.936847, 32.927892 ], [ -96.9373, 32.927648 ], [ -96.937018, 32.926647 ], [ -96.935693, 32.924845 ], [ -96.936425, 32.923913 ], [ -96.937937, 32.923125 ], [ -96.938275, 32.922499 ], [ -96.938115, 32.92157 ], [ -96.937314, 32.921563 ], [ -96.937864, 32.919241 ], [ -96.937279, 32.917147 ], [ -96.937376, 32.915442 ], [ -96.937877, 32.914427 ], [ -96.937696, 32.913851 ], [ -96.935169, 32.912722 ], [ -96.933267, 32.912618 ], [ -96.930675, 32.910735 ], [ -96.930244, 32.909249 ], [ -96.931182, 32.907519 ], [ -96.930177, 32.906917 ], [ -96.928171, 32.90641 ], [ -96.92647, 32.904815 ], [ -96.926186, 32.902869 ], [ -96.92637, 32.899988 ], [ -96.925071, 32.899783 ], [ -96.922571, 32.900371 ], [ -96.92073, 32.899952 ], [ -96.921658, 32.8977 ], [ -96.922958, 32.897185 ], [ -96.92693, 32.896721 ], [ -96.927288, 32.895668 ], [ -96.910874, 32.89586 ], [ -96.910022, 32.899737 ], [ -96.910693, 32.899741 ], [ -96.908243, 32.911788 ], [ -96.904674, 32.911719 ], [ -96.904988, 32.913265 ], [ -96.901748, 32.913861 ], [ -96.898602, 32.913865 ], [ -96.898593, 32.914397 ], [ -96.894274, 32.914365 ], [ -96.89463, 32.915319 ], [ -96.891398, 32.915553 ], [ -96.891566, 32.909565 ], [ -96.890856, 32.909095 ], [ -96.87316, 32.913097 ], [ -96.867356, 32.914889 ], [ -96.858975, 32.91695 ], [ -96.84311, 32.923572 ], [ -96.838771, 32.925735 ], [ -96.834982, 32.926346 ], [ -96.823649, 32.926518 ], [ -96.821844, 32.927407 ], [ -96.820713, 32.927557 ], [ -96.822509, 32.932923 ], [ -96.822176, 32.932909 ], [ -96.822248, 32.942228 ], [ -96.823616, 32.94588 ], [ -96.82366, 32.950234 ], [ -96.82031, 32.949958 ], [ -96.81783, 32.950127 ], [ -96.816335, 32.947172 ], [ -96.814985, 32.945372 ], [ -96.813884, 32.945999 ], [ -96.809782, 32.945344 ], [ -96.809484, 32.94595 ], [ -96.809837, 32.946828 ], [ -96.809466, 32.946969 ], [ -96.809623, 32.948015 ], [ -96.808797, 32.948703 ], [ -96.808629, 32.949762 ], [ -96.807896, 32.950739 ], [ -96.808564, 32.95172 ], [ -96.808434, 32.953944 ], [ -96.822287, 32.954022 ], [ -96.821347, 32.959708 ], [ -96.822191, 32.964588 ], [ -96.821712, 32.968589 ], [ -96.821808, 32.973017 ], [ -96.822766, 32.974565 ], [ -96.827725, 32.978434 ], [ -96.828632, 32.979712 ], [ -96.829012, 32.981098 ], [ -96.828717, 32.987202 ], [ -96.854882, 32.987209 ], [ -96.854797, 32.989691 ], [ -96.874935, 32.989773 ], [ -96.871489, 33.002059 ], [ -96.868169, 33.002128 ], [ -96.866933, 33.001086 ], [ -96.866085, 33.001793 ], [ -96.866372, 33.001987 ], [ -96.866061, 33.002236 ], [ -96.866349, 33.002633 ], [ -96.86603, 33.003387 ], [ -96.866003, 33.01176 ], [ -96.859961, 33.011637 ], [ -96.849337, 33.012006 ], [ -96.843994, 33.013764 ], [ -96.843907, 33.016666 ], [ -96.831334, 33.01567 ], [ -96.818647, 33.013564 ], [ -96.818664, 33.012828 ], [ -96.799679, 33.012732 ], [ -96.791985, 33.011957 ], [ -96.789331, 33.011335 ], [ -96.786481, 33.010026 ], [ -96.779811, 33.004849 ], [ -96.77523, 33.001987 ], [ -96.772403, 33.000693 ], [ -96.768862, 32.999772 ], [ -96.765041, 32.999367 ], [ -96.761182, 32.999525 ], [ -96.756858, 33.000422 ], [ -96.756459, 32.997481 ], [ -96.755095, 32.996918 ], [ -96.755889, 32.996259 ], [ -96.756409, 32.995193 ], [ -96.756467, 32.984889 ], [ -96.757388, 32.9829 ], [ -96.768216, 32.982891 ], [ -96.768224, 32.976901 ], [ -96.768923, 32.973847 ], [ -96.768987, 32.939867 ], [ -96.748136, 32.939974 ], [ -96.748368, 32.934223 ], [ -96.745584, 32.934011 ], [ -96.745453, 32.935015 ], [ -96.741229, 32.934732 ], [ -96.748501, 32.923356 ], [ -96.737874, 32.923392 ], [ -96.73704, 32.923613 ], [ -96.736021, 32.925495 ], [ -96.718147, 32.925432 ], [ -96.718125, 32.931291 ], [ -96.705745, 32.931228 ], [ -96.705765, 32.916601 ], [ -96.70039, 32.916562 ], [ -96.700544, 32.909025 ], [ -96.697476, 32.909 ], [ -96.697534, 32.902565 ], [ -96.692546, 32.904098 ], [ -96.692549, 32.903806 ], [ -96.691706, 32.904064 ], [ -96.691759, 32.89443 ], [ -96.693672, 32.894422 ], [ -96.693684, 32.890333 ], [ -96.690513, 32.890312 ], [ -96.690555, 32.885955 ], [ -96.683157, 32.885936 ], [ -96.68318, 32.878801 ], [ -96.689481, 32.878681 ], [ -96.687091, 32.87738 ], [ -96.681371, 32.87265 ], [ -96.677084, 32.870678 ], [ -96.671048, 32.869296 ], [ -96.669368, 32.867545 ], [ -96.669277, 32.866571 ], [ -96.669069, 32.866449 ], [ -96.668311, 32.867469 ], [ -96.66792, 32.867301 ], [ -96.665846, 32.865979 ], [ -96.665873, 32.865611 ], [ -96.665222, 32.865593 ], [ -96.649224, 32.85563 ], [ -96.645503, 32.853057 ], [ -96.636187, 32.844791 ], [ -96.635398, 32.843313 ], [ -96.639674, 32.839652 ], [ -96.642307, 32.839593 ], [ -96.64718, 32.837667 ], [ -96.648446, 32.838785 ], [ -96.652556, 32.835316 ], [ -96.655263, 32.837638 ], [ -96.658996, 32.834383 ], [ -96.660478, 32.834754 ], [ -96.66054, 32.830817 ], [ -96.65819, 32.830853 ], [ -96.658052, 32.821396 ], [ -96.661683, 32.821391 ], [ -96.661622, 32.819063 ], [ -96.662321, 32.819025 ], [ -96.662264, 32.815541 ], [ -96.665428, 32.815536 ], [ -96.665257, 32.810951 ], [ -96.665699, 32.810003 ], [ -96.665357, 32.809693 ], [ -96.665383, 32.807209 ], [ -96.668291, 32.80687 ], [ -96.673605, 32.806879 ], [ -96.673879, 32.800789 ], [ -96.674464, 32.800142 ], [ -96.673903, 32.799434 ], [ -96.673941, 32.79854 ], [ -96.681217, 32.79755 ], [ -96.681761, 32.797116 ], [ -96.682228, 32.79582 ], [ -96.683696, 32.794148 ], [ -96.68421, 32.792362 ], [ -96.677632, 32.792277 ], [ -96.677643, 32.791649 ], [ -96.673097, 32.791544 ], [ -96.673048, 32.787064 ], [ -96.670432, 32.784771 ], [ -96.671247, 32.784785 ], [ -96.67126, 32.784037 ], [ -96.669481, 32.784023 ], [ -96.669491, 32.783317 ], [ -96.667992, 32.783323 ], [ -96.663106, 32.778581 ], [ -96.662199, 32.778561 ], [ -96.644377, 32.76341 ], [ -96.64315, 32.75911 ], [ -96.639012, 32.755515 ], [ -96.639084, 32.737789 ], [ -96.638873, 32.734135 ], [ -96.638387, 32.734127 ], [ -96.63845, 32.726844 ], [ -96.638994, 32.72685 ], [ -96.639182, 32.726499 ], [ -96.639207, 32.723103 ], [ -96.638487, 32.723099 ], [ -96.638502, 32.705033 ], [ -96.635689, 32.705032 ], [ -96.635633, 32.704017 ], [ -96.635673, 32.699529 ], [ -96.636842, 32.699526 ], [ -96.637531, 32.694094 ], [ -96.630898, 32.690427 ], [ -96.622935, 32.690437 ], [ -96.622879, 32.694437 ], [ -96.622165, 32.694445 ], [ -96.622163, 32.695019 ], [ -96.617636, 32.695138 ], [ -96.617618, 32.69652 ], [ -96.614331, 32.696488 ], [ -96.614176, 32.701266 ], [ -96.607426, 32.701817 ], [ -96.60532, 32.701658 ], [ -96.604708, 32.701341 ], [ -96.604478, 32.701511 ], [ -96.604734, 32.701736 ], [ -96.602595, 32.702098 ], [ -96.591428, 32.703221 ], [ -96.581797, 32.703722 ], [ -96.575115, 32.703314 ], [ -96.573618, 32.701918 ], [ -96.567281, 32.701367 ], [ -96.567491, 32.701639 ], [ -96.566811, 32.702171 ], [ -96.566096, 32.701555 ], [ -96.565651, 32.701763 ], [ -96.565598, 32.701521 ], [ -96.562979, 32.701168 ], [ -96.562189, 32.698575 ], [ -96.561606, 32.697642 ], [ -96.555271, 32.692055 ], [ -96.558512, 32.689058 ], [ -96.556618, 32.687452 ], [ -96.56315, 32.681703 ], [ -96.562594, 32.68128 ], [ -96.562882, 32.681096 ], [ -96.573488, 32.680162 ], [ -96.57469, 32.680943 ], [ -96.57594, 32.679938 ], [ -96.574625, 32.678683 ], [ -96.578959, 32.675172 ], [ -96.580721, 32.67596 ], [ -96.585172, 32.672342 ], [ -96.58529, 32.671942 ], [ -96.588365, 32.669781 ], [ -96.595371, 32.673065 ], [ -96.59797, 32.670924 ], [ -96.592172, 32.667703 ], [ -96.591162, 32.667417 ], [ -96.59378, 32.665214 ], [ -96.591666, 32.663338 ], [ -96.59459, 32.660955 ], [ -96.592258, 32.659762 ], [ -96.590223, 32.659518 ], [ -96.582137, 32.652357 ], [ -96.585535, 32.64767 ], [ -96.592415, 32.653854 ], [ -96.589073, 32.656526 ], [ -96.590932, 32.656516 ], [ -96.593545, 32.658673 ], [ -96.603394, 32.664231 ], [ -96.606461, 32.661845 ], [ -96.610538, 32.665332 ], [ -96.616117, 32.660515 ], [ -96.616538, 32.65614 ], [ -96.615206, 32.654872 ], [ -96.616021, 32.654023 ], [ -96.614115, 32.652297 ], [ -96.615224, 32.651401 ], [ -96.614025, 32.65072 ], [ -96.61568, 32.649213 ], [ -96.617721, 32.650005 ], [ -96.6235, 32.644887 ], [ -96.620906, 32.651977 ], [ -96.621835, 32.655129 ], [ -96.623714, 32.654758 ], [ -96.64546, 32.636566 ], [ -96.649047, 32.638578 ], [ -96.651121, 32.639242 ], [ -96.65248, 32.638551 ], [ -96.654495, 32.636566 ], [ -96.656934, 32.637464 ], [ -96.652987, 32.640822 ], [ -96.661377, 32.64399 ], [ -96.65662, 32.647772 ], [ -96.666752, 32.656388 ], [ -96.667166, 32.656052 ], [ -96.670692, 32.659234 ], [ -96.669714, 32.661028 ], [ -96.668949, 32.664892 ], [ -96.672225, 32.667636 ], [ -96.671684, 32.668992 ], [ -96.679082, 32.669091 ], [ -96.679363, 32.670301 ], [ -96.679047, 32.671216 ], [ -96.676641, 32.674208 ], [ -96.676549, 32.675097 ], [ -96.676984, 32.67582 ], [ -96.677989, 32.676356 ], [ -96.679684, 32.676218 ], [ -96.685008, 32.673227 ], [ -96.68948, 32.671836 ], [ -96.691457, 32.671921 ], [ -96.692288, 32.672596 ], [ -96.693206, 32.674778 ], [ -96.694601, 32.675906 ], [ -96.695339, 32.677284 ], [ -96.695244, 32.678044 ], [ -96.694386, 32.679034 ], [ -96.693689, 32.680645 ], [ -96.696654, 32.680305 ], [ -96.697355, 32.679659 ], [ -96.698099, 32.679542 ], [ -96.698844, 32.679737 ], [ -96.698782, 32.680364 ], [ -96.699134, 32.680513 ], [ -96.700313, 32.679628 ], [ -96.702349, 32.679027 ], [ -96.704, 32.676734 ], [ -96.71821, 32.669596 ], [ -96.719723, 32.669147 ], [ -96.721607, 32.669111 ], [ -96.723223, 32.669546 ], [ -96.724531, 32.670334 ], [ -96.724933, 32.668951 ], [ -96.722322, 32.662965 ], [ -96.726986, 32.660346 ], [ -96.729795, 32.659224 ], [ -96.726036, 32.653773 ], [ -96.726924, 32.653341 ], [ -96.726679, 32.652973 ], [ -96.731277, 32.65079 ], [ -96.729457, 32.648125 ], [ -96.733021, 32.646421 ], [ -96.73018, 32.642262 ], [ -96.733454, 32.640779 ], [ -96.729768, 32.635496 ], [ -96.731839, 32.629604 ], [ -96.744648, 32.623461 ], [ -96.745437, 32.618574 ], [ -96.765656, 32.618582 ], [ -96.768657, 32.62402 ], [ -96.773213, 32.634328 ], [ -96.777351, 32.641495 ], [ -96.783933, 32.638306 ], [ -96.788516, 32.644852 ], [ -96.788495, 32.645773 ], [ -96.787743, 32.646046 ], [ -96.78768, 32.647491 ], [ -96.802544, 32.649311 ], [ -96.80561, 32.64774 ], [ -96.814281, 32.647718 ], [ -96.814278, 32.642363 ], [ -96.823324, 32.642285 ], [ -96.823303, 32.633231 ], [ -96.831588, 32.633195 ], [ -96.831504, 32.632678 ], [ -96.835509, 32.632653 ], [ -96.835521, 32.63319 ], [ -96.865684, 32.633083 ], [ -96.865569, 32.63597 ], [ -96.87441, 32.636035 ], [ -96.874241, 32.642893 ], [ -96.878458, 32.642901 ], [ -96.878437, 32.646502 ], [ -96.879911, 32.64652 ], [ -96.879912, 32.647483 ], [ -96.891269, 32.647376 ], [ -96.891354, 32.672998 ], [ -96.892807, 32.672936 ], [ -96.892848, 32.676495 ], [ -96.905788, 32.676379 ], [ -96.905667, 32.67558 ], [ -96.90863, 32.675606 ], [ -96.90862, 32.676445 ], [ -96.92576, 32.676475 ], [ -96.925824, 32.66234 ], [ -96.943226, 32.662227 ], [ -96.942866, 32.634846 ], [ -96.943314, 32.631886 ], [ -96.943239, 32.626115 ], [ -96.942661, 32.62413 ], [ -96.945465, 32.620124 ], [ -96.949039, 32.62051 ], [ -96.95302, 32.626264 ], [ -96.953256, 32.626668 ], [ -96.953249, 32.632728 ], [ -96.957627, 32.632675 ], [ -96.956839, 32.631498 ], [ -96.97584, 32.622069 ], [ -96.975642, 32.624741 ], [ -96.974407, 32.630226 ], [ -96.972022, 32.637165 ], [ -96.975572, 32.638546 ], [ -96.976548, 32.639317 ], [ -96.977469, 32.639038 ], [ -96.977713, 32.639408 ], [ -96.978185, 32.638779 ], [ -96.979504, 32.639042 ], [ -96.980834, 32.638427 ], [ -96.979584, 32.637333 ], [ -96.980909, 32.636939 ], [ -96.981496, 32.6362 ], [ -96.980172, 32.634296 ], [ -96.98077, 32.633601 ], [ -96.980691, 32.631996 ], [ -96.981724, 32.632157 ], [ -96.982695, 32.633234 ], [ -96.982952, 32.632666 ], [ -96.984111, 32.632134 ], [ -96.983718, 32.631728 ], [ -96.982468, 32.63172 ], [ -96.982226, 32.631422 ], [ -96.982382, 32.631045 ], [ -96.98474, 32.629886 ], [ -96.983944, 32.628631 ], [ -96.983279, 32.628346 ], [ -96.983465, 32.62805 ], [ -96.982401, 32.627435 ], [ -96.981978, 32.625618 ], [ -96.982321, 32.625506 ], [ -96.982231, 32.625059 ], [ -96.982568, 32.624619 ], [ -96.982299, 32.624437 ], [ -96.982815, 32.624094 ], [ -96.983998, 32.625484 ], [ -96.986405, 32.626799 ], [ -96.986991, 32.626284 ], [ -96.988256, 32.626488 ], [ -96.991098, 32.62527 ], [ -96.991892, 32.625321 ], [ -96.992746, 32.624733 ], [ -96.992584, 32.624149 ], [ -96.991149, 32.623482 ], [ -96.992081, 32.622942 ], [ -96.991957, 32.621882 ], [ -96.991016, 32.621505 ], [ -96.99201, 32.620578 ], [ -96.991608, 32.619115 ], [ -96.989001, 32.61909 ], [ -96.988761, 32.618797 ], [ -96.991601, 32.616934 ], [ -96.993828, 32.617016 ], [ -96.993884, 32.616473 ], [ -96.993012, 32.615726 ], [ -96.993102, 32.615062 ], [ -96.992585, 32.61455 ], [ -96.992752, 32.613458 ], [ -96.993651, 32.613287 ], [ -96.994174, 32.613641 ], [ -96.994173, 32.614013 ], [ -96.994864, 32.614134 ], [ -96.995543, 32.6147 ], [ -97.000482, 32.622213 ] ], [ [ -96.898412, 32.735173 ], [ -96.898463, 32.732827 ], [ -96.891449, 32.732757 ], [ -96.891458, 32.731234 ], [ -96.890092, 32.731234 ], [ -96.889983, 32.731641 ], [ -96.887746, 32.731724 ], [ -96.887676, 32.734985 ], [ -96.879683, 32.734952 ], [ -96.87963, 32.739266 ], [ -96.878601, 32.739264 ], [ -96.878594, 32.740543 ], [ -96.880972, 32.739921 ], [ -96.881006, 32.742286 ], [ -96.89137, 32.742324 ], [ -96.891374, 32.746543 ], [ -96.895649, 32.746429 ], [ -96.89564, 32.744839 ], [ -96.893919, 32.744895 ], [ -96.894003, 32.73686 ], [ -96.893388, 32.736967 ], [ -96.89376, 32.736514 ], [ -96.893773, 32.735017 ], [ -96.897578, 32.734931 ], [ -96.898412, 32.735173 ] ], [ [ -96.819237, 32.836655 ], [ -96.819119, 32.82815 ], [ -96.817242, 32.826504 ], [ -96.818438, 32.825405 ], [ -96.81761, 32.824684 ], [ -96.818457, 32.823135 ], [ -96.815522, 32.820498 ], [ -96.814666, 32.819834 ], [ -96.813746, 32.820541 ], [ -96.813956, 32.820707 ], [ -96.812816, 32.822063 ], [ -96.812876, 32.82242 ], [ -96.812034, 32.823195 ], [ -96.80439, 32.823173 ], [ -96.804393, 32.822688 ], [ -96.802347, 32.822671 ], [ -96.802381, 32.819679 ], [ -96.800209, 32.819693 ], [ -96.799987, 32.81897 ], [ -96.799205, 32.818945 ], [ -96.797312, 32.820843 ], [ -96.798209, 32.823208 ], [ -96.795694, 32.823189 ], [ -96.792992, 32.822173 ], [ -96.79117, 32.824084 ], [ -96.780948, 32.832754 ], [ -96.781068, 32.836582 ], [ -96.779207, 32.836593 ], [ -96.77883, 32.83702 ], [ -96.777521, 32.838687 ], [ -96.774763, 32.843778 ], [ -96.771052, 32.843749 ], [ -96.771037, 32.844771 ], [ -96.771485, 32.84477 ], [ -96.77149, 32.845461 ], [ -96.773814, 32.845573 ], [ -96.771998, 32.850467 ], [ -96.772774, 32.850484 ], [ -96.772777, 32.851024 ], [ -96.777006, 32.85109 ], [ -96.776999, 32.851655 ], [ -96.77343, 32.851607 ], [ -96.773104, 32.855514 ], [ -96.776974, 32.85549 ], [ -96.776693, 32.857577 ], [ -96.780267, 32.857608 ], [ -96.780298, 32.859896 ], [ -96.782991, 32.859912 ], [ -96.783068, 32.865375 ], [ -96.804172, 32.865495 ], [ -96.804258, 32.859817 ], [ -96.806387, 32.859842 ], [ -96.806372, 32.860394 ], [ -96.808584, 32.860422 ], [ -96.808618, 32.857912 ], [ -96.812324, 32.857922 ], [ -96.813168, 32.851174 ], [ -96.812086, 32.851177 ], [ -96.812125, 32.847327 ], [ -96.81301, 32.847327 ], [ -96.813012, 32.846883 ], [ -96.813667, 32.846884 ], [ -96.814879, 32.836627 ], [ -96.819237, 32.836655 ] ] ] ] } }
]
}
