{"type":"FeatureCollection","features":[{"type":"Feature","geometry":{"type":"LineString","coordinates":[[-96.810383,32.791887],[-96.810608,32.79209],[-96.810963,32.792476],[-96.811144,32.792739],[-96.811228,32.792829],[-96.81131,32.792902],[-96.811423,32.792998],[-96.811479,32.793065],[-96.811625,32.79328],[-96.811755,32.793467],[-96.811966,32.793711],[-96.812333,32.794085],[-96.812512,32.794309],[-96.8127,32.794551],[-96.81282,32.794678],[-96.812909,32.794759],[-96.813118,32.795068],[-96.813283,32.795368],[-96.813366,32.795553],[-96.813412,32.795606],[-96.813445,32.795672],[-96.813472,32.795751],[-96.813502,32.795891],[-96.813528,32.796189],[-96.813529,32.796377],[-96.813501,32.796621],[-96.813461,32.796867],[-96.813405,32.797099],[-96.813321,32.797363],[-96.813261,32.797473],[-96.813086,32.797744],[-96.812983,32.797886],[-96.812887,32.797995],[-96.812571,32.798292],[-96.812408,32.798406],[-96.811941,32.798707],[-96.811093,32.799198],[-96.810573,32.799516],[-96.810251,32.79972],[-96.809457,32.800206],[-96.809095,32.800422],[-96.808457,32.800792],[-96.807457,32.801377],[-96.807292,32.801458],[-96.807108,32.801535],[-96.806602,32.801749],[-96.806043,32.801982],[-96.805666,32.802132],[-96.80539,32.802256],[-96.805088,32.802435],[-96.804917,32.802539],[-96.804648,32.802734],[-96.804361,32.802973],[-96.804138,32.803194],[-96.803922,32.803441],[-96.803781,32.803629],[-96.803681,32.80378],[-96.803466,32.804138],[-96.803254,32.804603],[-96.80313,32.804839],[-96.802837,32.805461],[-96.802484,32.806184],[-96.802286,32.806584],[-96.802125,32.806945],[-96.801799,32.807671],[-96.801581,32.808117],[-96.801475,32.808326],[-96.801222,32.808853],[-96.800922,32.809468],[-96.800744,32.809849],[-96.800529,32.810225],[-96.800323,32.810547],[-96.800029,32.810904],[-96.799615,32.81134],[-96.79934,32.811598],[-96.798845,32.81209],[-96.798428,32.81251],[-96.798143,32.812798],[-96.797931,32.813032],[-96.797791,32.813205],[-96.797606,32.813476],[-96.797487,32.813652],[-96.797382,32.813829],[-96.797182,32.814205],[-96.796885,32.814788],[-96.796635,32.815268],[-96.795873,32.816759],[-96.795517,32.817449],[-96.795417,32.817624],[-96.795314,32.817835],[-96.795253,32.817986],[-96.795058,32.818367],[-96.794722,32.819038],[-96.793948,32.820536],[-96.793533,32.821363],[-96.793304,32.821763],[-96.793202,32.821923],[-96.793116,32.822054],[-96.792685,32.822625],[-96.792345,32.822999],[-96.791856,32.82348],[-96.791664,32.823659],[-96.791551,32.82375],[-96.791372,32.823886],[-96.791284,32.823968],[-96.791086,32.82416],[-96.791034,32.824242],[-96.790875,32.824355],[-96.79078,32.824407],[-96.790688,32.824488],[-96.78841,32.826421],[-96.786939,32.827678],[-96.786853,32.827756],[-96.786786,32.827833],[-96.786675,32.827932],[-96.786569,32.827999],[-96.786425,32.828094],[-96.78634,32.828187],[-96.785861,32.828625],[-96.785687,32.82875],[-96.785622,32.828782],[-96.785549,32.82884],[-96.78545,32.82894],[-96.785312,32.829064],[-96.784623,32.829642],[-96.782096,32.831804],[-96.782023,32.831897],[-96.78191,32.831996],[-96.781756,32.832096],[-96.781643,32.832186],[-96.781449,32.832356]]},"properties":{"name":"Katy Trail","status":"EXISTING","miles":3.55,"width":"12'","surface":"CONCRETE","pic":"https://www.dallasparks.org/ImageRepository/Document?documentId=1171"}},{"type":"Feature","geometry":{"type":"LineString","coordinates":[[-96.750126,32.843707],[-96.750463,32.843655],[-96.750766,32.843589],[-96.750985,32.843507],[-96.751273,32.843397],[-96.751509,32.843302],[-96.751763,32.843192],[-96.752017,32.843082],[-96.752236,32.843],[-96.752381,32.842948],[-96.752625,32.842917],[-96.752788,32.842891],[-96.752786,32.843206],[-96.752782,32.843513],[-96.752774,32.843893]]},"properties":{"name":"Katy Spur","status":"SIDEWALK/STREET","miles":0.23,"width":" ","surface":"CONCRETE","pic":" "}},{"type":"Feature","geometry":{"type":"MultiLineString","coordinates":[[[-96.769632,32.785037],[-96.766993,32.784403],[-96.766567,32.784335],[-96.766111,32.784241],[-96.765438,32.784038]],[[-96.774838,32.786386],[-96.773174,32.785909],[-96.769632,32.785037]],[[-96.729616,32.815584],[-96.72908,32.813102],[-96.728718,32.811428],[-96.728467,32.81027],[-96.728262,32.809286],[-96.728163,32.808945],[-96.727964,32.808106],[-96.72788,32.807498],[-96.727863,32.806845],[-96.727924,32.806313],[-96.728176,32.805393],[-96.728304,32.804884],[-96.728449,32.804174],[-96.728512,32.804064],[-96.728577,32.804048],[-96.728682,32.804067],[-96.728832,32.804103],[-96.729122,32.804162],[-96.729856,32.804376],[-96.730579,32.804654],[-96.730992,32.804846],[-96.731564,32.80516],[-96.732069,32.805498],[-96.73241,32.805762],[-96.733071,32.806411],[-96.734193,32.807568],[-96.734616,32.808015],[-96.735163,32.808514],[-96.73554,32.808787],[-96.736071,32.809091],[-96.736614,32.809341],[-96.736783,32.809414],[-96.737212,32.809558],[-96.737625,32.809674],[-96.738077,32.809771],[-96.738535,32.809825],[-96.738633,32.80986],[-96.738712,32.809897],[-96.738755,32.809903],[-96.738817,32.809886],[-96.738907,32.809858],[-96.739222,32.80986],[-96.739373,32.809867],[-96.740089,32.809848],[-96.740477,32.809799],[-96.741037,32.809684],[-96.743218,32.809045],[-96.743718,32.80888],[-96.744177,32.80873],[-96.744441,32.808627],[-96.744709,32.808496],[-96.744818,32.808435],[-96.744905,32.808386],[-96.745014,32.808331],[-96.745095,32.808298],[-96.745181,32.808284],[-96.74525,32.808248],[-96.74539,32.808169],[-96.745527,32.808119],[-96.745736,32.808008],[-96.746058,32.807759],[-96.746199,32.807631],[-96.746379,32.807425],[-96.746836,32.8069],[-96.747304,32.806334],[-96.748186,32.805219],[-96.748562,32.804735],[-96.748657,32.804601],[-96.748699,32.804542],[-96.749015,32.804145],[-96.749068,32.804092],[-96.7491,32.804045],[-96.74912,32.803967],[-96.749112,32.803894],[-96.749083,32.803813],[-96.749056,32.803758],[-96.74906,32.803706],[-96.749098,32.803657],[-96.749261,32.803496],[-96.749341,32.803464],[-96.749409,32.803431],[-96.749509,32.803337],[-96.749999,32.80291],[-96.750625,32.80235],[-96.751601,32.801519],[-96.75264,32.800656],[-96.753298,32.800116],[-96.753567,32.799901],[-96.753741,32.799713],[-96.753845,32.799631],[-96.75392,32.799596],[-96.753993,32.799548],[-96.754047,32.7995],[-96.75411,32.799415],[-96.75417,32.799362],[-96.754409,32.799177],[-96.754463,32.799115],[-96.754492,32.799055],[-96.75453,32.798986],[-96.754554,32.798954],[-96.754588,32.798936],[-96.754668,32.798919],[-96.754742,32.798914],[-96.754786,32.798905],[-96.754834,32.798877],[-96.754886,32.798833],[-96.754937,32.798767],[-96.755011,32.798685],[-96.755218,32.798501],[-96.756557,32.797428],[-96.758167,32.796083],[-96.758662,32.795674],[-96.759322,32.795149],[-96.759401,32.795059],[-96.759471,32.794991],[-96.759513,32.794963],[-96.759595,32.794938],[-96.759648,32.79491],[-96.759682,32.794876],[-96.759724,32.794812],[-96.759786,32.794752],[-96.759923,32.794653],[-96.759919,32.794548],[-96.760088,32.794413],[-96.760256,32.79434],[-96.760284,32.794307],[-96.760328,32.794259],[-96.760369,32.794237],[-96.760437,32.79422],[-96.760567,32.794181],[-96.76061,32.794166],[-96.760633,32.794136],[-96.760679,32.794073],[-96.760731,32.793997],[-96.760953,32.793802],[-96.76111,32.79367],[-96.761206,32.793637],[-96.76129,32.793611],[-96.761349,32.79358],[-96.761393,32.793536],[-96.761439,32.793486],[-96.761475,32.79341],[-96.761551,32.793285],[-96.761638,32.793167],[-96.761698,32.793125],[-96.761788,32.793092],[-96.761861,32.79305],[-96.762477,32.79255],[-96.762814,32.792247],[-96.763276,32.791844],[-96.763836,32.7914],[-96.764087,32.791191],[-96.764231,32.791075],[-96.76456,32.790806],[-96.76475,32.790655],[-96.764882,32.79056],[-96.764941,32.790477],[-96.764998,32.790403],[-96.765119,32.79031],[-96.765236,32.790236],[-96.765343,32.790171],[-96.765433,32.790097],[-96.765506,32.790027],[-96.765551,32.789943],[-96.765638,32.789786],[-96.765709,32.789708],[-96.765801,32.789657],[-96.7659,32.789628],[-96.765982,32.789604],[-96.766053,32.789561],[-96.766165,32.789465],[-96.766587,32.789108],[-96.766783,32.788906],[-96.767069,32.788625],[-96.76715,32.788516],[-96.767276,32.788348],[-96.767357,32.788231],[-96.767448,32.788148],[-96.767571,32.787973],[-96.767857,32.787566],[-96.768045,32.787301],[-96.768443,32.786719],[-96.769096,32.785822],[-96.769632,32.785037]]]},"properties":{"name":"Santa Fe Trail","status":"EXISTING","miles":4.69,"width":"12'","surface":"CONCRETE","pic":"https://www.dallasparks.org/ImageRepository/Document?documentId=2099"}},{"type":"Feature","geometry":{"type":"LineString","coordinates":[[-96.721507,32.763627],[-96.721504,32.763631],[-96.721484,32.763666],[-96.72147,32.763703],[-96.721461,32.763742],[-96.721459,32.763781],[-96.721463,32.763819],[-96.721474,32.76384],[-96.721482,32.763863],[-96.721486,32.763886],[-96.721486,32.763909],[-96.721481,32.763932],[-96.721472,32.763954],[-96.721459,32.763975],[-96.721442,32.763994],[-96.721421,32.764021],[-96.721396,32.764046],[-96.721367,32.764067],[-96.721334,32.764085],[-96.721298,32.764097],[-96.721261,32.764106],[-96.721222,32.764109],[-96.721187,32.764107],[-96.721152,32.764111],[-96.721118,32.764118],[-96.721086,32.764131],[-96.721057,32.764147],[-96.721031,32.764167],[-96.720989,32.764214],[-96.720941,32.764256],[-96.720888,32.764293],[-96.72083,32.764325],[-96.720768,32.76435],[-96.720703,32.76437],[-96.720635,32.764383],[-96.720567,32.764389],[-96.720498,32.764388],[-96.720429,32.764381],[-96.720362,32.764366],[-96.720298,32.764346],[-96.719916,32.764201],[-96.719881,32.764191],[-96.719844,32.764185],[-96.719806,32.764185],[-96.719769,32.764189],[-96.719733,32.764199],[-96.7197,32.764214],[-96.71967,32.764233],[-96.719644,32.764255],[-96.719622,32.764281],[-96.719606,32.76431],[-96.719595,32.76434],[-96.719591,32.764372],[-96.719456,32.766083],[-96.719999,32.766121],[-96.720223,32.766163],[-96.720351,32.766215],[-96.720661,32.766266],[-96.720933,32.766319],[-96.721482,32.766645],[-96.722225,32.766676],[-96.723694,32.766678],[-96.724573,32.766767],[-96.726243,32.766867],[-96.727689,32.766907],[-96.729413,32.766819],[-96.729761,32.766923],[-96.730777,32.767276],[-96.732007,32.767904],[-96.733174,32.768341],[-96.734178,32.768966],[-96.734868,32.76951],[-96.735196,32.770049],[-96.734905,32.771019],[-96.734336,32.772366],[-96.734128,32.773757],[-96.732899,32.774925],[-96.733034,32.775548],[-96.733336,32.776841],[-96.733192,32.777249],[-96.732673,32.777757],[-96.731488,32.778246],[-96.730326,32.778735],[-96.729993,32.779888],[-96.729629,32.780966],[-96.72949,32.783516],[-96.728518,32.78353],[-96.728473,32.783901],[-96.728304,32.784875],[-96.728628,32.788784],[-96.728816,32.791954],[-96.72872,32.792708],[-96.728671,32.793043]]},"properties":{"name":"Trinity Forest Spine Trail","status":"PROGRAMMED","miles":3.06,"width":"12'","surface":"CONCRETE","pic":"https://www.dallasparks.org/ImageRepository/Document?documentId=1178"}},{"type":"Feature","geometry":{"type":"LineString","coordinates":[[-96.750126,32.843707],[-96.74723,32.841218],[-96.744285,32.838681],[-96.742735,32.837362],[-96.742076,32.836821],[-96.740523,32.835634],[-96.738541,32.834276],[-96.736635,32.832984],[-96.735443,32.8323]]},"properties":{"name":"Katy Spur","status":"PROPOSED","miles":1.16,"width":"12'","surface":"CONCRETE","pic":" "}},{"type":"Feature","geometry":{"type":"LineString","coordinates":[[-96.781181,32.83004],[-96.781587,32.830065],[-96.781877,32.830144],[-96.782202,32.830195],[-96.782409,32.830266],[-96.782767,32.830378],[-96.782989,32.830451],[-96.782591,32.831173],[-96.782725,32.831263]]},"properties":{"name":"Katy Trail","status":"EXISTING","miles":0.17,"width":"10'-12'","surface":"CONCRETE","pic":"https://www.dallasparks.org/ImageRepository/Document?documentId=1171"}},{"type":"Feature","geometry":{"type":"LineString","coordinates":[[-96.735443,32.8323],[-96.735072,32.832249],[-96.734629,32.832161],[-96.733637,32.831927],[-96.731967,32.831556]]},"properties":{"name":"Katy Spur","status":"EXISTING","miles":0.21,"width":"12'","surface":"CONCRETE","pic":"https://www.dallasparks.org/ImageRepository/Document?documentId=1171"}},{"type":"Feature","geometry":{"type":"LineString","coordinates":[[-96.791246,32.755604],[-96.791397,32.755592],[-96.791477,32.755553],[-96.79155,32.755513],[-96.791595,32.755459],[-96.791628,32.755384],[-96.79165,32.755309],[-96.791675,32.755222],[-96.791674,32.755133],[-96.791651,32.755057],[-96.791608,32.754975],[-96.791554,32.754914],[-96.791466,32.754855],[-96.791304,32.754737],[-96.790888,32.754453],[-96.790808,32.754353],[-96.790796,32.754272],[-96.790804,32.754203],[-96.790843,32.754125],[-96.791525,32.752894],[-96.791604,32.752713],[-96.791608,32.752638],[-96.791576,32.752551],[-96.791447,32.752474],[-96.791291,32.752387],[-96.791199,32.75238],[-96.791099,32.752408],[-96.790957,32.752461],[-96.790865,32.752477],[-96.790769,32.752458],[-96.79065,32.752393],[-96.790547,32.752296],[-96.790162,32.751937],[-96.790072,32.751837],[-96.790012,32.751715],[-96.789984,32.751593],[-96.79,32.751486],[-96.79004,32.751377],[-96.790124,32.751262],[-96.790246,32.751128],[-96.79048,32.750914],[-96.79094,32.750494],[-96.791282,32.750201],[-96.791355,32.750132],[-96.791424,32.750101],[-96.791507,32.750091],[-96.791596,32.750101],[-96.791667,32.750119],[-96.791786,32.750158],[-96.791902,32.750218],[-96.792045,32.750275],[-96.792252,32.750339],[-96.792413,32.750358],[-96.792529,32.75036],[-96.792705,32.750327],[-96.792943,32.750238],[-96.793081,32.750194],[-96.793181,32.750178],[-96.79328,32.750188],[-96.793372,32.750209],[-96.793491,32.750228],[-96.793771,32.75027],[-96.794053,32.750262],[-96.79418,32.750229],[-96.794301,32.750184],[-96.79438,32.750152],[-96.794491,32.750096],[-96.79499,32.749773],[-96.795043,32.749713],[-96.795071,32.749664],[-96.795103,32.749612],[-96.795135,32.749555],[-96.795264,32.749458],[-96.795392,32.749379],[-96.795503,32.749314],[-96.795555,32.749262],[-96.795584,32.749208],[-96.795613,32.749113],[-96.795628,32.749047],[-96.795631,32.748916],[-96.795608,32.748844],[-96.795575,32.748762],[-96.795449,32.748405],[-96.794718,32.748499]]},"properties":{"name":"Santa Fe Trestle Trail","status":"EXISTING","miles":0.9,"width":"12'","surface":"CONCRETE","pic":"https://www.dallasparks.org/ImageRepository/Document?documentId=8514"}},{"type":"Feature","geometry":{"type":"LineString","coordinates":[[-96.810926,32.792435],[-96.81101,32.792447],[-96.812494,32.794086],[-96.813167,32.793761],[-96.813554,32.793804],[-96.81385,32.793854],[-96.814245,32.793966],[-96.814799,32.794255],[-96.815112,32.79435],[-96.815419,32.794332],[-96.815984,32.794499],[-96.816377,32.79468],[-96.817708,32.795322],[-96.820031,32.796443],[-96.82199,32.797425],[-96.823065,32.797945]]},"properties":{"name":"Hi-Line Connector Trail","status":"EXISTING","miles":0.84,"width":"12'","surface":"CONCRETE","pic":" "}},{"type":"Feature","geometry":{"type":"MultiLineString","coordinates":[[[-96.841575,32.802923],[-96.842038,32.8028],[-96.843053,32.802626],[-96.843506,32.802531],[-96.843408,32.802136],[-96.843694,32.802102],[-96.844158,32.802197],[-96.844592,32.802291],[-96.844904,32.802498],[-96.845181,32.802946],[-96.845414,32.803343],[-96.845827,32.803767],[-96.846195,32.804178],[-96.846536,32.804424],[-96.847072,32.804697],[-96.847488,32.804931],[-96.847889,32.805165],[-96.848126,32.805358],[-96.848345,32.805691],[-96.848573,32.80638],[-96.848756,32.807042],[-96.848886,32.807335],[-96.849075,32.807655],[-96.849595,32.807992],[-96.850208,32.80814],[-96.850631,32.808006],[-96.851012,32.807732],[-96.851211,32.807544],[-96.851483,32.807446],[-96.851993,32.807478],[-96.852663,32.807436],[-96.852966,32.807275],[-96.8536,32.807119]],[[-96.861532,32.799068],[-96.861328,32.803646],[-96.861231,32.804],[-96.860902,32.804744],[-96.860712,32.80525],[-96.860706,32.805592],[-96.860596,32.80587],[-96.860395,32.806146],[-96.860042,32.806535],[-96.859599,32.806935],[-96.858873,32.807192],[-96.858104,32.807372],[-96.857516,32.807466],[-96.856989,32.80751],[-96.856675,32.807455],[-96.856197,32.807284],[-96.855947,32.806976],[-96.855563,32.806616],[-96.855222,32.80637],[-96.854864,32.806251],[-96.854562,32.806285],[-96.85426,32.806383],[-96.854014,32.806671],[-96.8536,32.807119]],[[-96.857174,32.810851],[-96.856659,32.81075],[-96.85612,32.810604],[-96.855752,32.810231],[-96.855666,32.809963],[-96.855643,32.80962],[-96.855697,32.809113],[-96.855675,32.808682],[-96.855607,32.808325],[-96.855402,32.807993],[-96.855166,32.807749],[-96.854825,32.807503],[-96.854214,32.807228],[-96.8536,32.807119]]]},"properties":{"name":"Trinity Strand Trail","status":"PROPOSED","miles":2.34,"width":"10'","surface":"CONCRETE","pic":" "}},{"type":"Feature","geometry":{"type":"MultiLineString","coordinates":[[[-96.730487,32.689889],[-96.730299,32.690008],[-96.729538,32.688961],[-96.724126,32.691606]],[[-96.724126,32.691606],[-96.720179,32.693379],[-96.717168,32.694661],[-96.714602,32.69556],[-96.713598,32.695756],[-96.713327,32.69582],[-96.712147,32.696263],[-96.711626,32.696483],[-96.711403,32.696628],[-96.710842,32.69699],[-96.709896,32.697522],[-96.709266,32.697803],[-96.70865,32.697976],[-96.708173,32.698133],[-96.707763,32.6982],[-96.706869,32.698296],[-96.706685,32.698366],[-96.706545,32.698364],[-96.706407,32.69829],[-96.706301,32.698179],[-96.706206,32.698123],[-96.706044,32.698139],[-96.705699,32.698216],[-96.705277,32.698319],[-96.704701,32.69831],[-96.703733,32.698333],[-96.703549,32.698376],[-96.703322,32.698482],[-96.70329,32.698521],[-96.703027,32.699181],[-96.70302,32.699258],[-96.703048,32.699321],[-96.703094,32.699364],[-96.703171,32.699415],[-96.703229,32.699487],[-96.703244,32.699531],[-96.703247,32.699572],[-96.703239,32.699617],[-96.703215,32.699666],[-96.703192,32.699694],[-96.703164,32.699719],[-96.703128,32.699741],[-96.703105,32.699752],[-96.703071,32.699762],[-96.703036,32.699769],[-96.702991,32.69977],[-96.702947,32.699765],[-96.702904,32.699753],[-96.702862,32.699732],[-96.702828,32.699708],[-96.702797,32.69968],[-96.702762,32.699656],[-96.702731,32.699641],[-96.702685,32.699628],[-96.702645,32.699622],[-96.701618,32.699766],[-96.701562,32.699781],[-96.701533,32.699795],[-96.701504,32.699816],[-96.701478,32.699843],[-96.701455,32.699881],[-96.701444,32.699918],[-96.701444,32.699968],[-96.701456,32.700005],[-96.701535,32.700182],[-96.701549,32.700224],[-96.701556,32.700256],[-96.701562,32.700311],[-96.701561,32.700349],[-96.701556,32.700388],[-96.701547,32.700425],[-96.701537,32.700457],[-96.701462,32.700621],[-96.701442,32.700673],[-96.701433,32.700726],[-96.701432,32.700815],[-96.701437,32.700855],[-96.701447,32.700886],[-96.701473,32.700934],[-96.701508,32.70098],[-96.701526,32.701011],[-96.701538,32.701047],[-96.701542,32.701081],[-96.70154,32.701111],[-96.701474,32.701354],[-96.701472,32.701384],[-96.701474,32.701407],[-96.701482,32.701436],[-96.701506,32.701485],[-96.701535,32.701518],[-96.701579,32.70155]],[[-96.737678,32.70587],[-96.737883,32.705718],[-96.73789,32.705296],[-96.737845,32.704834],[-96.737688,32.70446],[-96.737376,32.703525],[-96.737321,32.702999],[-96.737353,32.702938],[-96.73744,32.702927],[-96.737622,32.702916],[-96.737781,32.702884],[-96.738093,32.702766],[-96.738577,32.702539],[-96.739527,32.70207],[-96.740256,32.701695],[-96.740362,32.701449],[-96.74016,32.700953],[-96.740243,32.700852],[-96.740446,32.700744],[-96.74049,32.700566],[-96.740472,32.700438],[-96.740323,32.700385],[-96.740038,32.700534],[-96.739896,32.700566],[-96.73972,32.700467],[-96.739283,32.700047],[-96.738879,32.69959],[-96.738346,32.698982],[-96.738187,32.698701],[-96.737846,32.698311],[-96.737736,32.698138],[-96.737672,32.697973],[-96.737621,32.69788],[-96.7375,32.697698],[-96.73735,32.697472],[-96.737221,32.697303],[-96.737111,32.6972],[-96.736816,32.697008],[-96.736683,32.696913],[-96.73661,32.696846],[-96.736581,32.696801],[-96.736532,32.696736],[-96.736478,32.696682],[-96.736407,32.69664],[-96.736338,32.696606],[-96.736258,32.696583],[-96.736217,32.696562],[-96.736183,32.696541],[-96.736158,32.696482],[-96.736091,32.69642],[-96.735984,32.696345],[-96.735835,32.696256],[-96.735619,32.696172],[-96.735398,32.69609],[-96.735283,32.696051],[-96.735194,32.696039],[-96.735065,32.696052],[-96.734921,32.696059],[-96.734832,32.696063],[-96.734782,32.69605],[-96.734704,32.696019],[-96.733986,32.695611],[-96.73376,32.695479],[-96.733557,32.69538],[-96.73336,32.695304],[-96.733258,32.695276],[-96.733174,32.695238],[-96.733057,32.695168],[-96.732853,32.695025],[-96.732655,32.694895],[-96.732519,32.694818],[-96.732173,32.694662],[-96.731711,32.694447],[-96.731351,32.694252],[-96.731135,32.69416],[-96.730793,32.694012],[-96.730579,32.693918],[-96.730276,32.693828],[-96.73,32.69376],[-96.729824,32.69373],[-96.729668,32.693713],[-96.729546,32.693711],[-96.72948,32.693716],[-96.729421,32.693708],[-96.72938,32.693703],[-96.729328,32.693693],[-96.729241,32.693679],[-96.729128,32.693644],[-96.728957,32.693596],[-96.728855,32.69357],[-96.728727,32.693556],[-96.728552,32.693555],[-96.728461,32.693539],[-96.728309,32.693504],[-96.728151,32.693453],[-96.727995,32.693383],[-96.727859,32.693322],[-96.727738,32.693285],[-96.727586,32.693254],[-96.727458,32.693224],[-96.727262,32.693181],[-96.727034,32.693148],[-96.726642,32.693117],[-96.726505,32.693113],[-96.726139,32.693091],[-96.725867,32.69306],[-96.725789,32.693057],[-96.725702,32.693046],[-96.725602,32.693026],[-96.725496,32.693006],[-96.72545,32.693004],[-96.725406,32.693009],[-96.725358,32.693014],[-96.725319,32.693006],[-96.72528,32.692994],[-96.725226,32.692978],[-96.725157,32.692935],[-96.725108,32.692898],[-96.725051,32.692841],[-96.724986,32.692758],[-96.724933,32.692683],[-96.724893,32.692596],[-96.724847,32.692527],[-96.72479,32.69241],[-96.724738,32.692288],[-96.724679,32.692218],[-96.72461,32.692153],[-96.724537,32.692082],[-96.724455,32.691959],[-96.7244,32.691857],[-96.724345,32.691786],[-96.724244,32.691685],[-96.724126,32.691606]],[[-96.708666,32.708912],[-96.708089,32.708901],[-96.707072,32.708777],[-96.707022,32.708767],[-96.706979,32.70875],[-96.706943,32.708731],[-96.706893,32.708688],[-96.706863,32.708647],[-96.706817,32.708569],[-96.706736,32.708462],[-96.706554,32.708263],[-96.706503,32.70822],[-96.706465,32.708198],[-96.706429,32.708182],[-96.706395,32.708171],[-96.70633,32.708161],[-96.706289,32.70816],[-96.705355,32.708186],[-96.70523,32.70819],[-96.705173,32.708186],[-96.705128,32.708177],[-96.70508,32.708161],[-96.705031,32.708136],[-96.704327,32.707589],[-96.70428,32.707546],[-96.704248,32.707505],[-96.704224,32.707461],[-96.704206,32.707409],[-96.704197,32.70736],[-96.704168,32.706999],[-96.704157,32.706937],[-96.704137,32.706877],[-96.704108,32.70682],[-96.70343,32.705689],[-96.703409,32.705649],[-96.70339,32.705583],[-96.703386,32.705521],[-96.703392,32.705472],[-96.703408,32.705421],[-96.703423,32.705389],[-96.703746,32.704803],[-96.703772,32.704772],[-96.703838,32.704703],[-96.703864,32.704671],[-96.703889,32.704629],[-96.703904,32.704583],[-96.703938,32.704437],[-96.70394,32.704394],[-96.703935,32.70435],[-96.703923,32.704312],[-96.703909,32.704284],[-96.703692,32.703892],[-96.703671,32.703839],[-96.703657,32.703785],[-96.70365,32.70373],[-96.703634,32.703365],[-96.703641,32.703268],[-96.703659,32.703179],[-96.70377,32.702814],[-96.703777,32.702771],[-96.703777,32.702728],[-96.703767,32.702681],[-96.703742,32.702628],[-96.703709,32.702585],[-96.703663,32.702544],[-96.703372,32.702337],[-96.703301,32.702298],[-96.703051,32.702181],[-96.702952,32.702146],[-96.702869,32.702128],[-96.702738,32.702108],[-96.702655,32.702089],[-96.702557,32.702052],[-96.70159,32.701556]]]},"properties":{"name":"Trinity Forest Trail","status":"EXISTING","miles":4.63,"width":"8-12'","surface":"CONCRETE","pic":"https://www.dallasparks.org/ImageRepository/Document?documentId=1178"}},{"type":"Feature","geometry":{"type":"MultiLineString","coordinates":[[[-96.8127,32.799655],[-96.812738,32.799495],[-96.812753,32.799443]],[[-96.812753,32.799444],[-96.812753,32.799443]],[[-96.812753,32.799443],[-96.812761,32.799415],[-96.812798,32.799351],[-96.812869,32.799279],[-96.812954,32.799209],[-96.813075,32.799134],[-96.813138,32.799092],[-96.813202,32.799055],[-96.813247,32.799008],[-96.813271,32.79894],[-96.813265,32.798873],[-96.813238,32.798799],[-96.813188,32.798724],[-96.813127,32.79869],[-96.813052,32.798691],[-96.812985,32.798703],[-96.812908,32.798727],[-96.812868,32.798735],[-96.812836,32.798735],[-96.812795,32.798728],[-96.812751,32.79871],[-96.812692,32.798635],[-96.812565,32.798525],[-96.812491,32.798491],[-96.812415,32.798468],[-96.812366,32.798479],[-96.812271,32.798523],[-96.812152,32.798572]],[[-96.812753,32.799443],[-96.812726,32.799392],[-96.812712,32.79935],[-96.81268,32.7993],[-96.812649,32.799258],[-96.812618,32.799235],[-96.812573,32.799214],[-96.812527,32.799199],[-96.812478,32.799188],[-96.812412,32.799165],[-96.812353,32.799125],[-96.812327,32.799091],[-96.812306,32.799058],[-96.812283,32.799008],[-96.812266,32.798974],[-96.812236,32.798937],[-96.812194,32.798908],[-96.812141,32.798878],[-96.812107,32.798855],[-96.811972,32.79869]]]},"properties":{"name":"Katy Trail Ramp Connection","status":"EXISTING","miles":0.22,"width":"12'","surface":"CONCRETE","pic":"https://www.dallasparks.org/ImageRepository/Document?documentId=1171"}},{"type":"Feature","geometry":{"type":"LineString","coordinates":[[-96.781181,32.83004],[-96.781119,32.830084],[-96.781074,32.830126],[-96.781056,32.830188],[-96.781057,32.830273],[-96.781023,32.830352],[-96.780428,32.831466],[-96.780389,32.831501],[-96.78032,32.831542],[-96.780288,32.831587],[-96.780286,32.831658],[-96.780277,32.831751],[-96.780248,32.831822],[-96.780207,32.831898],[-96.7801,32.831975],[-96.780073,32.832064],[-96.780043,32.832132],[-96.780035,32.832198],[-96.779991,32.832266],[-96.779912,32.832346],[-96.779854,32.832428],[-96.77982,32.832518],[-96.779778,32.832663],[-96.779758,32.83278],[-96.779735,32.832905],[-96.779697,32.833012],[-96.77966,32.833101],[-96.779604,32.833241],[-96.779617,32.833477],[-96.779596,32.833674]]},"properties":{"name":"Ridgewood Trail","status":"EXISTING","miles":0.27,"width":"12'","surface":"CONCRETE","pic":"https://www.dallasparks.org/ImageRepository/Document?documentId=2647"}},{"type":"Feature","geometry":{"type":"MultiLineString","coordinates":[[[-96.83397,32.796115],[-96.833877,32.796644]],[[-96.823065,32.797945],[-96.82312,32.797984],[-96.82313,32.798014],[-96.823136,32.79804],[-96.823128,32.798105],[-96.823095,32.798186],[-96.823055,32.798274],[-96.823005,32.798373],[-96.822955,32.798431],[-96.822934,32.798472],[-96.822916,32.798507],[-96.822918,32.798563]],[[-96.819212,32.79816],[-96.819543,32.798326],[-96.819657,32.798363],[-96.81984,32.798421],[-96.820773,32.798498],[-96.821601,32.798565],[-96.821968,32.798664],[-96.822245,32.798712],[-96.82237,32.798711],[-96.822614,32.798661],[-96.822918,32.798563]],[[-96.822918,32.798563],[-96.822963,32.798548],[-96.823101,32.79843],[-96.823197,32.798302],[-96.823251,32.798206],[-96.823289,32.798039],[-96.823278,32.797907],[-96.823239,32.797754],[-96.823193,32.797627],[-96.823191,32.797337],[-96.823185,32.797105],[-96.823192,32.796955],[-96.823221,32.796841],[-96.82328,32.796707],[-96.823502,32.796317],[-96.823596,32.796151],[-96.823685,32.796009],[-96.823764,32.79591],[-96.824012,32.795768],[-96.824156,32.79571],[-96.824233,32.795676],[-96.824286,32.795638],[-96.824336,32.795554],[-96.824369,32.795484],[-96.824402,32.795414],[-96.824455,32.795356],[-96.825395,32.794844],[-96.825503,32.794833],[-96.825691,32.794812],[-96.825949,32.794769],[-96.826454,32.794699],[-96.826555,32.794704],[-96.826711,32.794715],[-96.826835,32.794763],[-96.827007,32.794836],[-96.8271,32.794866],[-96.827204,32.794883],[-96.827291,32.794895],[-96.827408,32.794926],[-96.827567,32.794987],[-96.827667,32.795047],[-96.827773,32.795128],[-96.82795,32.795294],[-96.828046,32.795401],[-96.828075,32.79549],[-96.828093,32.795643],[-96.828106,32.796045],[-96.828114,32.796183],[-96.828028,32.796528],[-96.8279,32.797025],[-96.827857,32.797098],[-96.827712,32.797251],[-96.827235,32.797849],[-96.827202,32.797937],[-96.827065,32.798381],[-96.827025,32.798474],[-96.826997,32.798526],[-96.827003,32.798582],[-96.827068,32.798607],[-96.827213,32.798635],[-96.827355,32.798678],[-96.827645,32.798779],[-96.827826,32.798775],[-96.828585,32.798683],[-96.829302,32.798578],[-96.829579,32.798458],[-96.830097,32.798228],[-96.830318,32.79811],[-96.830519,32.797958],[-96.830939,32.797635],[-96.831309,32.797337],[-96.831418,32.797242],[-96.832319,32.796838],[-96.832838,32.796733],[-96.833466,32.796709],[-96.833877,32.796644],[-96.834032,32.796737],[-96.834307,32.796888],[-96.834825,32.797203],[-96.834949,32.797287],[-96.835234,32.79744],[-96.835519,32.797611],[-96.835691,32.797734],[-96.835814,32.797856],[-96.83601,32.79814],[-96.836147,32.798403],[-96.836277,32.79868],[-96.836363,32.798945],[-96.836395,32.799101],[-96.836352,32.799688],[-96.836293,32.800447],[-96.836319,32.800902],[-96.836385,32.801272],[-96.836437,32.801654],[-96.836565,32.802237],[-96.836732,32.802761],[-96.83685,32.802962],[-96.836986,32.803123],[-96.837086,32.803191],[-96.837423,32.803343],[-96.837802,32.8035],[-96.838108,32.803584],[-96.838299,32.803615],[-96.838659,32.803673],[-96.838777,32.803683],[-96.838992,32.803683],[-96.839156,32.803671],[-96.839455,32.803625],[-96.839703,32.803576],[-96.839931,32.80352],[-96.840561,32.803279],[-96.841575,32.802923]]]},"properties":{"name":"Trinity Strand Trail","status":"EXISTING","miles":2.28,"width":"12'","surface":"CONCRETE","pic":" "}},{"type":"Feature","geometry":{"type":"LineString","coordinates":[[-96.729328,32.719994],[-96.729268,32.719984],[-96.729236,32.719951],[-96.729231,32.719921],[-96.729235,32.719873],[-96.729259,32.71982],[-96.729269,32.719783],[-96.729276,32.719733],[-96.729278,32.719698],[-96.729282,32.719576],[-96.729282,32.719415],[-96.729274,32.719335],[-96.729258,32.719257],[-96.729234,32.719187],[-96.729204,32.719119],[-96.729167,32.719046],[-96.729134,32.71896],[-96.729112,32.718872],[-96.729101,32.718779],[-96.729105,32.71867],[-96.729128,32.718556],[-96.729154,32.71848],[-96.729189,32.718406],[-96.729233,32.718326],[-96.729259,32.718267],[-96.729273,32.718212],[-96.7293,32.717905],[-96.729304,32.717183],[-96.729297,32.717007],[-96.729296,32.716823],[-96.729295,32.716727],[-96.729286,32.716632],[-96.729277,32.716578],[-96.729255,32.716472],[-96.729244,32.716406],[-96.729236,32.71631],[-96.72924,32.716198],[-96.729258,32.716082],[-96.72928,32.716001],[-96.729319,32.715889],[-96.729345,32.715765],[-96.729347,32.715614],[-96.729316,32.715468],[-96.729289,32.715385],[-96.729269,32.715296],[-96.729262,32.715217],[-96.729269,32.715088],[-96.729296,32.714971],[-96.729327,32.71484],[-96.729329,32.714659],[-96.729303,32.714538],[-96.729262,32.714424],[-96.729234,32.714303],[-96.729233,32.714119],[-96.729245,32.714051],[-96.729262,32.713991],[-96.729295,32.713905],[-96.729328,32.713834],[-96.72936,32.713733],[-96.729379,32.713596],[-96.729367,32.713434],[-96.729344,32.713285],[-96.729331,32.713115],[-96.729341,32.712719],[-96.729352,32.712168],[-96.72935,32.711783],[-96.729354,32.711432],[-96.729372,32.711368],[-96.729381,32.711333],[-96.729384,32.711074],[-96.729371,32.710947],[-96.729374,32.710839],[-96.729355,32.710723],[-96.729326,32.710644],[-96.729291,32.710547],[-96.72928,32.710478],[-96.729286,32.710393],[-96.72931,32.710334],[-96.729363,32.710267],[-96.729431,32.710218],[-96.729939,32.710017],[-96.730026,32.709995],[-96.730124,32.709977],[-96.730203,32.709954],[-96.730337,32.709903],[-96.730427,32.709853],[-96.730483,32.709795],[-96.730517,32.70973],[-96.73053,32.70966],[-96.730521,32.709587],[-96.730503,32.709543],[-96.730446,32.709431],[-96.730384,32.709351],[-96.730296,32.709295],[-96.730215,32.709271],[-96.730119,32.709266],[-96.729982,32.70927],[-96.729773,32.709237],[-96.729618,32.70921],[-96.729541,32.709185],[-96.729484,32.709145],[-96.729442,32.709089],[-96.729425,32.709038],[-96.729423,32.708988],[-96.729443,32.7089],[-96.729455,32.708825],[-96.729453,32.708739],[-96.729437,32.708672],[-96.72941,32.708591],[-96.729402,32.708533],[-96.729397,32.707401],[-96.72941,32.707334],[-96.729431,32.707272],[-96.729462,32.707209],[-96.729502,32.707151],[-96.729524,32.707124],[-96.729567,32.707081],[-96.729633,32.707028],[-96.729698,32.706989],[-96.73021,32.706757],[-96.730269,32.706713],[-96.730293,32.706665],[-96.730348,32.706451],[-96.730389,32.70638],[-96.730426,32.706348],[-96.730479,32.706321],[-96.731178,32.70614],[-96.731233,32.706116],[-96.731301,32.706068],[-96.731343,32.706019],[-96.73138,32.705932],[-96.731385,32.705869],[-96.731368,32.705589],[-96.731375,32.705516],[-96.731397,32.705441],[-96.731471,32.705292],[-96.731486,32.705228],[-96.731468,32.705136],[-96.731412,32.70506],[-96.731372,32.704997],[-96.731351,32.70493],[-96.731356,32.704813],[-96.731367,32.70466],[-96.731383,32.704605],[-96.731431,32.704531],[-96.731492,32.704479],[-96.731607,32.704419],[-96.731705,32.704353],[-96.731758,32.704302],[-96.731825,32.704193],[-96.731876,32.704129],[-96.73194,32.704083],[-96.732052,32.704037],[-96.732133,32.70398],[-96.732187,32.703907],[-96.732208,32.703847],[-96.732203,32.703563],[-96.732206,32.70352],[-96.732227,32.703462],[-96.732262,32.703415],[-96.732297,32.703371],[-96.732323,32.703311],[-96.732324,32.703231],[-96.732208,32.702828],[-96.732172,32.702748],[-96.732125,32.702674],[-96.73208,32.702609],[-96.732049,32.702531],[-96.732041,32.702456],[-96.73205,32.702395],[-96.732079,32.702285],[-96.732089,32.702085],[-96.732071,32.701999],[-96.732047,32.701931],[-96.73199,32.701828],[-96.731919,32.70174],[-96.73184,32.701669],[-96.731727,32.701597],[-96.731619,32.701549],[-96.731525,32.701513],[-96.73146,32.701475],[-96.731407,32.701429],[-96.731355,32.701361],[-96.731327,32.701301],[-96.731272,32.70122],[-96.731211,32.701177],[-96.731112,32.701145],[-96.731029,32.701129],[-96.730942,32.701102],[-96.730883,32.701076],[-96.730747,32.701011],[-96.730694,32.700995],[-96.73059,32.700983],[-96.730512,32.700989],[-96.730437,32.701001],[-96.730345,32.700998],[-96.730288,32.700985],[-96.730224,32.700961],[-96.730145,32.70091],[-96.730032,32.700847],[-96.729951,32.700785],[-96.729826,32.700715],[-96.729662,32.700655],[-96.729047,32.700476],[-96.728751,32.700365],[-96.728556,32.700277],[-96.72844,32.70022],[-96.728257,32.700134],[-96.728164,32.700096],[-96.728027,32.700064],[-96.727863,32.700056],[-96.727711,32.700077],[-96.727457,32.700162],[-96.727132,32.700284],[-96.726994,32.700322],[-96.726701,32.700369],[-96.726539,32.70042],[-96.726431,32.700465],[-96.726068,32.700554],[-96.725955,32.700554],[-96.725868,32.700516],[-96.725812,32.700461],[-96.725791,32.700414],[-96.725765,32.700332],[-96.725743,32.700291],[-96.725682,32.700228],[-96.72552,32.700108],[-96.725434,32.700019],[-96.725392,32.699941],[-96.725374,32.699879],[-96.725358,32.699781],[-96.725322,32.69969],[-96.725248,32.699588],[-96.72513,32.699494],[-96.724989,32.699434],[-96.724859,32.699411],[-96.724736,32.699414],[-96.724296,32.699484],[-96.724233,32.699489],[-96.724126,32.699473],[-96.724042,32.699435],[-96.723814,32.699248],[-96.723772,32.699219],[-96.723695,32.699191],[-96.723608,32.699185],[-96.72349,32.6992],[-96.723409,32.699195],[-96.723326,32.699155],[-96.723283,32.699109],[-96.723221,32.699043],[-96.723152,32.698983],[-96.723083,32.698941],[-96.722998,32.698904],[-96.722778,32.698826],[-96.722677,32.698774],[-96.722599,32.6987],[-96.722497,32.698577],[-96.722396,32.698501],[-96.722018,32.698328],[-96.721847,32.698231],[-96.721704,32.698134],[-96.721636,32.698101],[-96.7215,32.69806],[-96.721354,32.698034],[-96.721259,32.698004],[-96.721155,32.697951],[-96.721038,32.697878],[-96.720936,32.697817],[-96.720746,32.697716],[-96.720482,32.697593],[-96.720315,32.697531],[-96.72006,32.69747],[-96.719772,32.697439],[-96.719508,32.69743],[-96.719423,32.697414],[-96.719257,32.697365],[-96.719198,32.697351],[-96.719059,32.697352],[-96.718962,32.697378],[-96.718799,32.697447],[-96.718642,32.697506],[-96.718474,32.697548],[-96.718347,32.697562],[-96.718152,32.697569],[-96.717974,32.697552],[-96.717799,32.697506],[-96.716779,32.697116],[-96.71666,32.697083],[-96.71657,32.697072],[-96.716479,32.697071],[-96.715892,32.697157],[-96.715781,32.697183],[-96.715689,32.697219],[-96.715644,32.697243],[-96.715577,32.697292],[-96.715368,32.697398],[-96.715167,32.69752],[-96.715061,32.697613],[-96.714969,32.697758],[-96.714768,32.69826],[-96.714754,32.698379],[-96.714826,32.698652],[-96.714838,32.698731],[-96.714827,32.698831],[-96.714783,32.698935],[-96.714727,32.699009],[-96.714513,32.699234],[-96.714351,32.699449],[-96.714273,32.699588],[-96.714202,32.699756],[-96.714142,32.699949],[-96.71409,32.700153],[-96.714009,32.700333],[-96.713912,32.700473],[-96.713795,32.700597],[-96.713681,32.70069],[-96.713576,32.700776],[-96.713539,32.700844],[-96.713524,32.700945],[-96.713498,32.70102],[-96.713435,32.701089],[-96.713379,32.701128],[-96.713322,32.701188],[-96.713264,32.701316],[-96.713211,32.701393],[-96.713129,32.701449],[-96.712786,32.701604],[-96.712727,32.701651],[-96.712703,32.701716],[-96.712658,32.701789],[-96.712622,32.701838],[-96.712502,32.701932],[-96.712135,32.702231],[-96.712071,32.702298],[-96.712026,32.70237],[-96.711966,32.702428],[-96.711901,32.702463],[-96.711842,32.70248],[-96.711725,32.702498],[-96.711623,32.702516],[-96.711506,32.702545],[-96.71143,32.702578],[-96.711367,32.702615],[-96.711245,32.702692],[-96.711109,32.702789],[-96.711041,32.702827],[-96.710926,32.702876],[-96.710879,32.702906],[-96.710805,32.702957],[-96.710761,32.703013],[-96.710733,32.703082],[-96.710685,32.703147],[-96.710605,32.703188],[-96.710525,32.703217],[-96.710459,32.703252],[-96.710057,32.703532],[-96.710007,32.703581],[-96.709981,32.703634],[-96.709975,32.703684],[-96.709983,32.703749],[-96.709984,32.703791],[-96.709971,32.703842],[-96.709943,32.703886],[-96.708623,32.70503],[-96.708589,32.705069],[-96.708568,32.705116],[-96.708561,32.705166],[-96.708574,32.705224],[-96.70861,32.705291],[-96.708659,32.705419],[-96.70871,32.705529],[-96.708753,32.705665],[-96.708777,32.705799],[-96.708783,32.70593],[-96.708775,32.706035],[-96.708761,32.706132],[-96.708757,32.706287],[-96.708774,32.706395],[-96.708803,32.706517],[-96.708831,32.706709],[-96.708808,32.707155],[-96.708782,32.708914],[-96.708666,32.708912]]},"properties":{"name":"At&T Trail","status":"EXISTING","miles":3.53,"width":"12'","surface":"CONCRETE","pic":" "}},{"type":"Feature","geometry":{"type":"LineString","coordinates":[[-96.717876,32.720012],[-96.717743,32.724076],[-96.717693,32.728236],[-96.717617,32.732375],[-96.717597,32.732375]]},"properties":{"name":"Trinity Forest Spine Trail","status":"EXISTING","miles":0.85,"width":"12'","surface":"CONCRETE","pic":"https://www.dallasparks.org/ImageRepository/Document?documentId=1178"}},{"type":"Feature","geometry":{"type":"LineString","coordinates":[[-96.759305,32.887771],[-96.761282,32.890481],[-96.762389,32.891961],[-96.763613,32.893599],[-96.764688,32.895073],[-96.765302,32.896498],[-96.765641,32.897405],[-96.765775,32.89799],[-96.765801,32.899097],[-96.765332,32.900587],[-96.765383,32.900735],[-96.766222,32.901235]]},"properties":{"name":"SoPac Trail Phase 4B","status":"PROGRAMMED","miles":1.06,"width":"12'","surface":"CONCRETE","pic":"https://www.dallasparks.org/ImageRepository/Document?documentId=8536"}},{"type":"Feature","geometry":{"type":"LineString","coordinates":[[-96.741703,32.717719],[-96.741626,32.717565],[-96.741497,32.717361],[-96.74149,32.717191],[-96.74148,32.716916],[-96.741446,32.716741],[-96.741344,32.716515],[-96.741277,32.716397],[-96.741173,32.716319],[-96.740852,32.716391],[-96.740489,32.716466],[-96.740114,32.716654],[-96.739805,32.716933],[-96.739592,32.717249],[-96.739373,32.717803],[-96.739211,32.717949],[-96.738985,32.718072],[-96.738594,32.718215],[-96.737703,32.718699],[-96.736747,32.719161],[-96.735553,32.719269],[-96.733377,32.71986],[-96.732688,32.719888],[-96.732418,32.719846],[-96.729253,32.719981],[-96.72923,32.719981]]},"properties":{"name":"Trinity Forest Trail","status":"PROGRAMMED","miles":0.89,"width":"12'","surface":"CONCRETE","pic":"https://www.dallasparks.org/ImageRepository/Document?documentId=1178"}},{"type":"Feature","geometry":{"type":"MultiLineString","coordinates":[[[-96.701579,32.70155],[-96.700997,32.701355],[-96.699857,32.701004],[-96.699178,32.700929],[-96.698249,32.700818],[-96.696325,32.700746],[-96.695554,32.700708],[-96.693442,32.699574],[-96.691298,32.698072],[-96.691107,32.697126],[-96.69105,32.696898],[-96.690985,32.696769],[-96.690358,32.696765],[-96.689911,32.696744],[-96.6899,32.695254],[-96.689943,32.693137],[-96.689994,32.69066],[-96.68955,32.69067],[-96.687971,32.690602],[-96.686479,32.688431],[-96.684443,32.685235],[-96.68297,32.681904],[-96.681776,32.68127]],[[-96.737478,32.705831],[-96.737678,32.70587],[-96.737572,32.705834],[-96.737549,32.705828],[-96.737525,32.705825],[-96.737501,32.705826],[-96.737478,32.705831]],[[-96.737478,32.705831],[-96.737456,32.705838],[-96.737436,32.705849],[-96.737418,32.705863],[-96.737396,32.705883],[-96.737382,32.705898],[-96.737372,32.705914]],[[-96.737372,32.705914],[-96.737478,32.705831]],[[-96.737372,32.705914],[-96.737365,32.705931],[-96.737362,32.705949],[-96.737362,32.705968],[-96.737366,32.705986],[-96.737373,32.706003]],[[-96.737373,32.706003],[-96.737372,32.705914]],[[-96.737373,32.706003],[-96.737444,32.706134],[-96.737697,32.706604]],[[-96.737697,32.706604],[-96.737845,32.706878],[-96.737857,32.706896]],[[-96.738212,32.706887],[-96.738008,32.706955]],[[-96.738212,32.706887],[-96.738483,32.706794],[-96.738928,32.706642],[-96.739206,32.706546],[-96.739407,32.707016],[-96.739467,32.707578],[-96.739245,32.707972],[-96.739037,32.708677],[-96.739011,32.70897],[-96.738913,32.709262],[-96.73859,32.710077],[-96.738653,32.710501],[-96.739076,32.711336],[-96.739191,32.711726],[-96.7393,32.711892],[-96.739546,32.712327],[-96.740109,32.713302],[-96.74056,32.714275],[-96.740693,32.71476],[-96.740806,32.715245],[-96.740923,32.715514],[-96.741104,32.716124]],[[-96.737857,32.706896],[-96.737697,32.706604]],[[-96.737857,32.706896],[-96.737873,32.706913],[-96.737891,32.706927],[-96.737911,32.706939],[-96.737934,32.706948],[-96.737958,32.706953],[-96.737983,32.706956],[-96.738008,32.706955]],[[-96.738008,32.706955],[-96.738032,32.706951],[-96.738055,32.706943],[-96.738102,32.706925],[-96.738212,32.706887]],[[-96.738008,32.706955],[-96.737857,32.706896]],[[-96.741068,32.715976],[-96.741104,32.716124]],[[-96.741104,32.716124],[-96.741043,32.716348],[-96.740733,32.716416],[-96.740225,32.716599],[-96.739805,32.716933],[-96.739592,32.717249],[-96.739477,32.717541],[-96.739432,32.718092],[-96.739467,32.718411],[-96.739614,32.718707],[-96.739743,32.718907],[-96.739934,32.719022],[-96.740134,32.719258],[-96.740612,32.719852],[-96.740902,32.720167],[-96.741603,32.720893],[-96.742324,32.721603],[-96.742727,32.721885],[-96.743191,32.722193],[-96.744008,32.722662],[-96.744383,32.722814],[-96.74483,32.722924],[-96.745043,32.72304],[-96.745481,32.72308],[-96.745829,32.723051],[-96.746063,32.723063],[-96.747752,32.723406],[-96.747932,32.723572],[-96.748429,32.723752],[-96.748806,32.723792],[-96.749224,32.723832],[-96.749612,32.723829],[-96.750051,32.723844],[-96.750325,32.723934],[-96.750911,32.724262],[-96.752212,32.725117],[-96.752986,32.725707],[-96.75334,32.72591],[-96.753654,32.726027],[-96.753827,32.726072],[-96.754105,32.72593],[-96.754402,32.725802],[-96.754573,32.7268],[-96.755183,32.726788],[-96.755207,32.727007],[-96.75532,32.727526],[-96.755573,32.727616],[-96.755973,32.727561],[-96.756525,32.727526],[-96.756944,32.727506],[-96.757322,32.727494],[-96.757621,32.727343],[-96.757778,32.727164],[-96.757915,32.726941],[-96.757935,32.725986],[-96.758413,32.726033],[-96.758644,32.725845],[-96.758797,32.725719],[-96.761349,32.726251],[-96.761706,32.726338],[-96.761969,32.726437],[-96.762247,32.726329],[-96.762365,32.726572],[-96.76295,32.727987],[-96.763614,32.727996],[-96.763732,32.728188],[-96.764115,32.729514],[-96.763507,32.729773],[-96.763581,32.730163],[-96.764569,32.733448],[-96.765465,32.736223],[-96.766199,32.736277],[-96.766315,32.736632],[-96.766554,32.737438],[-96.76704,32.737695],[-96.767735,32.73818],[-96.768629,32.738952],[-96.76899,32.739285],[-96.769836,32.739892],[-96.770361,32.740228],[-96.770613,32.740395],[-96.770956,32.740633],[-96.771427,32.741063],[-96.771788,32.741404],[-96.771978,32.74164],[-96.772096,32.741866],[-96.772434,32.742328],[-96.772733,32.742721],[-96.773093,32.743123],[-96.773321,32.743463],[-96.773656,32.74358],[-96.77386,32.743583],[-96.774137,32.743535],[-96.774545,32.743558],[-96.77481,32.743596],[-96.775174,32.743765],[-96.775498,32.743916],[-96.77653,32.744431],[-96.776963,32.744782],[-96.777624,32.745448],[-96.778141,32.746154],[-96.778462,32.746452],[-96.778694,32.746645],[-96.778868,32.746587],[-96.778964,32.74639],[-96.779069,32.74627],[-96.779412,32.746491],[-96.77942,32.746586],[-96.77951,32.746682],[-96.779673,32.746719],[-96.779804,32.74679],[-96.779933,32.746982],[-96.780131,32.747312],[-96.780445,32.747472],[-96.780832,32.747529],[-96.781084,32.747679],[-96.781263,32.747924],[-96.781219,32.748087],[-96.781723,32.748457],[-96.781984,32.748676],[-96.782249,32.748723],[-96.782569,32.748555],[-96.782847,32.74842],[-96.78303,32.748483],[-96.783313,32.748617],[-96.783669,32.748725],[-96.783994,32.748799],[-96.784208,32.748862],[-96.78444,32.748977],[-96.784584,32.748928],[-96.784877,32.748578],[-96.784969,32.748562],[-96.785233,32.748652],[-96.785115,32.74897],[-96.785111,32.749177],[-96.785342,32.74937],[-96.785593,32.749572],[-96.785861,32.749472],[-96.786361,32.749513],[-96.786645,32.749586]],[[-96.741151,32.716314],[-96.741104,32.716124]]]},"properties":{"name":"Trinity Forest Trail","status":"PROGRAMMED","miles":7.55,"width":"12'","surface":"CONCRETE","pic":"https://www.dallasparks.org/ImageRepository/Document?documentId=1178"}},{"type":"Feature","geometry":{"type":"LineString","coordinates":[[-96.73168,32.812752],[-96.731599,32.812841],[-96.7315,32.812959],[-96.731447,32.813063],[-96.731418,32.813139],[-96.731393,32.813215],[-96.731313,32.8133],[-96.731163,32.813451],[-96.730623,32.813887],[-96.73041,32.814075],[-96.730199,32.814148],[-96.730102,32.81419],[-96.729884,32.814377],[-96.729373,32.814458],[-96.72941,32.81463]]},"properties":{"name":"Santa Fe/Sopac Connection","status":"EXISTING","miles":0.2,"width":"12","surface":"CONCRETE","pic":"https://www.dallasparks.org/ImageRepository/Document?documentId=8513"}},{"type":"Feature","geometry":{"type":"LineString","coordinates":[[-96.761524,32.84427],[-96.761539,32.844155],[-96.761541,32.844087],[-96.761527,32.843953],[-96.761539,32.843846],[-96.761532,32.843703],[-96.761519,32.843606],[-96.761512,32.843532],[-96.761538,32.843418],[-96.761533,32.843339],[-96.761511,32.843265],[-96.761501,32.84316],[-96.761512,32.843043],[-96.761535,32.842939],[-96.761532,32.842779],[-96.761535,32.842622],[-96.761559,32.842498],[-96.761567,32.842386],[-96.761572,32.842297],[-96.761595,32.842203],[-96.761633,32.842124],[-96.761721,32.842072],[-96.761806,32.842037],[-96.761877,32.841974],[-96.761665,32.842002],[-96.760991,32.842077],[-96.760667,32.842128],[-96.760156,32.842257],[-96.759909,32.8423],[-96.759688,32.842361],[-96.759313,32.842431],[-96.759074,32.842485],[-96.758623,32.842568],[-96.75835,32.842647],[-96.757933,32.842752],[-96.757707,32.842813],[-96.75737,32.842887],[-96.75703,32.842947],[-96.75657,32.843055],[-96.756127,32.843167],[-96.755758,32.843285],[-96.755424,32.843304],[-96.754823,32.843475],[-96.754678,32.843547],[-96.754493,32.843638],[-96.754276,32.843671],[-96.753823,32.843731],[-96.753573,32.843753],[-96.75348,32.843799],[-96.753392,32.84389],[-96.753349,32.843933],[-96.753279,32.843952],[-96.753176,32.843976],[-96.752886,32.843998],[-96.752608,32.844019],[-96.752364,32.844021],[-96.752271,32.844002],[-96.75218,32.844013],[-96.751432,32.844174],[-96.750946,32.84429],[-96.750532,32.844381],[-96.750069,32.844483],[-96.749434,32.84463],[-96.7492,32.844686],[-96.748644,32.844818],[-96.748195,32.844926],[-96.748084,32.844952],[-96.747145,32.845135],[-96.746591,32.84527],[-96.746178,32.845368],[-96.746116,32.845471],[-96.745903,32.845543],[-96.745532,32.845638],[-96.744865,32.845792],[-96.744048,32.84604],[-96.743799,32.846109],[-96.743284,32.846182],[-96.743087,32.846195],[-96.742976,32.846223],[-96.742872,32.846298],[-96.742834,32.84633],[-96.74278,32.846358],[-96.742732,32.846383],[-96.742628,32.846404],[-96.742481,32.846407],[-96.742333,32.846433],[-96.742158,32.846492],[-96.742105,32.846509],[-96.741648,32.846662],[-96.741363,32.84675],[-96.740913,32.847026],[-96.740842,32.847118],[-96.740827,32.847225],[-96.740872,32.847337],[-96.740961,32.84756],[-96.741256,32.848273],[-96.741251,32.84846]]},"properties":{"name":"Ridgewood Trail","status":"EXISTING","miles":1.55,"width":"14'","surface":"CONCRETE","pic":"https://www.dallasparks.org/ImageRepository/Document?documentId=2647"}},{"type":"Feature","geometry":{"type":"MultiLineString","coordinates":[[[-96.773532,32.839285],[-96.773771,32.838989],[-96.774135,32.838619],[-96.775427,32.837669],[-96.775481,32.837623],[-96.775709,32.83743],[-96.775985,32.837267],[-96.77628,32.836861],[-96.777206,32.835975],[-96.777368,32.835834],[-96.778184,32.835159],[-96.779438,32.834072],[-96.779543,32.833808],[-96.779596,32.833674]],[[-96.773532,32.839285],[-96.773558,32.839403],[-96.773389,32.839758],[-96.77336,32.839859],[-96.773271,32.840086],[-96.773285,32.840226],[-96.773157,32.840489],[-96.772908,32.841126],[-96.77281,32.841547],[-96.772826,32.841841]],[[-96.761877,32.841974],[-96.76208,32.841929],[-96.762229,32.841886],[-96.762375,32.841815],[-96.762524,32.841753],[-96.762658,32.841704],[-96.762828,32.841646],[-96.762952,32.841614],[-96.763237,32.841544],[-96.763455,32.841494],[-96.763615,32.841471],[-96.764043,32.841423],[-96.764228,32.84139],[-96.7644,32.841349],[-96.764528,32.841305],[-96.764656,32.841253],[-96.764777,32.841212],[-96.764941,32.841168],[-96.765059,32.841129],[-96.765266,32.841076],[-96.766096,32.840881],[-96.768624,32.840265],[-96.769533,32.840063],[-96.769733,32.840019],[-96.770003,32.840017],[-96.77022,32.839988],[-96.770455,32.839862],[-96.770661,32.839801],[-96.771406,32.839623],[-96.771637,32.839581],[-96.77191,32.83948],[-96.772374,32.839344],[-96.772935,32.839142],[-96.773208,32.839045],[-96.773532,32.839285]]]},"properties":{"name":"University Crossing Trail","status":"EXISTING","miles":1.43,"width":"14'","surface":"CONCRETE","pic":" "}},{"type":"Feature","geometry":{"type":"LineString","coordinates":[[-96.833766,32.823421],[-96.833722,32.823381],[-96.833657,32.823328],[-96.833469,32.823057],[-96.833415,32.822954],[-96.833285,32.822672],[-96.833222,32.822506],[-96.833106,32.822203],[-96.832994,32.821933],[-96.832924,32.821755],[-96.832848,32.821576],[-96.832757,32.821148],[-96.832711,32.820644],[-96.832781,32.820374],[-96.832875,32.820178],[-96.832881,32.820103],[-96.83298,32.818952],[-96.83305,32.818495],[-96.833083,32.818286],[-96.833108,32.818123],[-96.8332,32.817527],[-96.833417,32.816265],[-96.833479,32.816028],[-96.833549,32.815671],[-96.833575,32.815291],[-96.83356,32.814964],[-96.833254,32.814791],[-96.833184,32.814536],[-96.833122,32.814312],[-96.833058,32.813951],[-96.832991,32.813703],[-96.832954,32.813573],[-96.832832,32.813456],[-96.833024,32.813306],[-96.832798,32.813019],[-96.832853,32.812842],[-96.832797,32.81257],[-96.832748,32.812373],[-96.832624,32.812074],[-96.832514,32.811743],[-96.83254,32.811584],[-96.832732,32.811493],[-96.832987,32.811301],[-96.833233,32.811106],[-96.83351,32.810867],[-96.833668,32.810711],[-96.834055,32.810476],[-96.834233,32.810313],[-96.834411,32.810195],[-96.834431,32.810012],[-96.834585,32.809981],[-96.834876,32.809724],[-96.834813,32.809662],[-96.834659,32.809543],[-96.834394,32.809374],[-96.834018,32.809051],[-96.833728,32.80882],[-96.833479,32.808606],[-96.833137,32.808289],[-96.832746,32.807907],[-96.832531,32.807745],[-96.832203,32.807469],[-96.831842,32.80716],[-96.831564,32.80695],[-96.831042,32.806524],[-96.830787,32.806404],[-96.830577,32.806208],[-96.830357,32.805977],[-96.830034,32.805666],[-96.829366,32.804956],[-96.829218,32.804776],[-96.82909,32.804648],[-96.828835,32.804319],[-96.828605,32.803935],[-96.828339,32.803467],[-96.82815,32.803133],[-96.827765,32.802594],[-96.827783,32.802305],[-96.82785,32.802185],[-96.827118,32.801216],[-96.826965,32.80098],[-96.826812,32.80073],[-96.826624,32.800442],[-96.826455,32.8001],[-96.82615,32.799601],[-96.825967,32.799278],[-96.825734,32.798889],[-96.82553,32.798495],[-96.825381,32.798267],[-96.825209,32.798005],[-96.824902,32.797457],[-96.824555,32.79685],[-96.824343,32.796504],[-96.824206,32.796309],[-96.824106,32.796097],[-96.82395,32.795805]]},"properties":{"name":"Trinity Strand Trail Phase II","status":"EXISTING","miles":2.22,"width":"12'","surface":"CONCRETE","pic":" "}},{"type":"Feature","geometry":{"type":"LineString","coordinates":[[-96.717619,32.732363],[-96.71763,32.732363],[-96.719603,32.732337],[-96.719791,32.732313],[-96.720023,32.732265],[-96.720282,32.732183],[-96.720607,32.732033],[-96.720776,32.73193],[-96.72097,32.731787],[-96.721309,32.731596],[-96.721465,32.731537],[-96.721685,32.731474],[-96.721896,32.731438],[-96.722124,32.731423],[-96.72257,32.731434],[-96.722739,32.731424],[-96.722976,32.73139],[-96.723287,32.73131],[-96.723509,32.731224],[-96.723694,32.731132],[-96.723866,32.731026],[-96.724042,32.730892],[-96.72423,32.730711],[-96.724346,32.730569],[-96.724497,32.730377],[-96.724681,32.73021],[-96.724829,32.730108],[-96.72495,32.730042],[-96.725117,32.72997],[-96.725687,32.729758],[-96.725805,32.729595],[-96.725855,32.729343],[-96.725886,32.729274],[-96.726039,32.729115],[-96.726197,32.729044],[-96.726587,32.728933]]},"properties":{"name":"Trinity Forest Trail Phase Ii","status":"PROPOSED","miles":0.61,"width":"12'","surface":"CONCRETE","pic":" "}},{"type":"Feature","geometry":{"type":"LineString","coordinates":[[-96.754573,32.7268],[-96.755552,32.732486],[-96.755315,32.733017],[-96.754354,32.733419],[-96.753199,32.733831],[-96.753199,32.733831],[-96.750601,32.734759],[-96.750003,32.734974],[-96.749402,32.735356],[-96.744283,32.739723],[-96.743849,32.740093],[-96.743692,32.740227],[-96.74329,32.74057],[-96.743171,32.740505],[-96.743116,32.740456],[-96.743005,32.740395],[-96.742893,32.740369],[-96.742781,32.740367],[-96.742653,32.740424],[-96.74254,32.740446],[-96.742344,32.740419],[-96.742052,32.740318],[-96.741135,32.739898],[-96.739497,32.739085],[-96.737638,32.738172],[-96.736833,32.737766],[-96.736278,32.737483],[-96.736014,32.737298],[-96.73343,32.734909],[-96.730997,32.732933]]},"properties":{"name":"Trinity Forest Trail Phase Iii","status":"PROPOSED","miles":2.23,"width":"12'","surface":"CONCRETE","pic":" "}},{"type":"Feature","geometry":{"type":"LineString","coordinates":[[-96.717597,32.732375],[-96.716684,32.732386],[-96.715574,32.732469],[-96.71475,32.732851],[-96.71354,32.733549],[-96.712448,32.734248],[-96.713364,32.735099],[-96.718811,32.739711],[-96.721535,32.742257],[-96.724176,32.745094],[-96.724816,32.746138],[-96.725169,32.746279],[-96.725547,32.7465],[-96.725944,32.746775],[-96.725988,32.749277],[-96.725014,32.74941],[-96.724851,32.752803],[-96.724561,32.753563],[-96.724381,32.753977],[-96.72426,32.75438],[-96.724024,32.75542],[-96.724008,32.75549],[-96.723985,32.755558],[-96.723955,32.755625],[-96.723918,32.755689],[-96.723875,32.75575],[-96.723825,32.755808],[-96.72377,32.755861],[-96.72371,32.755911],[-96.723645,32.755956],[-96.723575,32.755996],[-96.723551,32.755999],[-96.723528,32.756006],[-96.723507,32.756015],[-96.723488,32.756028],[-96.723471,32.756043],[-96.723458,32.75606],[-96.723449,32.756079],[-96.723443,32.756099],[-96.723441,32.756119],[-96.723444,32.75614],[-96.72345,32.75616],[-96.723461,32.756178],[-96.723474,32.756195],[-96.723491,32.75621],[-96.723511,32.756222],[-96.723533,32.756231],[-96.723556,32.756236],[-96.72358,32.756239],[-96.723604,32.756238],[-96.723628,32.756233],[-96.724142,32.756432],[-96.724722,32.756729],[-96.725687,32.757532],[-96.725683,32.757564],[-96.725686,32.757595],[-96.725694,32.757626],[-96.725709,32.757655],[-96.725729,32.757682],[-96.725755,32.757705],[-96.725784,32.757725],[-96.725817,32.75774],[-96.725853,32.75775],[-96.72589,32.757755],[-96.725927,32.757755],[-96.725964,32.757749],[-96.726113,32.75791],[-96.726128,32.757924],[-96.726141,32.75794],[-96.72615,32.757957],[-96.726156,32.757975],[-96.726158,32.757994],[-96.726156,32.758013],[-96.726151,32.758032],[-96.726143,32.758049],[-96.726131,32.758065],[-96.726116,32.75808],[-96.726099,32.758092],[-96.725947,32.758184],[-96.725935,32.758195],[-96.725926,32.758207],[-96.725919,32.75822],[-96.725915,32.758234],[-96.725913,32.758248],[-96.725915,32.758263],[-96.725919,32.758277],[-96.725926,32.75829],[-96.725936,32.758302],[-96.725948,32.758312],[-96.725961,32.758321],[-96.725977,32.758328],[-96.726009,32.758356],[-96.726036,32.758388],[-96.726057,32.758423],[-96.72607,32.758461],[-96.726077,32.7585],[-96.726076,32.758539],[-96.726068,32.758578],[-96.726053,32.758615],[-96.726031,32.75865],[-96.726003,32.758681],[-96.725959,32.758714],[-96.725921,32.758752],[-96.72589,32.758794],[-96.725865,32.758839],[-96.725847,32.758886],[-96.725837,32.758935],[-96.725834,32.758984],[-96.725839,32.759034],[-96.725838,32.759071],[-96.72583,32.759108],[-96.725815,32.759143],[-96.725793,32.759175],[-96.725753,32.759227],[-96.725712,32.759278],[-96.725533,32.759465],[-96.725478,32.759515],[-96.725421,32.759562],[-96.725363,32.759614],[-96.725301,32.759661],[-96.725234,32.759704],[-96.725163,32.759742],[-96.725089,32.759774],[-96.725045,32.759786],[-96.725003,32.759804],[-96.724966,32.759828],[-96.724934,32.759857],[-96.724907,32.759889],[-96.724887,32.759925],[-96.724875,32.759963],[-96.72487,32.760002],[-96.724478,32.760556],[-96.724465,32.760581],[-96.724427,32.760646],[-96.724382,32.760709],[-96.72433,32.760767],[-96.724007,32.761079],[-96.724,32.761087],[-96.723992,32.761094],[-96.723982,32.7611],[-96.723972,32.761105],[-96.723961,32.761109],[-96.723947,32.761111],[-96.723934,32.761112],[-96.72392,32.76111],[-96.723907,32.761107],[-96.723895,32.761102],[-96.723884,32.761095],[-96.723875,32.761087],[-96.723867,32.761077],[-96.723861,32.761067],[-96.723825,32.761064],[-96.723789,32.761067],[-96.723754,32.761075],[-96.723721,32.761088],[-96.723691,32.761105],[-96.723665,32.761127],[-96.723657,32.76114],[-96.723651,32.761154],[-96.723649,32.761169],[-96.72365,32.761184],[-96.723653,32.761198],[-96.72366,32.761212],[-96.723669,32.761225],[-96.723681,32.761236],[-96.723685,32.761249],[-96.723686,32.761263],[-96.723685,32.761277],[-96.723681,32.761291],[-96.723674,32.761303],[-96.723665,32.761315],[-96.723654,32.761325],[-96.723641,32.761334],[-96.723626,32.761341],[-96.723611,32.761346],[-96.723595,32.761348],[-96.723578,32.761348],[-96.723562,32.761346],[-96.723515,32.761365],[-96.723471,32.761388],[-96.72343,32.761415],[-96.723394,32.761447],[-96.723363,32.761482],[-96.723336,32.761519],[-96.723316,32.76156],[-96.723308,32.761575],[-96.723298,32.761588],[-96.723285,32.7616],[-96.72327,32.76161],[-96.723253,32.761618],[-96.723235,32.761623],[-96.723216,32.761626],[-96.723197,32.761627],[-96.723178,32.761624],[-96.723159,32.761619],[-96.723142,32.761612],[-96.723127,32.761603],[-96.723113,32.761591],[-96.72309,32.761584],[-96.723065,32.76158],[-96.723039,32.761579],[-96.723014,32.761583],[-96.72299,32.76159],[-96.722968,32.7616],[-96.722948,32.761613],[-96.722931,32.761629],[-96.722917,32.761648],[-96.722908,32.761667],[-96.722902,32.761688],[-96.722901,32.76171],[-96.722904,32.761731],[-96.722907,32.761788],[-96.722918,32.761845],[-96.722937,32.7619],[-96.722963,32.761953],[-96.722978,32.761973],[-96.722989,32.761994],[-96.722997,32.762017],[-96.722999,32.76204],[-96.722998,32.762064],[-96.722992,32.762087],[-96.722982,32.762109],[-96.722969,32.762129],[-96.722951,32.762147],[-96.722888,32.762193],[-96.722831,32.762244],[-96.72278,32.762299],[-96.722735,32.762358],[-96.722697,32.76242],[-96.722683,32.76243],[-96.722671,32.762441],[-96.722661,32.762453],[-96.722653,32.762467],[-96.722648,32.762481],[-96.722645,32.762497],[-96.722645,32.762513],[-96.722648,32.762528],[-96.722653,32.762544],[-96.722659,32.762573],[-96.72266,32.762604],[-96.722654,32.762634],[-96.722643,32.762662],[-96.722627,32.762689],[-96.722605,32.762713],[-96.722579,32.762734],[-96.72255,32.762751],[-96.722417,32.762849],[-96.722398,32.762884],[-96.722374,32.762918],[-96.722344,32.762948],[-96.722311,32.762975],[-96.722274,32.762998],[-96.722233,32.763017],[-96.722204,32.763022],[-96.722176,32.763032],[-96.722151,32.763044],[-96.722128,32.76306],[-96.722109,32.763079],[-96.722093,32.763101],[-96.722082,32.763124],[-96.722075,32.763148],[-96.722073,32.763173],[-96.722056,32.763213],[-96.722033,32.763251],[-96.722004,32.763286],[-96.721969,32.763317],[-96.72193,32.763343],[-96.721888,32.763366],[-96.721842,32.763383],[-96.721793,32.763395],[-96.721741,32.763429],[-96.721668,32.763483],[-96.721597,32.763539],[-96.72153,32.763599],[-96.721507,32.763627]]},"properties":{"name":"Trinity Forest Spine Trail","status":"PROGRAMMED","miles":2.97,"width":"12'","surface":"CONCRETE","pic":"https://www.dallasparks.org/ImageRepository/Document?documentId=1178"}},{"type":"Feature","geometry":{"type":"LineString","coordinates":[[-96.72923,32.719981],[-96.728884,32.719982],[-96.717876,32.720012]]},"properties":{"name":"Trinity Forest Trail","status":"EXISTING","miles":0.66,"width":"12'","surface":"CONCRETE","pic":"https://www.dallasparks.org/ImageRepository/Document?documentId=1178"}},{"type":"Feature","geometry":{"type":"LineString","coordinates":[[-96.729056,32.72002],[-96.728999,32.722078],[-96.726716,32.727534],[-96.726584,32.728487],[-96.726577,32.728869],[-96.726578,32.728872],[-96.726794,32.729301],[-96.726985,32.729638],[-96.73029,32.732358],[-96.730997,32.732933],[-96.730433,32.733589],[-96.730392,32.733635],[-96.730358,32.733684],[-96.73033,32.733736],[-96.730309,32.733791],[-96.730296,32.733847],[-96.73029,32.733904],[-96.730291,32.733961],[-96.7303,32.734018],[-96.730317,32.734073],[-96.730341,32.734127],[-96.730322,32.734246],[-96.730296,32.734365],[-96.730263,32.734482],[-96.730222,32.734598],[-96.730174,32.734711],[-96.730119,32.734822],[-96.730057,32.734931],[-96.729988,32.735037],[-96.729912,32.735139],[-96.729831,32.735238],[-96.728786,32.736355],[-96.728739,32.736371],[-96.728695,32.736392],[-96.728655,32.736419],[-96.72862,32.73645],[-96.728591,32.736486],[-96.728569,32.736524],[-96.728553,32.736565],[-96.728545,32.736608],[-96.728545,32.736651],[-96.728551,32.736693],[-96.728534,32.736746],[-96.72851,32.736798],[-96.728479,32.736847],[-96.728443,32.736892],[-96.728644,32.736993],[-96.728691,32.737018],[-96.728734,32.737048],[-96.728772,32.737082],[-96.728804,32.73712],[-96.72883,32.737162],[-96.728849,32.737206],[-96.72886,32.737252],[-96.728865,32.737299],[-96.728862,32.737346],[-96.728851,32.737392],[-96.728834,32.737437],[-96.728809,32.737479],[-96.728778,32.737518],[-96.728723,32.737578],[-96.728663,32.737634],[-96.728597,32.737685],[-96.728526,32.737731],[-96.72845,32.737772],[-96.728371,32.737807],[-96.728288,32.737836],[-96.728203,32.737859],[-96.728156,32.737862],[-96.72811,32.737872],[-96.728067,32.737888],[-96.728027,32.737909],[-96.727991,32.737936],[-96.727961,32.737966],[-96.727938,32.738001],[-96.727921,32.738038],[-96.727911,32.738078],[-96.727909,32.738117],[-96.727915,32.738157],[-96.727928,32.738196],[-96.727892,32.738313],[-96.727849,32.738429],[-96.727797,32.738543],[-96.727752,32.738598],[-96.727702,32.738705],[-96.727654,32.738758],[-96.727573,32.738824],[-96.727546,32.738979],[-96.727592,32.73908],[-96.727573,32.739214],[-96.7276,32.73945],[-96.72758,32.739604],[-96.72758,32.739685],[-96.727545,32.739799],[-96.727567,32.739913],[-96.727549,32.740034],[-96.727527,32.740316],[-96.727531,32.740511],[-96.727506,32.740591],[-96.727416,32.740645],[-96.72725,32.740655],[-96.727154,32.740652],[-96.72694,32.740651],[-96.726453,32.740623],[-96.725747,32.740622],[-96.724706,32.740605],[-96.724029,32.740602],[-96.723243,32.740484],[-96.722801,32.740564],[-96.722506,32.740932],[-96.721316,32.741974]]},"properties":{"name":"Trinity Forest Spine Trail","status":"PROPOSED","miles":2.05,"width":"12'","surface":"CONCRETE","pic":" "}},{"type":"Feature","geometry":{"type":"LineString","coordinates":[[-96.729618,32.815594],[-96.729635,32.81568],[-96.731455,32.823854],[-96.731455,32.823855],[-96.732381,32.828127],[-96.732854,32.829256],[-96.73401,32.832015],[-96.734341,32.832805],[-96.734614,32.833439],[-96.735201,32.834775],[-96.735828,32.83622],[-96.736401,32.837541],[-96.736929,32.838755],[-96.737557,32.840192],[-96.738143,32.841545],[-96.73831,32.841779],[-96.740664,32.847059],[-96.741251,32.84846],[-96.742294,32.850784],[-96.743523,32.853573],[-96.744537,32.855896],[-96.746052,32.859406],[-96.747826,32.863393],[-96.747858,32.863465],[-96.750676,32.869829],[-96.752997,32.875103],[-96.75414,32.877725],[-96.756165,32.882361],[-96.757013,32.884305],[-96.75738,32.885085],[-96.757595,32.885481],[-96.757984,32.88609],[-96.758148,32.886313],[-96.75913,32.887529],[-96.759305,32.887771],[-96.759278,32.887783],[-96.759229,32.887786],[-96.759196,32.887763],[-96.758127,32.886491]]},"properties":{"name":"SoPac Trail","status":"EXISTING","miles":5.4,"width":"12'","surface":"CONCRETE","pic":"https://www.dallasparks.org/ImageRepository/Document?documentId=8536"}},{"type":"Feature","geometry":{"type":"LineString","coordinates":[[-96.728671,32.793043],[-96.728647,32.793209],[-96.728138,32.793575],[-96.727907,32.794093],[-96.7275,32.794445],[-96.726397,32.794809],[-96.726064,32.795053],[-96.725516,32.795941],[-96.72462,32.7972],[-96.724539,32.798151],[-96.724916,32.798516],[-96.725067,32.798832],[-96.72518,32.799716],[-96.725246,32.800366],[-96.72503,32.800692],[-96.723405,32.801566],[-96.723347,32.801616],[-96.723361,32.801697],[-96.72361,32.802058],[-96.723649,32.802077],[-96.723711,32.802066],[-96.723759,32.802073],[-96.723794,32.80211],[-96.723812,32.80216],[-96.723797,32.802206],[-96.723721,32.802301],[-96.723676,32.802378],[-96.72373,32.802777],[-96.723855,32.803078],[-96.723998,32.803203],[-96.724051,32.803504],[-96.724428,32.804155],[-96.724924,32.804234],[-96.726458,32.804194],[-96.726905,32.806146],[-96.727215,32.807501],[-96.727914,32.807846]]},"properties":{"name":"Trinity Forest Spine Trail","status":"EXISTING","miles":1.36,"width":"12'","surface":"CONCRETE","pic":"https://www.dallasparks.org/ImageRepository/Document?documentId=1178"}},{"type":"Feature","geometry":{"type":"LineString","coordinates":[[-96.821546,32.775098],[-96.821562,32.775092],[-96.821571,32.775088],[-96.821571,32.775043],[-96.821573,32.774185],[-96.821075,32.772259],[-96.820625,32.770974],[-96.820219,32.769639],[-96.820071,32.768859],[-96.819672,32.767963],[-96.819516,32.767585],[-96.819253,32.767356],[-96.819034,32.767139],[-96.818951,32.766837],[-96.818557,32.766456],[-96.81828,32.766219],[-96.817284,32.765478],[-96.816467,32.764764],[-96.815586,32.764238],[-96.814941,32.763803],[-96.814395,32.763612],[-96.813823,32.763462],[-96.813011,32.763106],[-96.812231,32.763001],[-96.811865,32.762713],[-96.811724,32.762645]]},"properties":{"name":"Trinity Skyline Trail","status":"EXISTING","miles":1.12,"width":"16'","surface":"CONCRETE","pic":"https://www.dallasparks.org/ImageRepository/Document?documentId=11373"}},{"type":"Feature","geometry":{"type":"MultiLineString","coordinates":[[[-96.807,32.757317],[-96.807293,32.757869],[-96.807491,32.758177],[-96.807574,32.758431],[-96.807303,32.758324],[-96.807067,32.758246],[-96.806906,32.758195],[-96.807203,32.75853],[-96.807454,32.758834]],[[-96.807454,32.758834],[-96.807112,32.758767],[-96.806973,32.758704],[-96.806827,32.758618],[-96.806747,32.758533],[-96.806314,32.758035],[-96.806072,32.757783],[-96.805306,32.757179],[-96.804766,32.756757],[-96.804479,32.756519],[-96.804086,32.756294],[-96.803673,32.75603],[-96.802894,32.755559],[-96.80237,32.75519],[-96.802001,32.754939],[-96.801501,32.754585],[-96.800994,32.754236],[-96.800672,32.754006],[-96.800118,32.753625],[-96.799489,32.753179],[-96.798806,32.752701],[-96.798292,32.752332],[-96.798189,32.752186],[-96.798047,32.752056],[-96.797882,32.751956],[-96.797626,32.751888],[-96.797446,32.751799],[-96.797247,32.75164],[-96.7967,32.751236],[-96.796456,32.751073],[-96.796269,32.751019],[-96.796139,32.751011],[-96.795803,32.751003],[-96.795412,32.751004],[-96.795179,32.750995],[-96.794965,32.750931],[-96.79486,32.75086],[-96.794782,32.750816],[-96.794704,32.750771],[-96.794539,32.750644],[-96.794484,32.750623],[-96.79441,32.750628],[-96.794316,32.750653],[-96.794263,32.750638],[-96.793847,32.750429],[-96.793803,32.750411],[-96.793776,32.750373],[-96.793775,32.750278]],[[-96.807454,32.758834],[-96.807454,32.758834]],[[-96.807455,32.758834],[-96.807454,32.758834]],[[-96.822808,32.779894],[-96.822802,32.779884],[-96.822301,32.778899],[-96.822295,32.778422],[-96.822017,32.77771],[-96.821816,32.777221],[-96.821613,32.776795],[-96.821469,32.776253],[-96.821237,32.775954],[-96.820958,32.775491],[-96.821108,32.775258],[-96.821583,32.775086],[-96.822028,32.774076],[-96.82232,32.774386]],[[-96.822808,32.779894],[-96.823623,32.779631],[-96.824773,32.779308],[-96.82518,32.779765],[-96.825974,32.780177],[-96.825554,32.77962],[-96.825765,32.77946]],[[-96.835264,32.78928],[-96.835269,32.789245]],[[-96.835264,32.78928],[-96.834263,32.788866],[-96.833205,32.788075],[-96.83261,32.787615],[-96.831618,32.787164],[-96.831427,32.787074],[-96.83137,32.786923],[-96.831492,32.786774],[-96.831688,32.786613],[-96.832154,32.786306],[-96.832995,32.785656],[-96.833134,32.785516],[-96.833212,32.785342],[-96.833007,32.785176],[-96.832726,32.785085],[-96.832302,32.785543],[-96.832074,32.785828],[-96.831034,32.786667],[-96.830733,32.786889],[-96.830464,32.786973],[-96.830003,32.786967],[-96.827826,32.785909],[-96.827228,32.785324],[-96.826703,32.784803],[-96.8265,32.784574],[-96.825594,32.783785],[-96.825176,32.783139],[-96.824754,32.782657],[-96.824229,32.782161],[-96.823884,32.781541],[-96.82352,32.781185],[-96.823161,32.780516],[-96.822808,32.779894]],[[-96.835285,32.789289],[-96.835264,32.78928]],[[-96.83214,32.789354],[-96.831814,32.788622],[-96.830311,32.787975],[-96.828928,32.78737],[-96.828017,32.786926],[-96.827546,32.786583],[-96.827302,32.786874],[-96.827096,32.787593],[-96.826868,32.788248],[-96.826631,32.788615],[-96.826436,32.788763],[-96.826111,32.788633],[-96.825674,32.788213],[-96.826055,32.787679],[-96.826303,32.787131],[-96.826478,32.785716],[-96.825908,32.785244],[-96.825107,32.784418],[-96.824232,32.783553],[-96.823493,32.782577],[-96.822803,32.781722],[-96.822407,32.781145],[-96.822003,32.780805],[-96.821439,32.780958],[-96.8204,32.781409],[-96.820167,32.781358],[-96.81997,32.781226],[-96.819822,32.780987],[-96.819668,32.780722],[-96.819222,32.780303],[-96.818901,32.780014],[-96.818759,32.779706],[-96.818636,32.779467],[-96.819048,32.779308],[-96.819218,32.779153],[-96.819691,32.778834],[-96.820106,32.778494],[-96.820458,32.778127],[-96.820655,32.777678],[-96.820539,32.777172],[-96.820267,32.776611],[-96.819933,32.776022],[-96.819512,32.7754],[-96.818613,32.775388],[-96.816705,32.775527],[-96.815536,32.774693],[-96.815954,32.776129],[-96.815655,32.776237]],[[-96.834357,32.790827],[-96.834437,32.790819],[-96.834636,32.790776],[-96.834796,32.790766],[-96.83497,32.790769],[-96.83519,32.78976],[-96.835264,32.78928]]]},"properties":{"name":"Trinity Skyline Trail","status":"EXISTING","miles":5.61,"width":"16'","surface":"CONCRETE","pic":"https://www.dallasparks.org/ImageRepository/Document?documentId=11373"}},{"type":"Feature","geometry":{"type":"LineString","coordinates":[[-96.790246,32.751128],[-96.789878,32.750943],[-96.789492,32.750834],[-96.789187,32.750752],[-96.78882,32.750704],[-96.788619,32.750554],[-96.788306,32.75036],[-96.788117,32.750064],[-96.787438,32.749787],[-96.787052,32.74967],[-96.786655,32.749595],[-96.786645,32.749586]]},"properties":{"name":"Trinity Skyline Link","status":"PROPOSED","miles":0.24,"width":"12'","surface":"CONCRETE","pic":" "}},{"type":"Feature","geometry":{"type":"LineString","coordinates":[[-96.906527,32.810529],[-96.906044,32.810469],[-96.905754,32.810438],[-96.905336,32.810323],[-96.905147,32.810076],[-96.905149,32.809939],[-96.905218,32.809695],[-96.905285,32.809587],[-96.905352,32.809424],[-96.905421,32.809179],[-96.905457,32.808989],[-96.905334,32.808633],[-96.905242,32.808359],[-96.905117,32.808167],[-96.90499,32.808002],[-96.904799,32.807863],[-96.904706,32.807671],[-96.904709,32.807507],[-96.904712,32.807344],[-96.904683,32.807153],[-96.904591,32.806879],[-96.904465,32.806686],[-96.90418,32.80641],[-96.904022,32.80619],[-96.903768,32.805996],[-96.903546,32.805748],[-96.903132,32.80547],[-96.902943,32.805195],[-96.902788,32.804811],[-96.90276,32.804566],[-96.902733,32.80432],[-96.902737,32.804047],[-96.902518,32.80369],[-96.902426,32.803444],[-96.902171,32.803249],[-96.901852,32.803055],[-96.901597,32.80286],[-96.90131,32.802666],[-96.901119,32.8025],[-96.900865,32.802251],[-96.900644,32.802003],[-96.900454,32.801783],[-96.900297,32.801562],[-96.90011,32.801206],[-96.90005,32.800932],[-96.899961,32.800522],[-96.899904,32.800085],[-96.899811,32.799839],[-96.899686,32.799646],[-96.899464,32.799425],[-96.899145,32.799203],[-96.89892,32.799173],[-96.898566,32.799087],[-96.898276,32.799056],[-96.897888,32.799105],[-96.897564,32.799156],[-96.897239,32.799288],[-96.896591,32.799443],[-96.895912,32.799516],[-96.895008,32.799504],[-96.894589,32.799499],[-96.894298,32.799522],[-96.893748,32.79957],[-96.893294,32.7997],[-96.892936,32.799859],[-96.89258,32.799909],[-96.892191,32.800013],[-96.891771,32.800035],[-96.891481,32.800004],[-96.89103,32.799944],[-96.890548,32.799828],[-96.889938,32.799657],[-96.88933,32.799376],[-96.88888,32.799234],[-96.888432,32.799065],[-96.887884,32.799003],[-96.887497,32.798971],[-96.886982,32.79891],[-96.886401,32.79893],[-96.885787,32.798949],[-96.885107,32.799049],[-96.884782,32.799181],[-96.884361,32.799257],[-96.88381,32.799387],[-96.883422,32.799409],[-96.882878,32.799184],[-96.88256,32.798907],[-96.88224,32.798739],[-96.881984,32.798654],[-96.881661,32.79865],[-96.880726,32.798583],[-96.880275,32.798523],[-96.879404,32.798539],[-96.879015,32.798588],[-96.878691,32.798666],[-96.878206,32.798741],[-96.877882,32.798764],[-96.877431,32.798758],[-96.877044,32.798726],[-96.876367,32.79869],[-96.875917,32.798602],[-96.875529,32.798624],[-96.874689,32.798641],[-96.874108,32.798633],[-96.873331,32.798787],[-96.872845,32.798862],[-96.872249,32.799018],[-96.87186,32.799094],[-96.871373,32.799252],[-96.871048,32.799356],[-96.870529,32.799486],[-96.870106,32.799671],[-96.869653,32.799774],[-96.869166,32.799904],[-96.868553,32.799896],[-96.867972,32.799889],[-96.867683,32.79983],[-96.867136,32.799714],[-96.866719,32.799599],[-96.866303,32.799376],[-96.865854,32.799206],[-96.86531,32.798981],[-96.864892,32.798894],[-96.864571,32.798808],[-96.864249,32.798749],[-96.863862,32.798744],[-96.86341,32.798711],[-96.862959,32.798705],[-96.862376,32.798779],[-96.86189,32.798882],[-96.861532,32.799068],[-96.861144,32.799063],[-96.860565,32.799001],[-96.860468,32.798972],[-96.859792,32.798909],[-96.859374,32.798821],[-96.858953,32.798898],[-96.858628,32.798975],[-96.85811,32.799077],[-96.857755,32.799073],[-96.857434,32.798959],[-96.856985,32.798844],[-96.856567,32.798757],[-96.855922,32.798694],[-96.855439,32.798633],[-96.854794,32.798597],[-96.854215,32.798508],[-96.853281,32.798414],[-96.852602,32.798459],[-96.852149,32.798508],[-96.85173,32.798502],[-96.85112,32.79833],[-96.850448,32.798022],[-96.850256,32.79791],[-96.849598,32.797711],[-96.849019,32.797594],[-96.848375,32.797531],[-96.847827,32.797469],[-96.847443,32.797328],[-96.846867,32.797047],[-96.846486,32.796715],[-96.845881,32.796271],[-96.845531,32.795994],[-96.84528,32.795636],[-96.844834,32.795303],[-96.844388,32.794997],[-96.843587,32.794659],[-96.842882,32.794377],[-96.842468,32.794099],[-96.841923,32.793901],[-96.84157,32.793787],[-96.841252,32.793538],[-96.840803,32.793368],[-96.84042,32.793172],[-96.840033,32.79314],[-96.839584,32.79297],[-96.839136,32.792773],[-96.838915,32.792525],[-96.838498,32.792383],[-96.838015,32.792322],[-96.837766,32.792211],[-96.837525,32.792014],[-96.837269,32.79183],[-96.837027,32.791655],[-96.836711,32.791296],[-96.836432,32.791009],[-96.835953,32.790757],[-96.835632,32.790671],[-96.835183,32.790502],[-96.834572,32.790412],[-96.834162,32.790542]]},"properties":{"name":"Trinity Skyline Trail","status":"EXISTING","miles":5.02,"width":"16'","surface":"CONCRETE","pic":"https://www.dallasparks.org/ImageRepository/Document?documentId=11373"}},{"type":"Feature","geometry":{"type":"LineString","coordinates":[[-96.811724,32.762645],[-96.811127,32.762357],[-96.810521,32.761987],[-96.810158,32.76161],[-96.809737,32.76129],[-96.80926,32.760951],[-96.808508,32.760231],[-96.808291,32.759874],[-96.807456,32.758836]]},"properties":{"name":"Trinity Skyline Trail","status":"PROGRAMMED","miles":0.37,"width":"16'","surface":"CONCRETE","pic":"https://www.dallasparks.org/ImageRepository/Document?documentId=11373"}}]}