{
 "type": "FeatureCollection",
 "features": [
  {
   "type": "Feature",
   "geometry": {
    "type": "Point",
    "coordinates": [
     -97.236545,
     32.973649
    ]
   },
   "properties": {
    "name": "Circle T Data Center",
    "owner": "not stated in filings",
    "city": "Westlake",
    "county": "Tarrant",
    "sqft": 3830000,
    "acres": 87.96,
    "mw": null,
    "stage": "Zoning \u2014 site plan approved by P&Z, town council vote pending",
    "note": "A 1.1M sq ft building would sit 506 ft from Keller back yards. Keller has passed a resolution threatening legal action.",
    "announced": "2026-07-29",
    "address": "13580 Denton Highway, Westlake",
    "status": "Proposed \u2014 not yet filed with TDLR"
   }
  },
  {
   "type": "Feature",
   "geometry": {
    "type": "Point",
    "coordinates": [
     -96.894201,
     33.251968
    ]
   },
   "properties": {
    "name": "Project Tomahawk",
    "owner": "White Rose Partners",
    "city": "Prosper",
    "county": "Collin",
    "sqft": null,
    "acres": 39,
    "mw": null,
    "stage": "Zoning \u2014 PD request pulled from the 18 Aug P&Z agenda, not rescheduled",
    "note": "Developer seeks a Planned Development district and a Future Land Use Plan amendment. Investment reported as hundreds of millions; a $500M figure is circulating but is not in the town's filings.",
    "announced": "2026-08",
    "address": "FM 1385 and Parvin Road, Prosper",
    "status": "Proposed \u2014 not yet filed with TDLR"
   }
  },
  {
   "type": "Feature",
   "geometry": {
    "type": "Point",
    "coordinates": [
     -96.829167,
     32.803098
    ]
   },
   "properties": {
    "name": "Crow Holdings / CleanArc Stemmons campus",
    "owner": "Crow Holdings with CleanArc Data Centers",
    "city": "Dallas",
    "county": "Dallas",
    "sqft": null,
    "acres": 40,
    "mw": 245,
    "stage": "Design \u2014 site is zoned MU-3, so no council approval is required",
    "note": "Zoning records place the campus over the Dallas Market Hall site. Market Hall has stopped booking future events. First 70MW building expected late 2027. Neither company has confirmed demolition.",
    "announced": "2026-01-20",
    "address": "2200 N Stemmons Freeway, Dallas",
    "status": "Proposed \u2014 not yet filed with TDLR"
   }
  }
 ]
}