{
"type": "FeatureCollection",
"name": "downtown_dallas_value_density_outline",
"crs": { "type": "name", "properties": { "name": "urn:ogc:def:crs:OGC:1.3:CRS84" } },
"features": [
{ "type": "Feature", "properties": { "kind": "loop" }, "geometry": { "type": "LineString", "coordinates": [ [ -96.811234267586499, 32.780191774839466 ], [ -96.811213364802384, 32.78018679292672 ], [ -96.811183047113047, 32.78017813538623 ], [ -96.811105989823133, 32.78016298434234 ], [ -96.811027554695599, 32.78015422848695 ], [ -96.810948483657839, 32.78015195064274 ], [ -96.810869524651963, 32.780156172356115 ], [ -96.810791424560449, 32.780166853693395 ], [ -96.810714922141756, 32.780183893618506 ], [ -96.810640741042775, 32.780207130948689 ], [ -96.810569582954201, 32.780236345879025 ], [ -96.81050212097351, 32.780271262061376 ], [ -96.810438993238279, 32.780311549218382 ], [ -96.810380796890129, 32.780356826267379 ], [ -96.810328082426352, 32.780406664924826 ], [ -96.810281348492623, 32.780460593757397 ], [ -96.810241037166094, 32.780518102641189 ], [ -96.810207529773436, 32.780578647586758 ], [ -96.810181143283316, 32.780641655884821 ], [ -96.810162127307862, 32.780706531523386 ], [ -96.810150661740849, 32.780772660825427 ], [ -96.810146855055521, 32.78083941825389 ], [ -96.810150743277788, 32.780906172328642 ], [ -96.810162289644865, 32.780972291599845 ], [ -96.810181384952415, 32.781037150621053 ], [ -96.810207848586828, 32.781100135865778 ], [ -96.810241430233148, 32.781160651530897 ], [ -96.810281812242437, 32.781218125172906 ], [ -96.810328612636056, 32.781272013123072 ], [ -96.810381388718639, 32.781321805630306 ], [ -96.810439641265475, 32.781367031683388 ], [ -96.810502819244761, 32.781407263466775 ], [ -96.810570325030127, 32.781442120407561 ], [ -96.810631745803292, 32.781470465576909 ], [ -96.810691207664888, 32.781495303296431 ], [ -96.810752867468693, 32.781515965847454 ], [ -96.810885078677217, 32.781555079886829 ], [ -96.810905413357347, 32.781560743930164 ], [ -96.810926200110799, 32.781567115442172 ], [ -96.810927564257298, 32.781583015348161 ], [ -96.810928120069192, 32.781602240594381 ], [ -96.81092768982117, 32.781617858139484 ], [ -96.810909201262916, 32.781618195729052 ], [ -96.810857217558663, 32.781617050510377 ], [ -96.810796502185852, 32.781617627816111 ], [ -96.810736006915988, 32.781622029100014 ], [ -96.810565467595737, 32.781639874035527 ], [ -96.810496273408276, 32.781649689891012 ], [ -96.810428337863399, 32.781664505977659 ], [ -96.810264189994527, 32.781706761215183 ], [ -96.810159823729549, 32.781740400182933 ], [ -96.810044496614466, 32.781785459796708 ], [ -96.809958021204338, 32.78182476285501 ], [ -96.809779031404986, 32.781918298929597 ], [ -96.809698185408479, 32.781966527665766 ], [ -96.809498460181644, 32.782101777015725 ], [ -96.809436589863736, 32.782148233958949 ], [ -96.809204306057111, 32.782341393224108 ], [ -96.809179923233941, 32.782362559646948 ], [ -96.808833406242854, 32.782676593169263 ], [ -96.808799081248097, 32.782709772173 ], [ -96.808622047070941, 32.782892395593933 ], [ -96.808617124941449, 32.78289737641537 ], [ -96.80841161970767, 32.783101384708438 ], [ -96.808384829719017, 32.783129438043922 ], [ -96.808318337966881, 32.783202928796896 ], [ -96.808272541093601, 32.783259123262241 ], [ -96.808146503078575, 32.783431513344233 ], [ -96.808136432104376, 32.783444017980109 ], [ -96.808125095231006, 32.783455723884423 ], [ -96.806856843341478, 32.784653262386975 ], [ -96.806841692430851, 32.784666118318647 ], [ -96.806822524092809, 32.784674297247363 ], [ -96.806668710901505, 32.784731452721978 ], [ -96.806593812022399, 32.784763270935962 ], [ -96.806523187524448, 32.784801431675 ], [ -96.806457587474043, 32.784845529656685 ], [ -96.806320494664817, 32.784947863598475 ], [ -96.806317132761663, 32.784950345487118 ], [ -96.806145308507126, 32.785075794222912 ], [ -96.806137768931876, 32.785081367729994 ], [ -96.805820581296516, 32.785318771719794 ], [ -96.805813672507497, 32.785323826781216 ], [ -96.805686367273779, 32.785414879456184 ], [ -96.805662142976956, 32.785430834664282 ], [ -96.805604101795922, 32.785472914720934 ], [ -96.805550995714256, 32.785519413346258 ], [ -96.805503294194295, 32.785569919495408 ], [ -96.80546141892458, 32.785623986696585 ], [ -96.805425740091962, 32.785681136997695 ], [ -96.805396573108851, 32.785740865191066 ], [ -96.805374175824682, 32.785802643279595 ], [ -96.805358746246128, 32.785865925143952 ], [ -96.805350420786198, 32.785930151370259 ], [ -96.805349782669566, 32.785938829325843 ], [ -96.805336234385763, 32.785950982935873 ], [ -96.804975056226468, 32.786244413614227 ], [ -96.804960297324072, 32.786255282202106 ], [ -96.804943205888094, 32.786257171413865 ], [ -96.80486121740465, 32.786269872014593 ], [ -96.804781197839816, 32.786289592711718 ], [ -96.804703987271637, 32.786316126469686 ], [ -96.804630396290165, 32.786349194726476 ], [ -96.804561197487956, 32.786388450318078 ], [ -96.804497117349413, 32.786433481122707 ], [ -96.80443882862393, 32.78648381438736 ], [ -96.804384909995136, 32.786535416413173 ], [ -96.804342737845218, 32.786570302376376 ], [ -96.80426094904179, 32.786628757423586 ], [ -96.80421014213745, 32.786668316416112 ], [ -96.803484506321098, 32.787283456750757 ], [ -96.803479306261153, 32.787287786502084 ], [ -96.803437109330588, 32.787322295855624 ], [ -96.803422351471596, 32.787333244020175 ], [ -96.803415636838324, 32.787336539944441 ], [ -96.803351748320864, 32.787371371889463 ], [ -96.803291988972688, 32.787411090326209 ], [ -96.803236880883119, 32.787455348257303 ], [ -96.803186905508198, 32.787503759025711 ], [ -96.803142499464357, 32.787555899692805 ], [ -96.803107633940769, 32.787606150338242 ], [ -96.803105813761093, 32.787608494037215 ], [ -96.803093455495357, 32.787621460853209 ], [ -96.802645687591308, 32.788047149363337 ], [ -96.802639049324455, 32.788053308258135 ], [ -96.802371018430236, 32.788296006899543 ], [ -96.802344260269422, 32.788319946359508 ], [ -96.802286164082446, 32.788378053554112 ], [ -96.802236025775699, 32.788441227805912 ], [ -96.802235594281044, 32.788441842510359 ], [ -96.802196485098762, 32.788504761884752 ], [ -96.80216527789932, 32.788570756490515 ], [ -96.802149674035732, 32.788609452783554 ], [ -96.80214281937215, 32.788624172209161 ], [ -96.80213010137112, 32.788635781755673 ], [ -96.801872150278854, 32.788850329122987 ], [ -96.801854956560376, 32.788863091707654 ], [ -96.801834805082606, 32.788872260908995 ], [ -96.801711433498667, 32.788920989980667 ], [ -96.801646456302208, 32.78894973787871 ], [ -96.801584808642303, 32.788983312373013 ], [ -96.801526991658307, 32.789021440535734 ], [ -96.801110383224298, 32.789322669453924 ], [ -96.801098920578454, 32.789330655703459 ], [ -96.800801471499227, 32.789530295119633 ], [ -96.800744320019788, 32.789572472339209 ], [ -96.800692070124796, 32.789618964371414 ], [ -96.800645176498819, 32.789669366644397 ], [ -96.800604047218471, 32.78972324055875 ], [ -96.80056904020114, 32.789780117304147 ], [ -96.800540460090147, 32.789839501938772 ], [ -96.800518555603404, 32.789900877696105 ], [ -96.800503517368668, 32.789963710481764 ], [ -96.800501047685344, 32.789983288041199 ], [ -96.800497155117085, 32.790004106797539 ], [ -96.800484047005412, 32.790016244884555 ], [ -96.799904622761332, 32.790503053395632 ], [ -96.79962770137935, 32.790732458276672 ], [ -96.799612935873384, 32.790743535413476 ], [ -96.799582114040675, 32.790747032426886 ], [ -96.799504604842113, 32.790759079711258 ], [ -96.799428839325486, 32.790777404993527 ], [ -96.799355528456928, 32.790801836313712 ], [ -96.799285360170231, 32.790832144414196 ], [ -96.799218992911847, 32.790868044890743 ], [ -96.799157049462337, 32.790909200861201 ], [ -96.799100111092599, 32.790955226126563 ], [ -96.799048712109283, 32.791005688794662 ], [ -96.798938131419362, 32.79112553947823 ], [ -96.798904490090592, 32.791157644968308 ], [ -96.797697306713644, 32.792174033662192 ], [ -96.797691140732738, 32.792179172239109 ], [ -96.797676773181109, 32.792190036741552 ], [ -96.797667127727621, 32.792194896703897 ], [ -96.797617046937603, 32.792217480754395 ], [ -96.79755114205139, 32.792254573325955 ], [ -96.797489819100662, 32.792296902405312 ], [ -96.797433659155089, 32.792344066905244 ], [ -96.797383194365025, 32.792395619920029 ], [ -96.797338902919051, 32.792451072959892 ], [ -96.797319031109538, 32.792478771052693 ], [ -96.797304784777381, 32.792489744210641 ], [ -96.797058366379417, 32.792662082116003 ], [ -96.797039000138128, 32.792674814278243 ], [ -96.796747218886878, 32.792854970507335 ], [ -96.796730727392955, 32.792864139812586 ], [ -96.79669238975589, 32.79287035606572 ], [ -96.796614762227449, 32.792886316815441 ], [ -96.79653936237662, 32.792908631530651 ], [ -96.796466917298346, 32.792937085026907 ], [ -96.796398125596028, 32.792971402922213 ], [ -96.796333650645096, 32.793011254282895 ], [ -96.796274114196152, 32.79305625481453 ], [ -96.796220090379379, 32.793105970567645 ], [ -96.796102032443613, 32.793225941573958 ], [ -96.796063777289547, 32.793268020513871 ], [ -96.796029479501698, 32.793312466776371 ], [ -96.796009500936435, 32.79334068097635 ], [ -96.795993646737259, 32.793349115326592 ], [ -96.795850403255727, 32.793417622861114 ], [ -96.795841403424703, 32.793421801271414 ], [ -96.795677784192975, 32.793495509498456 ], [ -96.795504364881808, 32.793571799816526 ], [ -96.795497509520175, 32.793574744180056 ], [ -96.79541949555653, 32.793607462537544 ], [ -96.795411979260265, 32.793610533989117 ], [ -96.795336340738913, 32.793640637605044 ], [ -96.79532481168556, 32.793645042319845 ], [ -96.795253243779882, 32.793671260258286 ], [ -96.795238613468598, 32.793676336751545 ], [ -96.795172241425661, 32.793698102768239 ], [ -96.795151205930523, 32.793704445440277 ], [ -96.795090758086957, 32.79372110597172 ], [ -96.795078902116799, 32.793724205474852 ], [ -96.795015737849823, 32.793739830706997 ], [ -96.794997078940199, 32.793744042859146 ], [ -96.794935827287887, 32.793756561959462 ], [ -96.794920284306698, 32.793759468042786 ], [ -96.794858613701322, 32.793769933783516 ], [ -96.794838830015024, 32.793772863890119 ], [ -96.794783449488577, 32.793779880428048 ], [ -96.79475861034085, 32.793782370495407 ], [ -96.794706934899835, 32.793786194014714 ], [ -96.79468111443893, 32.793787407381714 ], [ -96.79462577521025, 32.7937885191064 ], [ -96.794605347105133, 32.793788496066995 ], [ -96.794542669074147, 32.793787095439697 ], [ -96.794526866461268, 32.79378648239188 ], [ -96.794463116603325, 32.793782958860994 ], [ -96.794433144783213, 32.793780357504048 ], [ -96.794374867722695, 32.793773448366828 ], [ -96.794352507388339, 32.793770258184217 ], [ -96.79429092882414, 32.793759973665033 ], [ -96.794267106129936, 32.793755362657329 ], [ -96.794208740936924, 32.793742495227349 ], [ -96.794183411089591, 32.793736161978813 ], [ -96.794126670539399, 32.793720264844488 ], [ -96.79410329389097, 32.793713037384741 ], [ -96.794048626298846, 32.793694514157707 ], [ -96.794023167400738, 32.7936850212539 ], [ -96.793968028609072, 32.793662527140327 ], [ -96.793948958960002, 32.793654216623473 ], [ -96.793894639667442, 32.793628990174255 ], [ -96.793871501368969, 32.793617386367075 ], [ -96.793800963178739, 32.793579290631868 ], [ -96.793771515646952, 32.793561788364094 ], [ -96.793708178476962, 32.793520484216963 ], [ -96.793683654305852, 32.793503149411208 ], [ -96.793609967799938, 32.793446758094532 ], [ -96.79358414319951, 32.793425142082974 ], [ -96.793519858711889, 32.793366293735758 ], [ -96.793495354835841, 32.793341636823619 ], [ -96.793437464805749, 32.793277505746694 ], [ -96.793417262260235, 32.793252981813545 ], [ -96.793366204827038, 32.79318486296404 ], [ -96.793347326311661, 32.793156847397718 ], [ -96.793305326783212, 32.793087095104354 ], [ -96.793289138330863, 32.793056627250003 ], [ -96.793253400031034, 32.792979532167287 ], [ -96.793243304693121, 32.792955075925505 ], [ -96.793211347382993, 32.792867121853106 ], [ -96.793204377604908, 32.792845433678238 ], [ -96.793167033957019, 32.792712122762723 ], [ -96.793162373337836, 32.792693099421982 ], [ -96.793132619833884, 32.792551600731684 ], [ -96.793130134077657, 32.792538261682196 ], [ -96.792994533167004, 32.791704184409703 ], [ -96.792927858494892, 32.791271434767836 ], [ -96.792915233815222, 32.791210838507553 ], [ -96.792896242824796, 32.791151438937902 ], [ -96.79287103777915, 32.791093712240723 ], [ -96.792839820748256, 32.791038121186297 ], [ -96.792733689037973, 32.790869107583077 ], [ -96.792725296081571, 32.79085399796007 ], [ -96.792722444583148, 32.790837482664749 ], [ -96.792720556719402, 32.790820894930441 ], [ -96.792675159889086, 32.790421631576365 ], [ -96.792675159699542, 32.790421631591769 ], [ -96.792675157578827, 32.790421610185994 ], [ -96.792661482375863, 32.79030136839944 ], [ -96.792661071552061, 32.790297530114536 ], [ -96.792603082037004, 32.789719610047193 ], [ -96.792602179536189, 32.789708465374041 ], [ -96.792561608969692, 32.789050518678742 ], [ -96.792561350043599, 32.789045656907966 ], [ -96.792529671201279, 32.788339457344797 ], [ -96.792529889902923, 32.788322778756815 ], [ -96.792535815236448, 32.788306867778914 ], [ -96.792679373231152, 32.787978460887416 ], [ -96.792703143522928, 32.787914695058717 ], [ -96.792719465923625, 32.787849279970317 ], [ -96.792728185969423, 32.787782834731544 ], [ -96.792773438607881, 32.787164514771518 ], [ -96.792774509861772, 32.787098540847346 ], [ -96.792768085640205, 32.787032784245703 ], [ -96.792754225184197, 32.786967851172463 ], [ -96.792733056288256, 32.786904340240078 ], [ -96.792704774121646, 32.786842836949198 ], [ -96.79266963942861, 32.786783908291085 ], [ -96.792627976124152, 32.786728097520616 ], [ -96.792580168307481, 32.786675919148308 ], [ -96.792526656720781, 32.786627854197427 ], [ -96.79246793468586, 32.786584345769448 ], [ -96.792451759363317, 32.786573476057619 ], [ -96.792449769413267, 32.786556794925019 ], [ -96.792446903243075, 32.786508923551644 ], [ -96.792446419911414, 32.786501621364145 ], [ -96.792438719089461, 32.786395419756104 ], [ -96.792437456390715, 32.786380624651351 ], [ -96.792428104471853, 32.786285391302407 ], [ -96.792426565865583, 32.786271449028369 ], [ -96.792415836088551, 32.786183883317349 ], [ -96.792413302025025, 32.786165598115083 ], [ -96.792398994905128, 32.786073107544702 ], [ -96.792395761430512, 32.786054244352684 ], [ -96.792383644027439, 32.785989863473418 ], [ -96.792381137849134, 32.785977300104754 ], [ -96.792361948951225, 32.785886265492934 ], [ -96.792355819945982, 32.785860134228457 ], [ -96.792324629913793, 32.785739471748727 ], [ -96.792319272164235, 32.785720095083697 ], [ -96.79229944273564, 32.785652795235627 ], [ -96.792292552948069, 32.785630951249487 ], [ -96.792263800963852, 32.785545470823521 ], [ -96.792250261998618, 32.785509090764997 ], [ -96.792214522074914, 32.785421617165767 ], [ -96.79220712376069, 32.785404268122022 ], [ -96.792173152127475, 32.785327836785235 ], [ -96.79216211454613, 32.785304327778334 ], [ -96.792121707295763, 32.785222681163674 ], [ -96.792111459895082, 32.785202857954708 ], [ -96.792063777688796, 32.78511443965516 ], [ -96.792049434550833, 32.78508921703807 ], [ -96.792001756142938, 32.785009570392994 ], [ -96.79198871635964, 32.784988686320624 ], [ -96.791935895145883, 32.784907500955171 ], [ -96.791925889819339, 32.784892567700325 ], [ -96.791870316766492, 32.784811986998676 ], [ -96.791850305475634, 32.784784477571961 ], [ -96.791790856444663, 32.784706900045364 ], [ -96.791776389596507, 32.784688666733167 ], [ -96.791708157396798, 32.784605571038988 ], [ -96.791693700699241, 32.78458852638807 ], [ -96.791630970788688, 32.784516900733443 ], [ -96.791612002666554, 32.784496086791414 ], [ -96.791543869553067, 32.784424208434466 ], [ -96.791525167893198, 32.784405190299374 ], [ -96.791472979989905, 32.784354020684454 ], [ -96.791472965165184, 32.784354031473114 ], [ -96.791471862304462, 32.784352925417075 ], [ -96.791451781103277, 32.784333317143961 ], [ -96.791439053608315, 32.784321181714191 ], [ -96.791410395932473, 32.784294498054791 ], [ -96.791397893263564, 32.784281645436018 ], [ -96.791386328598875, 32.784249649848796 ], [ -96.791385750130246, 32.784249799041788 ], [ -96.791369659701502, 32.78420578813752 ], [ -96.79133633581759, 32.784139913621665 ], [ -96.791295074531575, 32.784077327540622 ], [ -96.791246324260129, 32.784018710038715 ], [ -96.791190614802204, 32.783964698131008 ], [ -96.79109109497216, 32.783877803922536 ], [ -96.790653711112, 32.783495817222772 ], [ -96.790496029425555, 32.783357495226596 ], [ -96.790483497394234, 32.783345416020659 ], [ -96.790471659493733, 32.783331579861859 ], [ -96.790450600604871, 32.783304428450045 ], [ -96.790401767885399, 32.783252996934841 ], [ -96.790347325207762, 32.783205755236416 ], [ -96.790287773718205, 32.783163138208472 ], [ -96.790267911171668, 32.783151489355923 ], [ -96.790247073197818, 32.783137915574244 ], [ -96.790232605496684, 32.783126418046784 ], [ -96.790193073796942, 32.783091765597497 ], [ -96.790182937802385, 32.783083037397638 ], [ -96.789994196944733, 32.782923376829736 ], [ -96.78999263229656, 32.782921881495803 ], [ -96.789975782092768, 32.782907277045219 ], [ -96.789968040482606, 32.782884791581886 ], [ -96.789941337300078, 32.782819623077096 ], [ -96.789907036343891, 32.782757043575685 ], [ -96.789865483072788, 32.782697683312513 ], [ -96.789817095980752, 32.782642140100407 ], [ -96.789762362382021, 32.782590973309937 ], [ -96.789701833502974, 32.782544698236194 ], [ -96.789636118930758, 32.782503780909508 ], [ -96.789565880474129, 32.782468633402523 ], [ -96.789491825498544, 32.782439609680331 ], [ -96.789414699802677, 32.782417002036027 ], [ -96.789335280107892, 32.782401038147249 ], [ -96.789334888887126, 32.782400976845437 ], [ -96.789328242628656, 32.782396570708691 ], [ -96.789259045445419, 32.782355422727505 ], [ -96.789185162436041, 32.78232056971688 ], [ -96.789107393088017, 32.78229238881876 ], [ -96.789026578940025, 32.782271184976217 ], [ -96.788943594476109, 32.782257187634016 ], [ -96.788902939124853, 32.782253984027982 ], [ -96.788879959675555, 32.782251278110444 ], [ -96.788862087408177, 32.782244334300515 ], [ -96.788755154941285, 32.782197324912843 ], [ -96.788700167109695, 32.782175318268877 ], [ -96.788449552541906, 32.782084551938453 ], [ -96.788394790153191, 32.782066665697549 ], [ -96.788083114668467, 32.781975645435722 ], [ -96.788036563370682, 32.781963357459261 ], [ -96.787791691404024, 32.781905465277596 ], [ -96.787786064797785, 32.781904098075415 ], [ -96.78732151511646, 32.781788152186706 ], [ -96.78729943301434, 32.781782056208776 ], [ -96.786953686834934, 32.781677284663942 ], [ -96.786930240021661, 32.781669478651509 ], [ -96.786617836369743, 32.781555901884651 ], [ -96.786594069009226, 32.781546481620239 ], [ -96.786275508966327, 32.781409450568084 ], [ -96.786267062431577, 32.781405711232992 ], [ -96.78588036074477, 32.781229603117602 ], [ -96.785858834030947, 32.781220146825767 ], [ -96.785290658334063, 32.7809795801356 ], [ -96.785276379699027, 32.780973232033062 ], [ -96.78488333599428, 32.780789987509252 ], [ -96.784864840051625, 32.780780818702247 ], [ -96.784582233495073, 32.780632125936812 ], [ -96.784559096530344, 32.780619001944984 ], [ -96.784360710893552, 32.780497937247354 ], [ -96.784338236358124, 32.780483183994676 ], [ -96.784214569289048, 32.780395971395592 ], [ -96.784199747323214, 32.780384411363407 ], [ -96.784187932873792, 32.780370598267908 ], [ -96.784038280068856, 32.780175854290576 ], [ -96.784014540952285, 32.780146640242648 ], [ -96.7838893035307, 32.780000729785904 ], [ -96.783880036435377, 32.779988937494799 ], [ -96.783871952514914, 32.779976539581611 ], [ -96.783750429982177, 32.779770466119139 ], [ -96.783734956171969, 32.779740792992506 ], [ -96.783691101966255, 32.779644627903899 ], [ -96.783679011963429, 32.779613859591464 ], [ -96.783649746445036, 32.779525655237983 ], [ -96.783642657620433, 32.779500751205426 ], [ -96.783614287906659, 32.779381719571042 ], [ -96.783608955309063, 32.779353193693545 ], [ -96.78359359629755, 32.779240441431526 ], [ -96.783591137401274, 32.779212122616258 ], [ -96.783587638417245, 32.779119404950727 ], [ -96.783588851322818, 32.779079799380213 ], [ -96.783599451120892, 32.778972937799452 ], [ -96.783604810313562, 32.778939161119638 ], [ -96.783630254760652, 32.778822942634726 ], [ -96.783639512433226, 32.778789892840273 ], [ -96.783672059424532, 32.778694931627818 ], [ -96.783688615968558, 32.778655707379542 ], [ -96.783745727577752, 32.778542609403345 ], [ -96.783752289874698, 32.778530290904044 ], [ -96.783822131820841, 32.778405786207955 ], [ -96.783829793116297, 32.778393450318312 ], [ -96.783838614683233, 32.778381680613528 ], [ -96.784010986003466, 32.778171144045068 ], [ -96.784369642658149, 32.777735279103887 ], [ -96.784403806555815, 32.777699207965519 ], [ -96.7849270729983, 32.777217182929718 ], [ -96.784946546478224, 32.777200431336318 ], [ -96.785224966822739, 32.776976757826759 ], [ -96.785238437991467, 32.776966410642913 ], [ -96.785648085035135, 32.776665631764416 ], [ -96.785668600896713, 32.776651530899237 ], [ -96.78610011662505, 32.776374147524429 ], [ -96.786127377961961, 32.776358066837162 ], [ -96.786685571802877, 32.776056712747682 ], [ -96.78671387510208, 32.776042756680411 ], [ -96.787053744859634, 32.775890339874579 ], [ -96.787082515932042, 32.775878636675223 ], [ -96.787506612608752, 32.775723149454159 ], [ -96.78752092782338, 32.775718436459869 ], [ -96.787535623975927, 32.775714651630857 ], [ -96.787885749852052, 32.775636583000207 ], [ -96.787913357759791, 32.775631288293603 ], [ -96.788269658384991, 32.775573895081337 ], [ -96.788280503918017, 32.775572276308267 ], [ -96.788493133723222, 32.77554304200806 ], [ -96.788512505235474, 32.775541193051836 ], [ -96.788522385623381, 32.775546556218345 ], [ -96.788567595304656, 32.775573808643834 ], [ -96.788636686993755, 32.775607363497862 ], [ -96.788709333915364, 32.775635045466629 ], [ -96.788784838719508, 32.775656588825171 ], [ -96.788862476621077, 32.775671786774176 ], [ -96.788941502357488, 32.775680493425128 ], [ -96.7890211573431, 32.775682625200993 ], [ -96.789100676951591, 32.775678161638318 ], [ -96.789179297856208, 32.775667145583888 ], [ -96.789256265357665, 32.775649682783254 ], [ -96.790358856754764, 32.775349880543601 ], [ -96.791277556788998, 32.775100206715862 ], [ -96.791290669936942, 32.775096538829935 ], [ -96.791728267482043, 32.774970644215088 ], [ -96.791773720478659, 32.77495627545693 ], [ -96.792251050940223, 32.774791503645979 ], [ -96.792282152103851, 32.774781995484126 ], [ -96.792402243299449, 32.774749884962809 ], [ -96.792413210840905, 32.774746879995355 ], [ -96.795274909528885, 32.77394378978483 ], [ -96.79528786175014, 32.773940356457288 ], [ -96.79634152712444, 32.773677285927661 ], [ -96.796345453516054, 32.773676323700442 ], [ -96.797557322759474, 32.773384898962981 ], [ -96.79759292025787, 32.773375588650268 ], [ -96.797593382787468, 32.773375457796995 ], [ -96.797612538715711, 32.773370919521739 ], [ -96.797628173259696, 32.773375345758069 ], [ -96.79767354825637, 32.773390320844385 ], [ -96.797752475692832, 32.773408893424914 ], [ -96.797833214327596, 32.773420663792315 ], [ -96.797914944971879, 32.77342551252238 ], [ -96.797996838371077, 32.773423390418863 ], [ -96.798078063619158, 32.773414319013106 ], [ -96.798157796589706, 32.773398390345271 ], [ -96.798235228298296, 32.773375766030519 ], [ -96.798309573111084, 32.773346675619152 ], [ -96.798380076716384, 32.77331141426739 ], [ -96.798597493956251, 32.773189782142531 ], [ -96.798650405167052, 32.773157529815414 ], [ -96.798857613977106, 32.773020220884064 ], [ -96.798917761543464, 32.772976182184856 ], [ -96.79897252644335, 32.772927387975237 ], [ -96.799141907922348, 32.772760860138675 ], [ -96.799157228302818, 32.772747365061797 ], [ -96.799174199784972, 32.772735362456046 ], [ -96.799563208314908, 32.772489485202563 ], [ -96.799623776521997, 32.77244719785989 ], [ -96.800006203701258, 32.77215280621683 ], [ -96.800027711089143, 32.772135634534031 ], [ -96.801136681154858, 32.771217375039804 ], [ -96.801151079455153, 32.771206537383499 ], [ -96.801166631226977, 32.771196904279826 ], [ -96.801511907975467, 32.771003662698575 ], [ -96.801562501031952, 32.770972928039036 ], [ -96.801610160579543, 32.77093901132428 ], [ -96.801893592378164, 32.770721091381517 ], [ -96.801914647037819, 32.770704315004721 ], [ -96.802500862505568, 32.770220278210502 ], [ -96.802515015985932, 32.770209637167476 ], [ -96.802530283148073, 32.770200158527985 ], [ -96.802594882764026, 32.77016385176286 ], [ -96.802646360489661, 32.770139286280802 ], [ -96.802724501273588, 32.770108100261638 ], [ -96.802740187984469, 32.770102507204719 ], [ -96.802756703151957, 32.770099223074681 ], [ -96.802876987862746, 32.770079732491347 ], [ -96.802922020494307, 32.770074620753867 ], [ -96.803351901875502, 32.770046372159371 ], [ -96.803439989318619, 32.770036469923554 ], [ -96.803526272407609, 32.770018508096875 ], [ -96.803694210024943, 32.769975201813303 ], [ -96.803781766725251, 32.769947893223453 ], [ -96.803981370759871, 32.76987438640225 ], [ -96.80400217845586, 32.76986784824232 ], [ -96.804024173353866, 32.769865303388613 ], [ -96.804264914532126, 32.769848769597559 ], [ -96.804323713149842, 32.769848339280784 ], [ -96.804776053147677, 32.769872749253274 ], [ -96.804794534731471, 32.769874104794155 ], [ -96.805101979639403, 32.769902637133853 ], [ -96.805153173779189, 32.769906010453774 ], [ -96.805397380909156, 32.769915562174745 ], [ -96.805463517684871, 32.769915874712787 ], [ -96.805529465869142, 32.769911646477041 ], [ -96.80555026812759, 32.76990959126892 ], [ -96.805567983088821, 32.769913351898332 ], [ -96.805605767953793, 32.769922883187604 ], [ -96.805679817312381, 32.769935387409674 ], [ -96.805754920150804, 32.769942035745686 ], [ -96.805830429115076, 32.769942770889813 ], [ -96.805905693350368, 32.769937586505442 ], [ -96.805948558802555, 32.769931212249283 ], [ -96.805963642231589, 32.769929616618306 ], [ -96.805981725294458, 32.769935296250225 ], [ -96.80602989568392, 32.769952693851728 ], [ -96.806053686460444, 32.769962064866419 ], [ -96.807168495985252, 32.770438770395032 ], [ -96.807186823711106, 32.770447112036905 ], [ -96.807630089094403, 32.770661403442482 ], [ -96.807637154119945, 32.770664899148208 ], [ -96.807806113564695, 32.770750439732211 ], [ -96.808025036445471, 32.77086188191987 ], [ -96.808596570803815, 32.771156672418115 ], [ -96.808620610383372, 32.771170082717937 ], [ -96.809086441566166, 32.771450461615402 ], [ -96.80910546264262, 32.771462636537372 ], [ -96.80929731426005, 32.771593095763869 ], [ -96.809319439312063, 32.771609283317943 ], [ -96.809510111843593, 32.771759266817568 ], [ -96.809534538610563, 32.771780199729513 ], [ -96.809732268400623, 32.771964824287075 ], [ -96.809765186175795, 32.771999912726088 ], [ -96.809840103343504, 32.772091456440592 ], [ -96.809851623865285, 32.772107116543076 ], [ -96.809855644998009, 32.772114186296349 ], [ -96.809858077249118, 32.772120198280923 ], [ -96.809859311881937, 32.772125016737569 ], [ -96.809861597624291, 32.772144367922365 ], [ -96.809899238162274, 32.772890367116752 ], [ -96.809916004954516, 32.773231263131244 ], [ -96.809922840229959, 32.773296061947974 ], [ -96.80993689801366, 32.773360024317611 ], [ -96.809958052329151, 32.773422576981943 ], [ -96.809986113596764, 32.773483159316029 ], [ -96.810020830332149, 32.773541228352755 ], [ -96.810061891399826, 32.773596263649303 ], [ -96.81010892880137, 32.773647771951829 ], [ -96.810141869524045, 32.773677535555152 ], [ -96.810150302382283, 32.773686032793869 ], [ -96.810154153431384, 32.773702901171525 ], [ -96.810197709688822, 32.773964372235028 ], [ -96.810202572364261, 32.773990036159091 ], [ -96.810363768733112, 32.77474857476691 ], [ -96.810365268585187, 32.774756113835338 ], [ -96.810427118556419, 32.775089665812672 ], [ -96.810428950494568, 32.775100716012744 ], [ -96.810452113023672, 32.775259117245646 ], [ -96.810453356406825, 32.775268730366882 ], [ -96.810473571877282, 32.775448408335414 ], [ -96.810474464872129, 32.775462378069612 ], [ -96.810474006602703, 32.775476362801257 ], [ -96.81046436070055, 32.775595155819978 ], [ -96.810463932558164, 32.775600764377053 ], [ -96.810455289322931, 32.77572168595934 ], [ -96.810453625489302, 32.775735557490385 ], [ -96.810450632899531, 32.775749268930653 ], [ -96.810406344064802, 32.775914253141842 ], [ -96.810396584572658, 32.775944241327174 ], [ -96.810358957494302, 32.776042257889983 ], [ -96.810349490080526, 32.776064321160533 ], [ -96.810242895650617, 32.776288515056066 ], [ -96.810232164625802, 32.776312354838417 ], [ -96.810097935140575, 32.776628069418663 ], [ -96.810071573640727, 32.776688663992687 ], [ -96.810047365295929, 32.776754269751258 ], [ -96.810031034280357, 32.776821590044271 ], [ -96.810022743926581, 32.776889951650801 ], [ -96.810022577159174, 32.776958670934839 ], [ -96.810030535664666, 32.777027060681981 ], [ -96.810046539873966, 32.777094436971758 ], [ -96.810055755259242, 32.7771197761558 ], [ -96.810062156696759, 32.777140844064022 ], [ -96.810066301784218, 32.777163339658337 ], [ -96.810069438317811, 32.77718785797034 ], [ -96.810086240152273, 32.777255174872636 ], [ -96.810110925444647, 32.777320735172175 ], [ -96.810143246791597, 32.777383881758787 ], [ -96.810182880251801, 32.777443981713503 ], [ -96.810229428592194, 32.777500432652559 ], [ -96.810282425269051, 32.777552668765324 ], [ -96.8103413391038, 32.777600166485577 ], [ -96.810405579606922, 32.777642449739581 ], [ -96.810474502896412, 32.777679094718003 ], [ -96.810547418151458, 32.777709734124031 ], [ -96.810623594536978, 32.777734060855003 ], [ -96.810702268528985, 32.777751831080842 ], [ -96.810782651568019, 32.77776286668805 ], [ -96.810863937963418, 32.777767057065091 ], [ -96.810900454525779, 32.777765846874132 ], [ -96.810922576824922, 32.777766009489632 ], [ -96.810926190134424, 32.777781860662458 ], [ -96.810979070132916, 32.778096024003794 ], [ -96.810980891771081, 32.778112621868893 ], [ -96.810979149364982, 32.778126899602967 ], [ -96.8109748651611, 32.778195096842474 ], [ -96.810978615056811, 32.778263316538485 ], [ -96.810990362034104, 32.778330884908165 ], [ -96.811009990089858, 32.778397134600191 ], [ -96.811037305380935, 32.778461411285868 ], [ -96.811040750674508, 32.778468404564613 ], [ -96.811044653834102, 32.778485300613575 ], [ -96.811113717843284, 32.778892483403475 ], [ -96.811116014145426, 32.77890517598258 ], [ -96.811192388225592, 32.779302436335875 ], [ -96.811197114523907, 32.779339947602146 ], [ -96.811225345576943, 32.779806480214155 ], [ -96.811235340966803, 32.779997468925394 ], [ -96.8112357343947, 32.780013434425264 ], [ -96.811235259543835, 32.780175764230748 ], [ -96.811234267586499, 32.780191774839466 ] ] } },
{ "type": "Feature", "properties": { "kind": "mile" }, "geometry": { "type": "LineString", "coordinates": [ [ -96.828391345497863, 32.780949152504476 ], [ -96.828217200288293, 32.782387134870127 ], [ -96.827984077403372, 32.783350744612818 ], [ -96.827981753701636, 32.783377848380105 ], [ -96.82769477608835, 32.784784353928728 ], [ -96.827245629717041, 32.786160246508615 ], [ -96.826638651346769, 32.787492218394824 ], [ -96.825879705033046, 32.78876738608281 ], [ -96.824976125646259, 32.789973414969005 ], [ -96.82393664812146, 32.791098638740266 ], [ -96.822771323116385, 32.79213217231348 ], [ -96.821491419888488, 32.793064017228488 ], [ -96.820174482279839, 32.793846443051422 ], [ -96.819663226380968, 32.794329253029744 ], [ -96.819034546495899, 32.794892006829123 ], [ -96.819019395601472, 32.794904864233658 ], [ -96.818287544215764, 32.795463007188786 ], [ -96.817859898137385, 32.795887682655945 ], [ -96.817846350048129, 32.795899837618926 ], [ -96.817247945686859, 32.796410746397804 ], [ -96.816886764345071, 32.796704211418287 ], [ -96.816267099444943, 32.797183610181854 ], [ -96.816252340106217, 32.797194480100046 ], [ -96.815600818661622, 32.797632959907553 ], [ -96.81475550047999, 32.79848054244696 ], [ -96.814742782716564, 32.798492153273791 ], [ -96.814186921125582, 32.798976544410621 ], [ -96.813928969125953, 32.799191116601094 ], [ -96.813255206839116, 32.799720632276312 ], [ -96.813192983152717, 32.799784202004204 ], [ -96.813179875333091, 32.799796341419409 ], [ -96.812602698294526, 32.80030547015604 ], [ -96.812023273351201, 32.800792334708952 ], [ -96.811937286023777, 32.800864078845962 ], [ -96.811660363416863, 32.801093510320428 ], [ -96.811039371353473, 32.801583153275693 ], [ -96.811024605466542, 32.801594231757306 ], [ -96.810092139105635, 32.802230962653084 ], [ -96.809829214122843, 32.802452354793203 ], [ -96.809766873914313, 32.802504579672622 ], [ -96.809760707914535, 32.802509718843453 ], [ -96.809284314368711, 32.802891871579071 ], [ -96.80906167417001, 32.803063750321066 ], [ -96.808898474134139, 32.803202088829558 ], [ -96.808884227512351, 32.803213063303993 ], [ -96.808264708692676, 32.803667877410213 ], [ -96.808018280538661, 32.803840236868396 ], [ -96.807613959075979, 32.804114450166743 ], [ -96.80759459184975, 32.804127183960325 ], [ -96.807180655395484, 32.804390968561954 ], [ -96.806888856207536, 32.804571148405998 ], [ -96.806804167571414, 32.804620796015712 ], [ -96.806610642062253, 32.804763050276925 ], [ -96.805168405145551, 32.805620727547989 ], [ -96.805152549622704, 32.805629163056999 ], [ -96.804461375781841, 32.805978051010754 ], [ -96.804318118449075, 32.806046568224779 ], [ -96.804128675325174, 32.806135845822745 ], [ -96.804119674593906, 32.806140024827556 ], [ -96.803928911680046, 32.806227275426295 ], [ -96.803765275551541, 32.80630099421321 ], [ -96.803616450111988, 32.806367252206357 ], [ -96.803443012467383, 32.806443553510775 ], [ -96.803293995399827, 32.806508332834149 ], [ -96.803287139297112, 32.806511277623819 ], [ -96.803140451584255, 32.806573538896274 ], [ -96.803062429009046, 32.80660626201189 ], [ -96.802904057120372, 32.806671830417962 ], [ -96.80289653997643, 32.806674902318463 ], [ -96.802737379353985, 32.806739094402417 ], [ -96.802661732125472, 32.80676920243998 ], [ -96.802419052099467, 32.806863849212377 ], [ -96.802407521679413, 32.806868254578788 ], [ -96.80216312730083, 32.806959701739331 ], [ -96.802091550675399, 32.806985923583206 ], [ -96.801783725426631, 32.807095703267947 ], [ -96.801769093275269, 32.807100780523626 ], [ -96.801458798034744, 32.807205484388341 ], [ -96.801392417396485, 32.807227253699537 ], [ -96.800950183871763, 32.807366411140848 ], [ -96.800929145548892, 32.807372754782811 ], [ -96.800482552761906, 32.807501603298164 ], [ -96.800422096518915, 32.807518266401289 ], [ -96.800172240098647, 32.807585355501217 ], [ -96.800160382453242, 32.807588455485131 ], [ -96.79990934280201, 32.807652317320411 ], [ -96.799846169469461, 32.807667944987351 ], [ -96.799453231413764, 32.807760885158537 ], [ -96.799434569765936, 32.807765097971462 ], [ -96.79903912871842, 32.807850132096867 ], [ -96.798977867897506, 32.807862653172883 ], [ -96.798650230434205, 32.807926759036086 ], [ -96.798634685092139, 32.807929665580119 ], [ -96.798305624443742, 32.807988343889214 ], [ -96.798243944346751, 32.80799881129596 ], [ -96.797826889337585, 32.808065073448113 ], [ -96.797807102561549, 32.80806800402334 ], [ -96.797388236742805, 32.808125548238316 ], [ -96.797332847458506, 32.80813256590293 ], [ -96.796808995003914, 32.808191994388181 ], [ -96.796784151877944, 32.808194484857061 ], [ -96.796258382502231, 32.808240278656974 ], [ -96.796206698704466, 32.808244102794717 ], [ -96.795661626762751, 32.808277066730156 ], [ -96.795635802097465, 32.808278280293869 ], [ -96.795089764398057, 32.808296590248666 ], [ -96.795034416124039, 32.808297702153816 ], [ -96.794602828683381, 32.808301793232914 ], [ -96.794582397236425, 32.808301770189729 ], [ -96.794150824276329, 32.808296705613621 ], [ -96.794088136002557, 32.808295304759007 ], [ -96.793754149667436, 32.808285095664743 ], [ -96.793738344477561, 32.808284482517479 ], [ -96.793404656491191, 32.808268789823224 ], [ -96.793340896271189, 32.80826526572146 ], [ -96.79270636565208, 32.808220209083849 ], [ -96.792676389006076, 32.808217607306702 ], [ -96.792044271360766, 32.8081527271463 ], [ -96.791985985045287, 32.80814581689814 ], [ -96.791512455883179, 32.808083979413276 ], [ -96.791490092044938, 32.808080788719913 ], [ -96.791018789087175, 32.808007825123255 ], [ -96.790957201027183, 32.8079975389659 ], [ -96.790452142010849, 32.807906505334365 ], [ -96.790428315717492, 32.807901893596949 ], [ -96.789926724870909, 32.807798083457328 ], [ -96.789868351069103, 32.807785214005776 ], [ -96.789330592346772, 32.80765874208582 ], [ -96.78930525887445, 32.807652407851243 ], [ -96.788772649404606, 32.807511251114853 ], [ -96.788715901014015, 32.807495351530576 ], [ -96.788219236361414, 32.807349033519777 ], [ -96.788195856603181, 32.807341804958035 ], [ -96.787704728926983, 32.807182716997488 ], [ -96.787650054370957, 32.807164190979059 ], [ -96.787108074412899, 32.80697138741214 ], [ -96.787082612447506, 32.806961893098254 ], [ -96.786548764007762, 32.806753539402834 ], [ -96.786493618989212, 32.806731042000443 ], [ -96.786088011464798, 32.806559956914782 ], [ -96.786068939781686, 32.80655164519878 ], [ -96.785668819218529, 32.806371582307307 ], [ -96.785614494494155, 32.806346352268861 ], [ -96.785120830183587, 32.806108010753483 ], [ -96.785097689778183, 32.806096405326286 ], [ -96.784613635727894, 32.805844399384277 ], [ -96.784543091791889, 32.805806298437822 ], [ -96.783911108492163, 32.805448062369003 ], [ -96.783881658972092, 32.805430557777164 ], [ -96.783269083984933, 32.805049037023899 ], [ -96.783205743503999, 32.805007727568452 ], [ -96.782679040129935, 32.804650037313571 ], [ -96.782654515037478, 32.804632700349359 ], [ -96.782144877642153, 32.804257793913251 ], [ -96.782071189538584, 32.804201395811432 ], [ -96.781513398901325, 32.803754893383704 ], [ -96.781487574247819, 32.803733274879271 ], [ -96.780953985556778, 32.803266154744186 ], [ -96.780889702316657, 32.80320729991773 ], [ -96.780357447089955, 32.802696460241037 ], [ -96.780332944295225, 32.802671800755093 ], [ -96.779829632014469, 32.802140450819742 ], [ -96.77977174612171, 32.80207631342968 ], [ -96.77933155435025, 32.801565919196129 ], [ -96.77931135381661, 32.801541392988838 ], [ -96.77889787079512, 32.801015309603528 ], [ -96.778846820042872, 32.800947184838265 ], [ -96.778431489764841, 32.800363032805102 ], [ -96.778412614438082, 32.800335014988882 ], [ -96.778030210936777, 32.799735041711784 ], [ -96.777988220336553, 32.799665284284856 ], [ -96.777627658653273, 32.799028407059602 ], [ -96.777611474500659, 32.798997937180012 ], [ -96.777288012532523, 32.798347004630791 ], [ -96.777252286005606, 32.798269904984878 ], [ -96.777027540454569, 32.797756573904437 ], [ -96.777017449045644, 32.79773211635559 ], [ -96.776815781710553, 32.797211993068565 ], [ -96.776783839151804, 32.79712403480719 ], [ -96.776627801073957, 32.796667872014297 ], [ -96.776620835050963, 32.796646182917179 ], [ -96.776482549452808, 32.796185952990356 ], [ -96.776445229523105, 32.796052637092437 ], [ -96.776340121977015, 32.795651945580062 ], [ -96.776335464811112, 32.795632921613638 ], [ -96.776243814268184, 32.795229880087106 ], [ -96.776214086894115, 32.795088377380758 ], [ -96.776158356860563, 32.794807057705533 ], [ -96.776155873592941, 32.794793718319418 ], [ -96.776107038682213, 32.794513470067471 ], [ -96.776046041653075, 32.794341824646899 ], [ -96.77575447437944, 32.793085952465781 ], [ -96.775497957455514, 32.792950979513009 ], [ -96.775003496114493, 32.792680759799225 ], [ -96.774980357424923, 32.792667634037933 ], [ -96.774497153349998, 32.792383258714565 ], [ -96.774298755140322, 32.792262178079525 ], [ -96.773817460977668, 32.791957475621572 ], [ -96.773794985292824, 32.791942720477017 ], [ -96.773326615547361, 32.791623974632174 ], [ -96.773202943775047, 32.791536751160507 ], [ -96.772558801149813, 32.791058910059341 ], [ -96.772543978921433, 32.791047348647844 ], [ -96.771344303385405, 32.790013284666045 ], [ -96.770272597791333, 32.788883396987501 ], [ -96.770260784378408, 32.788869582578286 ], [ -96.76992170912483, 32.788451479517903 ], [ -96.769574585219118, 32.788026966942347 ], [ -96.769565319187976, 32.788015173592122 ], [ -96.768830326371287, 32.786990235437507 ], [ -96.76882224391575, 32.786977836552964 ], [ -96.768492944305635, 32.786447019864106 ], [ -96.768371448627022, 32.786240931480464 ], [ -96.768027012406122, 32.78562036669225 ], [ -96.768011542833662, 32.785590691623135 ], [ -96.767702179388408, 32.784957081946921 ], [ -96.767658339979576, 32.784860911244841 ], [ -96.767384783485497, 32.784215783198356 ], [ -96.767372698513782, 32.784185013312019 ], [ -96.767135500735677, 32.783529696237075 ], [ -96.767106250369579, 32.783441488018475 ], [ -96.766944957820144, 32.782917669991399 ], [ -96.766937873412573, 32.782892765013528 ], [ -96.766799816335464, 32.782364230779784 ], [ -96.766771468298032, 32.782245195331129 ], [ -96.766643898972148, 32.781644446818554 ], [ -96.766638571693619, 32.781615920218762 ], [ -96.76654101699414, 32.781011171966149 ], [ -96.766525679381147, 32.78089841761215 ], [ -96.766459193127943, 32.780300966846241 ], [ -96.766456739669948, 32.780272647694879 ], [ -96.766419547325853, 32.779673385828794 ], [ -96.766416066263787, 32.779580667684691 ], [ -96.766413251094235, 32.778742874253119 ], [ -96.766414471659161, 32.77870326884949 ], [ -96.766468885961743, 32.77786673401453 ], [ -96.766479506229032, 32.777759873884406 ], [ -96.766571920766324, 32.777043707756178 ], [ -96.766577286322928, 32.777009931805594 ], [ -96.766711652335673, 32.776298521846194 ], [ -96.766737118147205, 32.776182306795633 ], [ -96.766912431293832, 32.77547980199494 ], [ -96.766921694843134, 32.775446753436974 ], [ -96.76713791338436, 32.774752432016264 ], [ -96.767170476550959, 32.774657475094429 ], [ -96.767490816114716, 32.773819361456631 ], [ -96.767507378900405, 32.773780139348553 ], [ -96.767887296180092, 32.772959982906499 ], [ -96.767944424259227, 32.772846892139221 ], [ -96.768080042932553, 32.772585566214353 ], [ -96.768086606963294, 32.772573248536226 ], [ -96.768228279733748, 32.772314225439409 ], [ -96.76829813856493, 32.772189729404367 ], [ -96.768609929168122, 32.771662053859856 ], [ -96.768617591995721, 32.771649718901159 ], [ -96.769315959734513, 32.77062863068663 ], [ -96.769324782454277, 32.770616862004616 ], [ -96.76971020579137, 32.770125135052233 ], [ -96.769882594589049, 32.769914617937225 ], [ -96.769905748195171, 32.769886414543187 ], [ -96.770264440637078, 32.769450590013271 ], [ -96.770956492051027, 32.768667357484063 ], [ -96.770990657909195, 32.768631290006198 ], [ -96.77174348347026, 32.767889219913606 ], [ -96.772266760830433, 32.767407247797259 ], [ -96.772671005327808, 32.767047450307736 ], [ -96.772690478889501, 32.767030700620865 ], [ -96.773109038043472, 32.76668278450844 ], [ -96.773387455225006, 32.766459137326677 ], [ -96.773669101333041, 32.76623791287188 ], [ -96.773682572218974, 32.766227566931562 ], [ -96.773970007648487, 32.766011724084123 ], [ -96.774379642316603, 32.76571098208052 ], [ -96.774807300789661, 32.76540717524297 ], [ -96.77482781577109, 32.765393076154446 ], [ -96.775266939457879, 32.765101179848038 ], [ -96.775698431537322, 32.764823832329242 ], [ -96.776266170291052, 32.764474158675917 ], [ -96.776293429754588, 32.764458080130254 ], [ -96.776877612768288, 32.764128311661807 ], [ -96.777435761101927, 32.763826998818516 ], [ -96.778026681337948, 32.76352198410131 ], [ -96.778054982001592, 32.763508029991868 ], [ -96.778659967965439, 32.763223383389366 ], [ -96.778999802466501, 32.763070988450629 ], [ -96.779601867279084, 32.762813671145985 ], [ -96.77963063509533, 32.762801969659371 ], [ -96.780244192018358, 32.762564825315366 ], [ -96.78066823706159, 32.762409361262378 ], [ -96.781269453260876, 32.762200271808211 ], [ -96.781283766625762, 32.762195559527221 ], [ -96.782512119813802, 32.761835764513101 ], [ -96.782526813881418, 32.761831980272106 ], [ -96.783152191806224, 32.761681789929149 ], [ -96.783502266185224, 32.761603733559241 ], [ -96.784083129842855, 32.761483314727997 ], [ -96.784110733575361, 32.761478020860068 ], [ -96.784696205314262, 32.761374758870069 ], [ -96.785052450793543, 32.761317374815128 ], [ -96.78528120939643, 32.76128188023953 ], [ -96.785292053237711, 32.761280261725418 ], [ -96.785521359500009, 32.761247387128549 ], [ -96.785733955899389, 32.76121815751516 ], [ -96.786428447922134, 32.761137320681414 ], [ -96.78643723474795, 32.761134634447629 ], [ -96.786877163272408, 32.76100581238471 ], [ -96.789869507265209, 32.760167735920753 ], [ -96.790120413763603, 32.760099348638811 ], [ -96.790474808370575, 32.759857141616493 ], [ -96.790502733583565, 32.759834114168576 ], [ -96.791082281830924, 32.759377776137818 ], [ -96.791096434951243, 32.759367136386111 ], [ -96.79234387452027, 32.758514129134618 ], [ -96.792359140756886, 32.758504651735926 ], [ -96.793016852570048, 32.758115996463928 ], [ -96.793081447282717, 32.758079694609435 ], [ -96.794147602646333, 32.757526742355154 ], [ -96.794199075381059, 32.757502180347686 ], [ -96.79531001985832, 32.757016253488644 ], [ -96.795388151667552, 32.756985072050128 ], [ -96.796046260888232, 32.756736561041414 ], [ -96.796061945656902, 32.756730968821572 ], [ -96.797414683151828, 32.756304317893658 ], [ -96.798805038727224, 32.755975165114599 ], [ -96.798821551411962, 32.755971881503854 ], [ -96.799521506151208, 32.75584563558197 ], [ -96.799641772258369, 32.755826148108063 ], [ -96.799736209127431, 32.755813147931484 ], [ -96.799818044387507, 32.755791678817509 ], [ -96.801671755853249, 32.755488708505268 ], [ -96.801693747255285, 32.755486164061153 ], [ -96.802632573906607, 32.755399679991591 ], [ -96.802873276113814, 32.755383148877513 ], [ -96.804116143294522, 32.755335983252564 ], [ -96.804174932300143, 32.755335553005722 ], [ -96.80541857969564, 32.755364521094315 ], [ -96.805870846190274, 32.7553889271096 ], [ -96.806261551275043, 32.755413793703909 ], [ -96.806280029871218, 32.755415149025424 ], [ -96.806388082833593, 32.755424124542323 ], [ -96.806651610592795, 32.755426123620168 ], [ -96.807049836552011, 32.755447741095608 ], [ -96.807049799576717, 32.755448227456583 ], [ -96.807124391132902, 32.755449461272271 ], [ -96.808763288584117, 32.755610356853161 ], [ -96.810376363774935, 32.755903367534124 ], [ -96.811948738264562, 32.756325790738828 ], [ -96.81196681893914, 32.756331469505966 ], [ -96.812733192830734, 32.756590038833465 ], [ -96.812781357301503, 32.756607433836287 ], [ -96.813287671946057, 32.75679851769943 ], [ -96.813311459963259, 32.756807887334439 ], [ -96.813810213198138, 32.7570126800697 ], [ -96.814924901746636, 32.757489316505612 ], [ -96.815314675552386, 32.757661309005044 ], [ -96.815333001405563, 32.75766964945398 ], [ -96.81571743854451, 32.757850015279601 ], [ -96.816160661615498, 32.758064276471409 ], [ -96.816310304500206, 32.758137462836224 ], [ -96.81631736887077, 32.758140958051946 ], [ -96.816466132556897, 32.758215413339528 ], [ -96.81663507681273, 32.758300942004198 ], [ -96.816670564443683, 32.758318956845486 ], [ -96.816889467793189, 32.758430383527191 ], [ -96.816975198015399, 32.758474310594266 ], [ -96.817546682335902, 32.758769060220487 ], [ -96.818060903341575, 32.759044963978447 ], [ -96.818084941070794, 32.75905837246038 ], [ -96.818586980619926, 32.759349336373482 ], [ -96.819052781246995, 32.759629678176097 ], [ -96.819459035839429, 32.759881853030912 ], [ -96.819478055859506, 32.7598940263765 ], [ -96.819875380006067, 32.760156164438811 ], [ -96.820067223014021, 32.760286607156196 ], [ -96.820541925245777, 32.760621447798606 ], [ -96.82056404961358, 32.760637633364894 ], [ -96.821024183696977, 32.760986692765044 ], [ -96.821214853186476, 32.761136658432967 ], [ -96.821742187145517, 32.76156957915498 ], [ -96.821766613992892, 32.761590509679621 ], [ -96.82227154313307, 32.76204209976995 ], [ -96.822469277721524, 32.762226704205048 ], [ -96.823193939887091, 32.762949291522624 ], [ -96.823226859640044, 32.762984376421088 ], [ -96.823894211261944, 32.763745356723213 ], [ -96.823969136033782, 32.763836891980297 ], [ -96.824429296027674, 32.76442948647572 ], [ -96.824440818128863, 32.764445145235307 ], [ -96.825334477446646, 32.765820195315762 ], [ -96.825338499527717, 32.765827264571605 ], [ -96.826110348649053, 32.767419178805682 ], [ -96.826112781872496, 32.767425190474341 ], [ -96.826647460328203, 32.769048452655817 ], [ -96.826648695829746, 32.769053270946813 ], [ -96.826952984439671, 32.770682697921487 ], [ -96.826955273871775, 32.770702048793922 ], [ -96.826957515544976, 32.770728605338327 ], [ -96.827018050863984, 32.770936322813817 ], [ -96.82702190499954, 32.770953190672365 ], [ -96.827161630314521, 32.771660657716843 ], [ -96.827274170361207, 32.772191641212927 ], [ -96.82730505476512, 32.772341904395887 ], [ -96.827306556015557, 32.772349443261277 ], [ -96.827337215051429, 32.772508818036926 ], [ -96.827399127240113, 32.77284236162523 ], [ -96.827440107220923, 32.773075486259927 ], [ -96.827441941235691, 32.773086536210911 ], [ -96.827478435135063, 32.773320192282931 ], [ -96.827501627628479, 32.773478590359403 ], [ -96.827529618893024, 32.773681469601364 ], [ -96.827530864103792, 32.773691082552865 ], [ -96.827555473139213, 32.773894274491845 ], [ -96.827575722919718, 32.77407394969655 ], [ -96.8276006643828, 32.774356181224263 ], [ -96.827792050292089, 32.775020459150184 ], [ -96.827795666502723, 32.775036309835983 ], [ -96.827934656036291, 32.775737553016469 ], [ -96.827987595024211, 32.77605170917041 ], [ -96.82801455246711, 32.776245447600878 ], [ -96.828050653574664, 32.776425617132958 ], [ -96.828097354603017, 32.776700643560467 ], [ -96.828150788233955, 32.776978809922852 ], [ -96.828275835725563, 32.777765172327207 ], [ -96.828280569162658, 32.777802682948177 ], [ -96.828354817218965, 32.778597829614199 ], [ -96.828383138232269, 32.779064358351754 ], [ -96.828388795475817, 32.779164280463114 ], [ -96.828398827730368, 32.779355267801769 ], [ -96.828411937588172, 32.779694225736442 ], [ -96.828412334104797, 32.779710191182126 ], [ -96.828416068355054, 32.780048111555324 ], [ -96.828415624929733, 32.780210441423783 ], [ -96.828392334368317, 32.78093314176003 ], [ -96.828391345497863, 32.780949152504476 ] ] } }
]
}
