{
"type": "FeatureCollection",
"name": "i30_line",
"crs": { "type": "name", "properties": { "name": "urn:ogc:def:crs:OGC:1.3:CRS84" } },
"features": [
{ "type": "Feature", "properties": { "name": "I-30" }, "geometry": { "type": "MultiLineString", "coordinates": [ [ [ -96.829967, 32.76795 ], [ -96.831383, 32.767784 ], [ -96.832423, 32.767648 ], [ -96.833511, 32.767526 ], [ -96.834619, 32.767395 ], [ -96.835501, 32.767301 ], [ -96.835683, 32.767265 ], [ -96.835988, 32.767219 ], [ -96.836466, 32.767153 ], [ -96.836809, 32.767098 ], [ -96.837519, 32.766903 ], [ -96.838066, 32.766729 ], [ -96.838514, 32.766559 ], [ -96.838722, 32.766474 ], [ -96.839076, 32.766298 ], [ -96.839492, 32.766091 ], [ -96.840183, 32.76572 ], [ -96.840495, 32.765546 ], [ -96.840624, 32.765475 ], [ -96.841218, 32.765147 ], [ -96.841577, 32.764959 ], [ -96.84191, 32.764797 ], [ -96.842316, 32.764607 ], [ -96.842538, 32.764501 ], [ -96.842864, 32.764374 ], [ -96.843445, 32.764162 ], [ -96.843708, 32.764083 ], [ -96.843934, 32.764024 ], [ -96.844212, 32.763959 ], [ -96.844698, 32.763868 ], [ -96.845572, 32.763772 ], [ -96.846062, 32.763723 ], [ -96.84676, 32.763711 ], [ -96.847226, 32.763723 ], [ -96.8479, 32.763778 ], [ -96.848476, 32.763858 ], [ -96.848884, 32.763934 ], [ -96.849213, 32.764013 ], [ -96.849371, 32.764055 ], [ -96.849763, 32.764158 ], [ -96.850192, 32.764293 ], [ -96.850579, 32.764404 ], [ -96.850812, 32.764476 ], [ -96.852264, 32.764901 ], [ -96.853923, 32.765373 ], [ -96.855935, 32.765981 ], [ -96.856403, 32.766125 ], [ -96.856523, 32.766153 ], [ -96.856679, 32.766198 ], [ -96.857415, 32.766399 ], [ -96.857613, 32.766447 ], [ -96.858212, 32.76657 ], [ -96.858738, 32.76667 ], [ -96.859289, 32.766758 ], [ -96.859833, 32.766827 ], [ -96.86033, 32.766863 ], [ -96.860883, 32.766904 ], [ -96.86108, 32.76691 ], [ -96.861451, 32.76693 ], [ -96.862003, 32.766944 ], [ -96.862305, 32.766939 ], [ -96.862503, 32.76694 ], [ -96.862673, 32.766956 ], [ -96.862878, 32.76697 ], [ -96.863479, 32.766989 ], [ -96.867492, 32.76712 ], [ -96.869089, 32.767169 ], [ -96.871752, 32.767258 ], [ -96.872534, 32.767281 ], [ -96.872935, 32.767291 ], [ -96.873616, 32.767314 ], [ -96.87384, 32.767322 ], [ -96.873984, 32.767322 ], [ -96.87431, 32.767336 ], [ -96.876795, 32.767429 ], [ -96.878504, 32.767477 ], [ -96.879094, 32.767488 ], [ -96.880676, 32.767518 ], [ -96.880841, 32.767527 ], [ -96.88094, 32.767525 ], [ -96.881027, 32.767521 ], [ -96.88116, 32.767529 ], [ -96.886351, 32.767663 ], [ -96.887303, 32.767658 ], [ -96.888095, 32.767666 ], [ -96.888724, 32.767626 ], [ -96.889352, 32.767535 ], [ -96.889819, 32.767459 ], [ -96.892865, 32.766882 ], [ -96.893868, 32.766702 ], [ -96.895274, 32.766526 ], [ -96.895799, 32.766462 ], [ -96.896195, 32.766421 ], [ -96.897139, 32.766375 ], [ -96.900239, 32.766377 ], [ -96.902048, 32.766345 ], [ -96.902335, 32.76634 ], [ -96.90248, 32.766337 ], [ -96.904186, 32.766286 ], [ -96.905303, 32.766261 ], [ -96.907735, 32.766224 ], [ -96.910215, 32.766189 ], [ -96.910315, 32.766188 ], [ -96.910696, 32.766185 ], [ -96.911992, 32.766162 ], [ -96.914118, 32.766127 ], [ -96.914409, 32.766116 ], [ -96.914608, 32.76611 ], [ -96.914893, 32.766103 ], [ -96.915108, 32.766084 ], [ -96.915875, 32.766079 ], [ -96.916573, 32.76607 ], [ -96.9179, 32.766054 ], [ -96.919016, 32.76601 ], [ -96.919748, 32.765992 ], [ -96.921565, 32.765906 ], [ -96.922392, 32.765847 ], [ -96.923504, 32.765743 ], [ -96.924105, 32.765694 ], [ -96.924339, 32.765672 ], [ -96.925987, 32.765519 ], [ -96.9275, 32.765365 ], [ -96.927534, 32.765362 ], [ -96.927553, 32.76536 ], [ -96.928691, 32.765275 ], [ -96.929715, 32.765179 ], [ -96.930412, 32.765103 ], [ -96.931125, 32.765036 ], [ -96.931367, 32.765007 ], [ -96.9317, 32.764968 ], [ -96.931779, 32.764958 ], [ -96.932362, 32.764868 ], [ -96.933191, 32.764727 ], [ -96.933985, 32.76458 ], [ -96.936209, 32.764176 ], [ -96.937318, 32.763967 ], [ -96.940784, 32.763339 ], [ -96.942894, 32.762923 ], [ -96.944519, 32.762614 ], [ -96.945743, 32.762408 ], [ -96.947198, 32.762203 ], [ -96.949058, 32.76203 ], [ -96.949912, 32.76198 ], [ -96.95145, 32.761921 ], [ -96.952049, 32.76191 ], [ -96.953795, 32.761968 ], [ -96.956666, 32.762003 ], [ -96.958792, 32.761952 ], [ -96.959817, 32.761948 ], [ -96.960059, 32.761947 ], [ -96.960256, 32.761946 ], [ -96.961329, 32.76194 ], [ -96.962144, 32.761941 ], [ -96.962935, 32.761915 ], [ -96.964207, 32.761832 ], [ -96.964885, 32.761743 ], [ -96.965334, 32.761667 ], [ -96.965968, 32.761536 ], [ -96.966928, 32.761288 ], [ -96.967947, 32.760972 ], [ -96.968432, 32.760804 ], [ -96.970381, 32.760156 ], [ -96.970904, 32.760015 ], [ -96.97155, 32.759842 ], [ -96.972493, 32.759661 ], [ -96.973211, 32.759528 ], [ -96.973919, 32.759423 ], [ -96.974446, 32.759366 ], [ -96.975157, 32.759321 ], [ -96.976182, 32.759261 ], [ -96.976482, 32.759247 ], [ -96.979406, 32.759109 ], [ -96.980148, 32.759065 ], [ -96.982308, 32.758924 ], [ -96.985191, 32.758764 ], [ -96.987031, 32.758615 ], [ -96.987245, 32.758612 ], [ -96.987765, 32.758584 ], [ -96.988558, 32.758543 ], [ -96.989577, 32.758483 ], [ -96.990823, 32.758442 ], [ -96.991699, 32.758423 ], [ -96.992541, 32.758417 ], [ -96.993716, 32.758473 ], [ -96.994695, 32.758492 ], [ -96.994842, 32.758495 ], [ -96.995019, 32.758499 ], [ -96.995202, 32.758514 ], [ -96.995715, 32.758557 ], [ -96.999531, 32.758826 ], [ -97.002428, 32.759027 ], [ -97.003359340793523, 32.759108413362512 ] ], [ [ -96.830516, 32.767988 ], [ -96.832218, 32.767805 ], [ -96.834304, 32.767569 ], [ -96.835502, 32.76743 ], [ -96.835694, 32.767395 ], [ -96.836024, 32.767351 ], [ -96.836451, 32.767281 ], [ -96.836766, 32.76722 ], [ -96.837054, 32.767159 ], [ -96.837411, 32.767063 ], [ -96.837691, 32.766993 ], [ -96.837996, 32.766897 ], [ -96.838241, 32.766801 ], [ -96.838502, 32.766714 ], [ -96.838895, 32.76654 ], [ -96.839262, 32.766382 ], [ -96.839532, 32.766234 ], [ -96.839899, 32.766051 ], [ -96.840292, 32.765815 ], [ -96.840711, 32.76558 ], [ -96.841042, 32.765414 ], [ -96.841289, 32.765289 ], [ -96.841609, 32.765117 ], [ -96.841976, 32.76494 ], [ -96.84225, 32.764802 ], [ -96.842582, 32.764659 ], [ -96.842871, 32.764551 ], [ -96.843128, 32.764435 ], [ -96.843861, 32.764224 ], [ -96.844482, 32.764069 ], [ -96.845014, 32.763978 ], [ -96.845465, 32.763928 ], [ -96.845982, 32.763883 ], [ -96.846293, 32.763868 ], [ -96.846607, 32.763845 ], [ -96.846956, 32.763851 ], [ -96.847373, 32.763882 ], [ -96.847844, 32.763925 ], [ -96.84831, 32.76398 ], [ -96.848665, 32.764023 ], [ -96.849162, 32.764133 ], [ -96.849548, 32.764231 ], [ -96.850013, 32.764372 ], [ -96.850352, 32.764492 ], [ -96.850551, 32.764563 ], [ -96.85236, 32.765088 ], [ -96.854569, 32.765713 ], [ -96.856527, 32.766268 ], [ -96.856678, 32.766326 ], [ -96.857092, 32.766445 ], [ -96.857727, 32.76661 ], [ -96.858074, 32.766682 ], [ -96.858556, 32.766776 ], [ -96.859094, 32.76687 ], [ -96.859526, 32.766945 ], [ -96.860202, 32.767014 ], [ -96.860633, 32.767039 ], [ -96.862298, 32.767102 ], [ -96.862497, 32.767106 ], [ -96.862667, 32.767108 ], [ -96.86417, 32.767153 ], [ -96.868347, 32.767271 ], [ -96.871651, 32.767371 ], [ -96.873602, 32.767436 ], [ -96.87384, 32.767445 ], [ -96.876157, 32.767517 ], [ -96.88089, 32.767629 ], [ -96.882546, 32.767699 ], [ -96.88474, 32.767754 ], [ -96.886569, 32.767826 ], [ -96.88717, 32.767817 ], [ -96.887689, 32.767817 ], [ -96.888344, 32.767781 ], [ -96.889154, 32.767681 ], [ -96.889809, 32.767599 ], [ -96.890463, 32.767493 ], [ -96.891669, 32.767269 ], [ -96.892857, 32.767057 ], [ -96.89392, 32.766873 ], [ -96.894523, 32.766772 ], [ -96.895832, 32.76663 ], [ -96.896301, 32.766585 ], [ -96.897752, 32.76654 ], [ -96.900289, 32.766495 ], [ -96.902332, 32.766503 ], [ -96.902481, 32.766495 ], [ -96.905363, 32.766418 ], [ -96.907043, 32.766383 ], [ -96.908604, 32.766395 ], [ -96.909721, 32.766395 ], [ -96.910217, 32.766402 ], [ -96.910318, 32.766407 ], [ -96.914399, 32.766381 ], [ -96.914506, 32.76638 ], [ -96.91463, 32.766374 ], [ -96.91491, 32.766368 ], [ -96.91511, 32.766367 ], [ -96.915922, 32.766347 ], [ -96.916906, 32.766334 ], [ -96.917732, 32.766312 ], [ -96.918946, 32.766233 ], [ -96.920628, 32.76612 ], [ -96.92168, 32.766045 ], [ -96.923641, 32.765865 ], [ -96.92494, 32.765737 ], [ -96.927414, 32.765496 ], [ -96.927474, 32.765491 ], [ -96.928666, 32.765392 ], [ -96.930304, 32.765249 ], [ -96.931024, 32.765174 ], [ -96.931391, 32.765136 ], [ -96.931686, 32.765099 ], [ -96.931894, 32.765066 ], [ -96.933038, 32.764889 ], [ -96.934645, 32.764611 ], [ -96.936267, 32.764308 ], [ -96.938371, 32.763912 ], [ -96.940865, 32.763431 ], [ -96.942931, 32.763033 ], [ -96.943539, 32.76292 ], [ -96.944591, 32.762725 ], [ -96.946078, 32.762485 ], [ -96.94704, 32.762357 ], [ -96.947849, 32.762266 ], [ -96.949078, 32.762165 ], [ -96.950184, 32.762098 ], [ -96.951625, 32.762065 ], [ -96.954104, 32.762076 ], [ -96.956726, 32.762117 ], [ -96.959824, 32.762113 ], [ -96.960065, 32.762107 ], [ -96.960259, 32.762109 ], [ -96.960586, 32.762113 ], [ -96.961268, 32.762113 ], [ -96.961814, 32.76212 ], [ -96.962374, 32.762113 ], [ -96.962848, 32.762092 ], [ -96.963193, 32.762063 ], [ -96.963768, 32.761998 ], [ -96.964335, 32.761941 ], [ -96.964867, 32.761862 ], [ -96.965295, 32.761794 ], [ -96.965884, 32.761688 ], [ -96.966396, 32.761572 ], [ -96.967371, 32.761273 ], [ -96.968066, 32.76106 ], [ -96.968704, 32.760858 ], [ -96.969399, 32.760626 ], [ -96.970275, 32.760359 ], [ -96.97079, 32.76023 ], [ -96.971553, 32.760017 ], [ -96.972335, 32.759853 ], [ -96.973165, 32.759718 ], [ -96.973928, 32.759602 ], [ -96.974797, 32.759525 ], [ -96.976336, 32.759384 ], [ -96.97752, 32.759332 ], [ -96.98007, 32.759197 ], [ -96.983112, 32.759013 ], [ -96.985709, 32.758849 ], [ -96.988355, 32.758685 ], [ -96.989659, 32.758598 ], [ -96.990915, 32.758559 ], [ -96.992305, 32.75854 ], [ -96.994691, 32.758604 ], [ -96.994844, 32.758608 ], [ -96.995025, 32.758618 ], [ -96.995202, 32.75863 ], [ -96.997414, 32.758801 ], [ -97.001035, 32.759052 ], [ -97.00231, 32.759139 ], [ -97.003359340793523, 32.759263882907419 ] ], [ [ -96.830035, 32.768128 ], [ -96.831998, 32.767943 ], [ -96.833565, 32.767775 ], [ -96.835503, 32.767549 ], [ -96.835703, 32.767512 ], [ -96.836029, 32.767471 ], [ -96.836751, 32.767345 ], [ -96.836876, 32.767317 ], [ -96.837043, 32.767285 ], [ -96.837402, 32.767193 ], [ -96.837716, 32.767118 ], [ -96.838041, 32.76703 ], [ -96.838354, 32.766918 ], [ -96.838642, 32.766788 ], [ -96.838979, 32.76663 ], [ -96.839316, 32.766477 ], [ -96.840746, 32.765714 ], [ -96.841244, 32.765458 ], [ -96.841824, 32.765158 ], [ -96.842382, 32.764901 ], [ -96.842657, 32.764795 ], [ -96.842878, 32.764723 ], [ -96.843149, 32.764619 ], [ -96.843634, 32.764467 ], [ -96.844009, 32.764364 ], [ -96.844448, 32.76423 ], [ -96.845115, 32.764109 ], [ -96.845676, 32.764059 ], [ -96.84579, 32.76405 ], [ -96.846416, 32.764023 ], [ -96.84737, 32.764049 ], [ -96.8482, 32.76413 ], [ -96.848366, 32.764158 ], [ -96.849052, 32.764293 ], [ -96.849671, 32.764464 ], [ -96.850119, 32.764583 ], [ -96.850336, 32.764634 ], [ -96.850656, 32.764713 ], [ -96.854044, 32.765693 ], [ -96.854823, 32.765906 ], [ -96.855805, 32.766182 ], [ -96.856282, 32.766322 ], [ -96.856523, 32.766395 ], [ -96.856677, 32.766442 ], [ -96.85701, 32.76652 ], [ -96.857165, 32.766562 ], [ -96.857593, 32.766689 ], [ -96.857819, 32.766742 ], [ -96.858331, 32.766858 ], [ -96.858863, 32.766971 ], [ -96.859332, 32.767058 ], [ -96.859908, 32.767115 ], [ -96.860377, 32.767158 ], [ -96.860797, 32.767165 ], [ -96.861155, 32.767175 ], [ -96.862292, 32.767225 ], [ -96.86249, 32.767234 ], [ -96.862655, 32.767246 ], [ -96.863032, 32.767258 ], [ -96.867456, 32.767372 ], [ -96.868291, 32.767393 ], [ -96.870954, 32.767465 ], [ -96.871779, 32.7675 ], [ -96.871972, 32.767501 ], [ -96.872369, 32.767525 ], [ -96.872939, 32.76753 ], [ -96.873591, 32.767544 ], [ -96.87384, 32.76755 ], [ -96.875727, 32.767605 ], [ -96.878802, 32.767695 ], [ -96.87911, 32.767699 ], [ -96.880516, 32.767719 ], [ -96.880822, 32.767726 ], [ -96.881102, 32.767736 ], [ -96.886186, 32.76793 ], [ -96.887145, 32.767952 ], [ -96.888048, 32.767919 ], [ -96.888547, 32.767877 ], [ -96.888899, 32.767839 ], [ -96.889436, 32.767798 ], [ -96.890265, 32.767687 ], [ -96.891118, 32.767536 ], [ -96.893735, 32.76705 ], [ -96.89446, 32.766933 ], [ -96.895172, 32.766845 ], [ -96.895844, 32.766786 ], [ -96.896129, 32.766758 ], [ -96.896962, 32.766725 ], [ -96.89724, 32.76671 ], [ -96.900345, 32.766634 ], [ -96.902138, 32.766614 ], [ -96.90233, 32.766614 ], [ -96.902481, 32.766622 ], [ -96.903458, 32.766598 ], [ -96.904554, 32.766569 ], [ -96.904803, 32.766571 ], [ -96.905042, 32.766565 ], [ -96.905412, 32.766546 ], [ -96.906511, 32.766522 ], [ -96.907136, 32.76652 ], [ -96.908108, 32.766501 ], [ -96.909295, 32.766493 ], [ -96.910222, 32.766498 ], [ -96.910319, 32.766498 ], [ -96.910944, 32.766506 ], [ -96.914396, 32.766454 ], [ -96.914633, 32.766453 ], [ -96.914764, 32.766447 ], [ -96.914916, 32.766446 ], [ -96.91511, 32.766448 ], [ -96.915903, 32.766446 ], [ -96.916649, 32.766427 ], [ -96.916806, 32.766424 ], [ -96.917657, 32.766428 ], [ -96.917872, 32.766424 ], [ -96.919643, 32.766357 ], [ -96.920675, 32.766286 ], [ -96.921793, 32.766166 ], [ -96.921865, 32.766157 ], [ -96.922716, 32.766075 ], [ -96.923712, 32.765973 ], [ -96.927327, 32.765634 ], [ -96.927377, 32.765629 ], [ -96.928417, 32.765554 ], [ -96.929087, 32.765495 ], [ -96.930011, 32.765407 ], [ -96.930358, 32.765376 ], [ -96.93092, 32.765317 ], [ -96.931414, 32.76526 ], [ -96.932107, 32.765175 ], [ -96.933312, 32.764981 ], [ -96.936319, 32.764427 ], [ -96.939979, 32.763747 ], [ -96.94185, 32.763405 ], [ -96.943094, 32.763172 ], [ -96.943968, 32.763019 ], [ -96.945281, 32.762774 ], [ -96.946185, 32.762624 ], [ -96.946382, 32.762599 ], [ -96.946871, 32.762529 ], [ -96.947054, 32.762507 ], [ -96.947461, 32.762462 ], [ -96.948627, 32.762365 ], [ -96.950484, 32.762251 ], [ -96.95145, 32.762231 ], [ -96.953222, 32.762222 ], [ -96.953942, 32.762222 ], [ -96.956788, 32.762234 ], [ -96.95883, 32.762241 ], [ -96.959832, 32.762243 ], [ -96.96007, 32.762244 ], [ -96.960262, 32.762244 ], [ -96.961693, 32.762248 ], [ -96.96254, 32.762228 ], [ -96.963009, 32.762196 ], [ -96.963806, 32.762126 ], [ -96.964564, 32.762022 ], [ -96.96546, 32.761884 ], [ -96.966169, 32.761749 ], [ -96.96706, 32.761514 ], [ -96.967437, 32.76142 ], [ -96.968053, 32.761221 ], [ -96.96902, 32.760922 ], [ -96.969961, 32.760617 ], [ -96.970172, 32.760556 ], [ -96.970691, 32.760406 ], [ -96.971651, 32.760159 ], [ -96.972361, 32.760013 ], [ -96.97281, 32.75993 ], [ -96.973339, 32.759844 ], [ -96.974142, 32.759733 ], [ -96.975517, 32.759625 ], [ -96.976845, 32.759525 ], [ -96.977374, 32.759483 ], [ -96.978576, 32.75941 ], [ -96.980837, 32.75928 ], [ -96.982089, 32.759216 ], [ -96.982508, 32.759194 ], [ -96.98331, 32.759139 ], [ -96.98437, 32.759084 ], [ -96.984922, 32.759045 ], [ -96.985671, 32.759004 ], [ -96.986345, 32.758962 ], [ -96.987168, 32.758892 ], [ -96.987284, 32.758888 ], [ -96.988484, 32.758808 ], [ -96.990104, 32.758705 ], [ -96.991784, 32.758705 ], [ -96.992885, 32.758695 ], [ -96.993619, 32.758724 ], [ -96.994277, 32.758727 ], [ -96.994695, 32.758739 ], [ -96.994847, 32.758743 ], [ -96.995031, 32.758753 ], [ -96.995201, 32.758769 ], [ -96.995708, 32.758822 ], [ -96.996463, 32.758878 ], [ -96.997273, 32.758949 ], [ -96.998073, 32.759007 ], [ -96.998894, 32.759074 ], [ -96.999722, 32.759149 ], [ -97.00089, 32.759232 ], [ -97.00232, 32.759342 ], [ -97.002993, 32.759399 ], [ -97.003165, 32.759412 ], [ -97.003359340793523, 32.759423499455238 ] ], [ [ -96.830035, 32.768128 ], [ -96.830516, 32.767988 ] ], [ [ -96.829967, 32.76795 ], [ -96.830516, 32.767988 ] ], [ [ -96.830035, 32.768128 ], [ -96.828165, 32.768348 ], [ -96.827719, 32.768409 ], [ -96.827386, 32.768452 ], [ -96.826986, 32.768501 ], [ -96.826094, 32.768617 ], [ -96.825393, 32.768739 ], [ -96.823805, 32.769022 ], [ -96.823067, 32.769163 ], [ -96.822845, 32.769205 ], [ -96.822067, 32.769373 ], [ -96.82185, 32.769425 ], [ -96.82132, 32.769529 ], [ -96.821067, 32.769575 ], [ -96.820763, 32.769636 ], [ -96.818513, 32.770032 ], [ -96.817685, 32.770207 ], [ -96.816621, 32.770429 ], [ -96.815415, 32.770712 ], [ -96.814765, 32.77084 ], [ -96.81389, 32.771022 ], [ -96.813441, 32.77107 ], [ -96.812939, 32.771141 ], [ -96.812765, 32.771177 ], [ -96.811945, 32.771356 ], [ -96.811613, 32.771399 ], [ -96.811309, 32.771401 ], [ -96.811226, 32.771398 ], [ -96.811107, 32.771393 ], [ -96.810763, 32.771354 ], [ -96.810511, 32.771296 ], [ -96.810186, 32.771172 ], [ -96.809911, 32.771058 ], [ -96.809625, 32.770927 ], [ -96.809191, 32.770711 ], [ -96.80893, 32.770598 ], [ -96.80857, 32.770387 ], [ -96.808017, 32.770083 ], [ -96.807563, 32.769846 ], [ -96.807112, 32.769624 ], [ -96.806627, 32.769393 ], [ -96.806372, 32.769283 ], [ -96.806173, 32.769211 ], [ -96.805966, 32.76915 ], [ -96.805701, 32.769092 ], [ -96.805387, 32.769056 ], [ -96.805286, 32.769052 ], [ -96.804855, 32.769065 ], [ -96.80469, 32.769079 ], [ -96.804456, 32.769128 ], [ -96.803933, 32.76928 ], [ -96.803445, 32.76945 ], [ -96.802889, 32.769652 ], [ -96.802543, 32.769774 ], [ -96.802378, 32.769838 ], [ -96.80223, 32.769942 ], [ -96.802145, 32.770002 ], [ -96.802037, 32.770094 ], [ -96.801838, 32.770253 ], [ -96.80169, 32.770367 ], [ -96.801613, 32.770426 ], [ -96.801449, 32.770564 ], [ -96.801337, 32.770651 ], [ -96.801259, 32.770716 ], [ -96.801203, 32.770764 ], [ -96.801032, 32.770895 ], [ -96.800875, 32.771029 ], [ -96.80069, 32.771183 ], [ -96.800548, 32.771296 ], [ -96.800403, 32.771401 ], [ -96.800004, 32.771736 ], [ -96.799484, 32.772122 ], [ -96.799286, 32.772273 ], [ -96.799069, 32.772427 ], [ -96.799004, 32.772466 ], [ -96.798894, 32.772534 ], [ -96.798766, 32.772596 ], [ -96.798527, 32.772702 ], [ -96.798012, 32.772901 ], [ -96.797727, 32.773004 ], [ -96.797341, 32.773108 ], [ -96.796888, 32.773215 ], [ -96.795785, 32.77351 ], [ -96.795558, 32.773552 ], [ -96.795187, 32.773642 ], [ -96.793779, 32.773988 ], [ -96.793238, 32.774117 ], [ -96.792879, 32.774203 ], [ -96.791484, 32.774599 ], [ -96.790108, 32.774889 ], [ -96.789872, 32.774929 ], [ -96.788719, 32.775114 ], [ -96.788141, 32.775216 ], [ -96.787639, 32.775355 ], [ -96.787334, 32.775461 ], [ -96.787199, 32.775506 ], [ -96.787059, 32.775561 ], [ -96.786869, 32.77563 ], [ -96.786625, 32.775743 ], [ -96.786422, 32.775836 ], [ -96.786213, 32.775942 ], [ -96.786109, 32.776002 ], [ -96.786009, 32.776057 ], [ -96.785685, 32.77626 ], [ -96.78482, 32.776871 ], [ -96.784058, 32.777448 ], [ -96.783782, 32.777661 ], [ -96.783495, 32.777867 ], [ -96.783417, 32.777924 ], [ -96.78261, 32.778592 ], [ -96.782301, 32.778815 ], [ -96.782195, 32.778902 ], [ -96.782123, 32.778956 ], [ -96.782094, 32.778977 ], [ -96.782065, 32.778997 ], [ -96.782038, 32.779016 ], [ -96.782008, 32.779037 ], [ -96.781966, 32.779073 ], [ -96.781925, 32.779109 ], [ -96.781759, 32.779227 ], [ -96.781536, 32.77936 ], [ -96.781417, 32.779422 ], [ -96.781319, 32.779483 ], [ -96.781096, 32.779597 ], [ -96.78064, 32.779784 ], [ -96.780469, 32.77985 ], [ -96.780017, 32.780018 ], [ -96.779631, 32.780115 ], [ -96.779329, 32.780163 ], [ -96.778942, 32.780223 ], [ -96.77846, 32.78026 ], [ -96.777228, 32.780374 ], [ -96.77673, 32.780398 ], [ -96.776501, 32.780423 ], [ -96.775106, 32.780544 ], [ -96.775022, 32.780555 ], [ -96.774922, 32.780561 ], [ -96.774828, 32.780572 ], [ -96.774001, 32.780645 ], [ -96.773172, 32.780752 ], [ -96.772691, 32.780853 ], [ -96.772381, 32.780929 ], [ -96.77197, 32.781055 ], [ -96.7718, 32.781112 ], [ -96.771674, 32.781166 ], [ -96.771355, 32.781325 ], [ -96.771103, 32.78147 ], [ -96.770767, 32.781709 ], [ -96.770649, 32.781809 ], [ -96.770507, 32.781936 ], [ -96.770406, 32.782038 ], [ -96.770326, 32.782122 ], [ -96.770252, 32.782203 ], [ -96.770014, 32.78251 ], [ -96.769849, 32.782752 ], [ -96.769636, 32.783059 ], [ -96.769311, 32.783638 ], [ -96.76923, 32.783777 ], [ -96.768806, 32.784487 ], [ -96.76873, 32.784604 ], [ -96.768608, 32.784821 ], [ -96.768425, 32.785038 ], [ -96.768145, 32.785385 ], [ -96.768024, 32.785539 ], [ -96.76777, 32.78582 ], [ -96.767611, 32.785986 ], [ -96.767406, 32.786197 ], [ -96.767126, 32.786447 ], [ -96.766008, 32.787404 ], [ -96.76584, 32.787542 ], [ -96.765337, 32.78795 ], [ -96.764896, 32.78834 ], [ -96.764448, 32.788686 ], [ -96.764316, 32.788795 ], [ -96.76415, 32.788933 ], [ -96.763693, 32.78926 ], [ -96.763056, 32.789666 ], [ -96.762733, 32.78985 ], [ -96.762318, 32.79006 ], [ -96.761866, 32.790274 ], [ -96.761569, 32.790385 ], [ -96.76127, 32.790483 ], [ -96.760595, 32.790676 ], [ -96.759552, 32.790886 ], [ -96.759096, 32.790956 ], [ -96.75879, 32.790969 ], [ -96.758451, 32.790991 ], [ -96.758088, 32.791015 ], [ -96.757647, 32.79103 ], [ -96.75735, 32.791036 ], [ -96.756982, 32.791048 ], [ -96.756545, 32.791069 ], [ -96.756186, 32.791084 ], [ -96.756067, 32.791085 ], [ -96.755961, 32.791084 ], [ -96.755227, 32.791097 ], [ -96.754982, 32.791114 ], [ -96.750306, 32.791325 ], [ -96.74999, 32.791348 ], [ -96.749693, 32.79135 ], [ -96.746989, 32.791465 ], [ -96.746472, 32.791497 ], [ -96.745772, 32.791508 ], [ -96.744453, 32.791556 ], [ -96.744431, 32.791558 ], [ -96.743053, 32.791643 ], [ -96.74299, 32.791649 ], [ -96.74216, 32.791699 ], [ -96.742012, 32.7917 ], [ -96.740846, 32.791711 ], [ -96.739046, 32.791742 ], [ -96.737389, 32.791776 ], [ -96.736081, 32.791749 ], [ -96.735119, 32.791724 ], [ -96.733948, 32.791715 ], [ -96.73291, 32.791713 ], [ -96.73185, 32.791713 ], [ -96.731398, 32.791718 ], [ -96.731122, 32.791732 ], [ -96.730823, 32.791756 ], [ -96.730277, 32.791825 ], [ -96.729973, 32.791889 ], [ -96.729699, 32.791954 ], [ -96.729506, 32.79201 ], [ -96.729334, 32.792067 ], [ -96.729178, 32.792111 ], [ -96.728941, 32.792198 ], [ -96.728709, 32.792292 ], [ -96.728318, 32.792476 ], [ -96.728125, 32.792579 ], [ -96.72791, 32.7927 ], [ -96.727678, 32.792848 ], [ -96.727486, 32.792982 ], [ -96.727257, 32.793124 ], [ -96.727032, 32.793262 ], [ -96.726863, 32.793377 ], [ -96.726253, 32.793768 ], [ -96.725928, 32.793951 ], [ -96.725728, 32.794038 ], [ -96.725032, 32.794307 ], [ -96.724654, 32.794446 ], [ -96.724208, 32.794582 ], [ -96.723818, 32.794648 ], [ -96.723508, 32.794694 ], [ -96.723253, 32.794721 ], [ -96.722719, 32.79478 ], [ -96.722481, 32.794791 ], [ -96.719838, 32.79493 ], [ -96.719286, 32.794964 ], [ -96.718368, 32.795029 ], [ -96.717704, 32.795048 ], [ -96.717523, 32.795063 ], [ -96.717117, 32.795085 ], [ -96.716721, 32.795102 ], [ -96.716029, 32.795109 ], [ -96.715679, 32.7951 ], [ -96.71491, 32.795061 ], [ -96.714049, 32.794958 ], [ -96.71369, 32.794899 ], [ -96.713079, 32.794788 ], [ -96.711884, 32.794559 ], [ -96.711694, 32.794519 ], [ -96.7111, 32.794399 ], [ -96.710648, 32.794317 ], [ -96.709949, 32.794196 ], [ -96.709493, 32.794145 ], [ -96.709192, 32.794115 ], [ -96.70885, 32.794091 ], [ -96.708504, 32.79408 ], [ -96.707891, 32.794066 ], [ -96.705843, 32.794054 ], [ -96.705566, 32.79405 ], [ -96.700019, 32.794083 ], [ -96.699862, 32.794086 ], [ -96.699311, 32.794111 ], [ -96.698897, 32.794137 ], [ -96.698524, 32.794185 ], [ -96.697862, 32.794289 ], [ -96.697415, 32.79438 ], [ -96.696718, 32.794546 ], [ -96.696129, 32.794694 ], [ -96.692341, 32.795671 ], [ -96.692011, 32.795758 ], [ -96.690828, 32.796082 ], [ -96.690635, 32.796131 ], [ -96.689378, 32.796447 ], [ -96.68807, 32.796778 ], [ -96.687052, 32.797037 ], [ -96.684195, 32.797768 ], [ -96.683731, 32.797896 ], [ -96.68341, 32.797987 ], [ -96.682575, 32.798201 ], [ -96.681941, 32.798354 ], [ -96.68139, 32.798499 ], [ -96.681069, 32.798578 ], [ -96.680341, 32.798715 ], [ -96.679823, 32.798834 ], [ -96.678708, 32.799118 ], [ -96.678214, 32.799243 ], [ -96.677434, 32.799498 ], [ -96.677141, 32.799611 ], [ -96.676958, 32.799695 ], [ -96.676829, 32.799747 ], [ -96.676546, 32.79987 ], [ -96.676035, 32.800131 ], [ -96.675859, 32.80023 ], [ -96.675671, 32.800329 ], [ -96.675547, 32.80039 ], [ -96.675138, 32.800572 ], [ -96.674407, 32.800945 ], [ -96.67416, 32.801074 ], [ -96.673912, 32.801203 ], [ -96.673859, 32.801229 ], [ -96.673848, 32.801234 ], [ -96.672324, 32.801969 ], [ -96.671666, 32.802266 ], [ -96.669355, 32.803343 ], [ -96.668735, 32.803637 ], [ -96.668245, 32.803867 ], [ -96.668149, 32.803905 ], [ -96.666963, 32.80444 ], [ -96.66322, 32.80621 ], [ -96.660231, 32.807609 ], [ -96.657624, 32.808821 ], [ -96.655071, 32.81001 ], [ -96.654987, 32.810052 ], [ -96.652372, 32.811273 ], [ -96.652205, 32.811352 ], [ -96.648707, 32.812995 ], [ -96.64856, 32.813052 ], [ -96.646563, 32.813996 ], [ -96.645915, 32.814299 ], [ -96.640935, 32.816639 ], [ -96.64058, 32.816823 ], [ -96.640013, 32.817132 ], [ -96.639237, 32.817597 ], [ -96.639152, 32.817642 ], [ -96.636718, 32.819062 ], [ -96.635134, 32.820022 ], [ -96.63357, 32.820947 ], [ -96.633286, 32.821116 ], [ -96.633071, 32.821241 ], [ -96.632876, 32.821359 ], [ -96.629962, 32.823042 ], [ -96.629821, 32.823126 ], [ -96.629809, 32.823133 ], [ -96.629789, 32.823145 ], [ -96.629767, 32.823161 ], [ -96.629727, 32.823183 ], [ -96.629707, 32.823193 ], [ -96.629645, 32.823226 ], [ -96.629003, 32.82362 ], [ -96.628794, 32.823741 ], [ -96.62839, 32.823968 ], [ -96.627315, 32.824622 ], [ -96.626835, 32.824903 ], [ -96.626079, 32.825356 ], [ -96.62485, 32.826088 ], [ -96.62318, 32.82707 ], [ -96.621611, 32.827996 ], [ -96.620409, 32.828705 ], [ -96.620255, 32.828792 ], [ -96.618665, 32.829706 ], [ -96.616673, 32.830896 ], [ -96.614914, 32.831933 ], [ -96.614204, 32.832333 ], [ -96.613361, 32.832788 ], [ -96.612813, 32.833063 ], [ -96.612624, 32.833154 ], [ -96.612053, 32.833418 ], [ -96.611641, 32.83361 ], [ -96.611115, 32.833869 ], [ -96.610982, 32.833936 ], [ -96.610882, 32.833985 ], [ -96.610587, 32.834121 ], [ -96.610516, 32.834159 ], [ -96.610179, 32.834296 ], [ -96.610134, 32.834314 ], [ -96.608938, 32.834805 ], [ -96.608258, 32.835094 ], [ -96.6073, 32.835476 ], [ -96.605339, 32.836264 ], [ -96.603935, 32.836826 ], [ -96.602341, 32.83745 ], [ -96.602031, 32.837579 ], [ -96.601915, 32.837626 ], [ -96.601355, 32.837857 ], [ -96.600023, 32.838414 ], [ -96.599754, 32.838527 ], [ -96.595888, 32.840079 ], [ -96.595646, 32.840181 ], [ -96.595577, 32.84021 ], [ -96.595505, 32.840235 ], [ -96.595372, 32.840288 ], [ -96.591667, 32.841763 ], [ -96.591158, 32.841971 ], [ -96.590521, 32.842227 ], [ -96.589306, 32.842717 ], [ -96.588816, 32.842906 ], [ -96.587999, 32.84324 ], [ -96.587446, 32.843465 ], [ -96.586606, 32.843807 ], [ -96.586343, 32.843916 ], [ -96.584929, 32.844468 ], [ -96.582372, 32.845515 ], [ -96.579857, 32.846525 ], [ -96.577445, 32.847482 ], [ -96.577117, 32.847617 ], [ -96.57525, 32.848374 ], [ -96.574663, 32.848613 ], [ -96.573525, 32.849074 ], [ -96.571503, 32.849885 ], [ -96.570695, 32.850192 ], [ -96.570102, 32.850433 ], [ -96.569853, 32.850544 ], [ -96.569583, 32.850655 ], [ -96.568415, 32.851128 ], [ -96.567718, 32.851411 ], [ -96.567578, 32.851472 ], [ -96.566764, 32.851796 ], [ -96.564819, 32.85257 ], [ -96.564247, 32.852787 ], [ -96.561994, 32.853717 ], [ -96.561285, 32.854039 ], [ -96.558836, 32.855005 ], [ -96.557386, 32.855633 ], [ -96.5564, 32.856069 ], [ -96.555663, 32.85644 ], [ -96.554888, 32.856862 ], [ -96.553837, 32.857433 ], [ -96.553036, 32.857884 ], [ -96.552204, 32.858421 ], [ -96.55169, 32.858764 ], [ -96.550998, 32.859253 ], [ -96.550386, 32.859724 ], [ -96.549637, 32.860309 ], [ -96.548713, 32.861128 ], [ -96.547962, 32.861849 ], [ -96.547534, 32.862223 ], [ -96.547206, 32.862523 ], [ -96.546969, 32.862724 ], [ -96.546813, 32.86284 ], [ -96.546247, 32.8633 ], [ -96.545926, 32.863542 ], [ -96.545884, 32.863574 ], [ -96.545737, 32.863684 ], [ -96.54546, 32.863881 ], [ -96.5452, 32.864047 ], [ -96.544984, 32.864193 ], [ -96.544689, 32.864386 ], [ -96.544377, 32.864579 ], [ -96.543976, 32.86482 ], [ -96.540358, 32.866763 ], [ -96.539815, 32.866995 ], [ -96.539455, 32.867176 ], [ -96.538885, 32.867455 ], [ -96.538353, 32.867706 ], [ -96.53801, 32.86786 ], [ -96.537839, 32.867932 ], [ -96.537668, 32.867998 ], [ -96.533715, 32.869756 ], [ -96.533211, 32.869961 ], [ -96.523707, 32.874132 ], [ -96.522859, 32.87444 ], [ -96.522661, 32.874512 ], [ -96.522439, 32.874592 ], [ -96.520465, 32.87547 ], [ -96.520394, 32.875507 ], [ -96.518402, 32.876468 ], [ -96.518306, 32.876517 ], [ -96.517762, 32.876796 ], [ -96.517278, 32.877012 ], [ -96.516741, 32.877266 ], [ -96.516177355237858, 32.877534133865417 ] ], [ [ -96.829967, 32.76795 ], [ -96.828343, 32.768141 ], [ -96.826969, 32.768331 ], [ -96.826524, 32.768392 ], [ -96.825818, 32.768516 ], [ -96.825285, 32.768611 ], [ -96.823786, 32.768904 ], [ -96.823064, 32.76905 ], [ -96.822845, 32.769088 ], [ -96.822226, 32.769205 ], [ -96.821711, 32.769309 ], [ -96.821332, 32.769393 ], [ -96.821033, 32.769448 ], [ -96.820721, 32.769513 ], [ -96.817643, 32.770105 ], [ -96.816569, 32.770326 ], [ -96.815506, 32.770565 ], [ -96.814672, 32.77069 ], [ -96.814551, 32.770706 ], [ -96.813967, 32.770775 ], [ -96.81311, 32.770788 ], [ -96.81191, 32.77085 ], [ -96.811729, 32.770867 ], [ -96.811606, 32.770871 ], [ -96.811062, 32.770896 ], [ -96.810621, 32.770887 ], [ -96.810324, 32.770865 ], [ -96.809861, 32.77076 ], [ -96.809603, 32.770656 ], [ -96.809236, 32.770498 ], [ -96.809077, 32.770411 ], [ -96.808971, 32.770356 ], [ -96.808764, 32.770231 ], [ -96.808719, 32.770204 ], [ -96.808163, 32.769915 ], [ -96.807877, 32.769772 ], [ -96.807692, 32.769683 ], [ -96.80685, 32.769267 ], [ -96.806283, 32.768974 ], [ -96.805889, 32.768789 ], [ -96.805626, 32.768727 ], [ -96.80518, 32.76866 ], [ -96.804969, 32.768644 ], [ -96.804806, 32.768632 ], [ -96.804595, 32.768633 ], [ -96.804455, 32.76864 ], [ -96.804237, 32.768657 ], [ -96.804059, 32.768681 ], [ -96.803868, 32.768734 ], [ -96.803509, 32.768861 ], [ -96.803369, 32.768928 ], [ -96.803239, 32.768999 ], [ -96.803059, 32.769111 ], [ -96.80271, 32.769363 ], [ -96.802619, 32.769436 ], [ -96.802086, 32.769807 ], [ -96.801875, 32.769965 ], [ -96.801662, 32.770117 ], [ -96.801601, 32.770159 ], [ -96.801527, 32.770209 ], [ -96.801488, 32.770235 ], [ -96.801412, 32.770307 ], [ -96.801259, 32.77044 ], [ -96.801203, 32.770488 ], [ -96.801165, 32.770524 ], [ -96.801146, 32.770541 ], [ -96.801078, 32.770604 ], [ -96.801024, 32.770658 ], [ -96.80072, 32.770921 ], [ -96.800402, 32.771189 ], [ -96.800161, 32.771383 ], [ -96.799813, 32.771645 ], [ -96.799323, 32.772038 ], [ -96.799073, 32.772216 ], [ -96.79889, 32.772336 ], [ -96.798801, 32.772388 ], [ -96.79867, 32.772452 ], [ -96.798537, 32.772514 ], [ -96.79827, 32.772645 ], [ -96.798088, 32.772721 ], [ -96.797865, 32.7728 ], [ -96.797683, 32.772855 ], [ -96.797456, 32.772911 ], [ -96.797232, 32.772956 ], [ -96.796994, 32.773001 ], [ -96.795609, 32.773336 ], [ -96.794753, 32.773553 ], [ -96.794404, 32.773634 ], [ -96.793796, 32.773794 ], [ -96.793641, 32.773823 ], [ -96.793078, 32.773929 ], [ -96.792898, 32.773961 ], [ -96.792796, 32.773977 ], [ -96.79262, 32.773998 ], [ -96.792167, 32.774036 ], [ -96.791207, 32.774133 ], [ -96.790527, 32.774209 ], [ -96.79024, 32.774242 ], [ -96.78951, 32.774362 ], [ -96.788826, 32.77445 ], [ -96.788005, 32.774569 ], [ -96.787734, 32.774623 ], [ -96.787535, 32.774696 ], [ -96.787496, 32.774707 ], [ -96.786746, 32.774937 ], [ -96.786245, 32.775128 ], [ -96.786033, 32.775222 ], [ -96.785912, 32.775286 ], [ -96.78581, 32.775345 ], [ -96.785685, 32.775412 ], [ -96.785538, 32.775502 ], [ -96.785476, 32.775542 ], [ -96.785439, 32.775564 ], [ -96.78541, 32.775584 ], [ -96.785306, 32.775669 ], [ -96.785022, 32.775875 ], [ -96.784768, 32.776075 ], [ -96.784584, 32.776228 ], [ -96.784414, 32.776383 ], [ -96.784377, 32.776414 ], [ -96.784014, 32.776772 ], [ -96.783247, 32.777557 ], [ -96.783174, 32.777638 ], [ -96.78283, 32.777991 ], [ -96.782629, 32.778183 ], [ -96.782455, 32.77836 ], [ -96.782163, 32.778627 ], [ -96.78205, 32.778731 ], [ -96.78196, 32.778805 ], [ -96.781948, 32.778816 ], [ -96.781905, 32.778845 ], [ -96.781821, 32.778899 ], [ -96.781445, 32.779163 ], [ -96.781084, 32.779372 ], [ -96.78077, 32.779538 ], [ -96.780536, 32.779635 ], [ -96.78031, 32.77972 ], [ -96.779939, 32.779836 ], [ -96.77974, 32.779887 ], [ -96.779388, 32.779964 ], [ -96.779091, 32.780011 ], [ -96.77887, 32.780034 ], [ -96.778597, 32.780055 ], [ -96.778293, 32.78007 ], [ -96.778044, 32.780088 ], [ -96.777095, 32.780139 ], [ -96.776419, 32.780174 ], [ -96.775166, 32.780282 ], [ -96.774799, 32.780319 ], [ -96.774648, 32.780333 ], [ -96.774504, 32.780355 ], [ -96.773787, 32.780428 ], [ -96.773437, 32.780473 ], [ -96.772889, 32.780568 ], [ -96.772438, 32.780648 ], [ -96.772195, 32.780701 ], [ -96.77196, 32.780777 ], [ -96.771803, 32.780834 ], [ -96.771589, 32.780918 ], [ -96.771423, 32.78099 ], [ -96.771281, 32.781062 ], [ -96.771043, 32.781194 ], [ -96.770739, 32.781384 ], [ -96.770554, 32.781509 ], [ -96.77039, 32.781633 ], [ -96.770258, 32.78175 ], [ -96.770162, 32.781843 ], [ -96.77008, 32.781933 ], [ -96.769935, 32.782117 ], [ -96.769805, 32.782263 ], [ -96.769665, 32.782438 ], [ -96.769558, 32.782595 ], [ -96.769444, 32.782786 ], [ -96.769345, 32.782973 ], [ -96.769012, 32.783521 ], [ -96.768918, 32.783683 ], [ -96.768492, 32.784404 ], [ -96.76842, 32.784518 ], [ -96.768335, 32.784686 ], [ -96.768144, 32.784947 ], [ -96.767864, 32.785297 ], [ -96.767722, 32.785489 ], [ -96.767434, 32.785822 ], [ -96.767327, 32.785935 ], [ -96.767038, 32.786203 ], [ -96.766787, 32.786434 ], [ -96.765951, 32.787143 ], [ -96.765835, 32.787249 ], [ -96.765678, 32.787388 ], [ -96.764536, 32.788306 ], [ -96.764346, 32.78848 ], [ -96.764122, 32.788646 ], [ -96.763919, 32.788801 ], [ -96.763654, 32.789009 ], [ -96.763422, 32.789175 ], [ -96.763165, 32.789336 ], [ -96.762925, 32.789475 ], [ -96.762686, 32.78962 ], [ -96.762094, 32.789906 ], [ -96.76168, 32.790073 ], [ -96.761374, 32.790191 ], [ -96.761084, 32.790289 ], [ -96.760836, 32.790365 ], [ -96.760588, 32.790435 ], [ -96.760315, 32.790504 ], [ -96.760076, 32.790554 ], [ -96.759835, 32.790609 ], [ -96.759612, 32.79065 ], [ -96.759394, 32.790672 ], [ -96.758558, 32.790768 ], [ -96.758198, 32.790797 ], [ -96.757598, 32.790818 ], [ -96.757332, 32.790819 ], [ -96.7563, 32.79086 ], [ -96.755943, 32.790885 ], [ -96.755751, 32.790895 ], [ -96.755026, 32.790929 ], [ -96.752323, 32.791052 ], [ -96.751709, 32.791075 ], [ -96.750573, 32.791134 ], [ -96.750194, 32.791148 ], [ -96.749902, 32.791162 ], [ -96.749745, 32.791162 ], [ -96.749298, 32.791175 ], [ -96.746474, 32.791297 ], [ -96.745743, 32.791306 ], [ -96.743244, 32.791342 ], [ -96.742958, 32.791348 ], [ -96.742856, 32.791348 ], [ -96.742154, 32.791352 ], [ -96.742047, 32.791348 ], [ -96.740846, 32.791362 ], [ -96.73822, 32.791396 ], [ -96.737377, 32.791427 ], [ -96.73616, 32.791437 ], [ -96.734742, 32.791466 ], [ -96.733147, 32.79149 ], [ -96.731899, 32.791508 ], [ -96.731106, 32.791536 ], [ -96.730729, 32.791559 ], [ -96.730548, 32.791583 ], [ -96.730353, 32.791618 ], [ -96.730005, 32.791688 ], [ -96.729775, 32.791742 ], [ -96.729391, 32.79184 ], [ -96.729189, 32.791893 ], [ -96.728819, 32.792023 ], [ -96.72861, 32.792107 ], [ -96.728459, 32.792177 ], [ -96.728289, 32.792254 ], [ -96.728052, 32.79238 ], [ -96.727837, 32.792501 ], [ -96.727539, 32.792686 ], [ -96.727263, 32.79287 ], [ -96.727094, 32.792991 ], [ -96.726643, 32.793287 ], [ -96.726519, 32.79337 ], [ -96.726195, 32.793557 ], [ -96.725776, 32.793771 ], [ -96.725351, 32.793965 ], [ -96.724961, 32.794123 ], [ -96.724441, 32.794291 ], [ -96.723852, 32.794433 ], [ -96.723461, 32.794495 ], [ -96.72299, 32.794547 ], [ -96.722763, 32.794567 ], [ -96.721011, 32.79468 ], [ -96.719185, 32.794789 ], [ -96.717983, 32.794857 ], [ -96.717151, 32.794904 ], [ -96.716763, 32.794908 ], [ -96.716554, 32.794911 ], [ -96.716319, 32.794915 ], [ -96.715705, 32.794904 ], [ -96.715287, 32.794883 ], [ -96.714831, 32.794845 ], [ -96.714484, 32.794803 ], [ -96.714228, 32.794767 ], [ -96.713727, 32.794683 ], [ -96.713225, 32.794587 ], [ -96.712023, 32.794341 ], [ -96.711392, 32.794223 ], [ -96.710673, 32.794079 ], [ -96.710152, 32.793993 ], [ -96.709512, 32.793914 ], [ -96.708869, 32.793854 ], [ -96.708279, 32.793839 ], [ -96.707743, 32.793854 ], [ -96.703865, 32.793854 ], [ -96.703402, 32.793869 ], [ -96.700027, 32.793898 ], [ -96.699959, 32.793898 ], [ -96.699874, 32.793901 ], [ -96.69965, 32.793914 ], [ -96.699096, 32.793944 ], [ -96.698434, 32.794019 ], [ -96.698314, 32.794041 ], [ -96.697934, 32.794109 ], [ -96.697416, 32.794213 ], [ -96.696719, 32.794364 ], [ -96.696397, 32.794454 ], [ -96.695808, 32.794604 ], [ -96.69554, 32.794665 ], [ -96.69445, 32.79495 ], [ -96.691949, 32.795602 ], [ -96.691262, 32.795783 ], [ -96.688891, 32.796383 ], [ -96.686974, 32.796881 ], [ -96.68514, 32.797342 ], [ -96.684318, 32.79755 ], [ -96.683376, 32.797789 ], [ -96.682575, 32.798011 ], [ -96.681911, 32.798195 ], [ -96.681625, 32.798265 ], [ -96.681344, 32.798333 ], [ -96.680529, 32.798533 ], [ -96.67927, 32.798814 ], [ -96.678532, 32.798997 ], [ -96.677912, 32.799166 ], [ -96.677292, 32.799363 ], [ -96.67663, 32.799638 ], [ -96.676428, 32.79973 ], [ -96.676127, 32.79987 ], [ -96.675565, 32.800117 ], [ -96.674688, 32.800611 ], [ -96.674281, 32.800814 ], [ -96.674166, 32.800877 ], [ -96.674037, 32.80095 ], [ -96.67387, 32.801031 ], [ -96.672699, 32.801597 ], [ -96.671604, 32.802112 ], [ -96.67001, 32.802854 ], [ -96.668565, 32.803524 ], [ -96.668195, 32.803697 ], [ -96.668087, 32.803751 ], [ -96.667757, 32.803914 ], [ -96.666568, 32.804456 ], [ -96.663921, 32.80569 ], [ -96.662432, 32.806392 ], [ -96.661788, 32.806694 ], [ -96.660472, 32.807302 ], [ -96.6575, 32.808691 ], [ -96.655774, 32.809511 ], [ -96.654933, 32.809894 ], [ -96.654842, 32.80993 ], [ -96.652271, 32.811128 ], [ -96.650619, 32.811899 ], [ -96.648606, 32.812842 ], [ -96.64646, 32.813843 ], [ -96.64494, 32.814555 ], [ -96.644754, 32.814643 ], [ -96.644614, 32.814708 ], [ -96.644498, 32.814765 ], [ -96.642738, 32.815579 ], [ -96.641658, 32.816088 ], [ -96.640879, 32.816465 ], [ -96.640409, 32.816699 ], [ -96.639858, 32.817011 ], [ -96.639087, 32.81747 ], [ -96.639029, 32.817501 ], [ -96.638997, 32.817523 ], [ -96.636643, 32.818922 ], [ -96.635379, 32.819662 ], [ -96.633731, 32.820625 ], [ -96.633457, 32.820788 ], [ -96.629953, 32.822826 ], [ -96.629777, 32.822924 ], [ -96.629656, 32.822992 ], [ -96.629588, 32.823026 ], [ -96.629494, 32.82309 ], [ -96.629059, 32.823341 ], [ -96.628707, 32.823541 ], [ -96.627747, 32.824126 ], [ -96.626736, 32.824722 ], [ -96.626342, 32.824984 ], [ -96.625984, 32.825199 ], [ -96.625247, 32.825637 ], [ -96.624707, 32.825963 ], [ -96.623076, 32.826907 ], [ -96.622386, 32.827295 ], [ -96.621455, 32.827843 ], [ -96.620667, 32.828288 ], [ -96.618568, 32.829528 ], [ -96.618284, 32.829693 ], [ -96.615216, 32.831511 ], [ -96.614576, 32.831883 ], [ -96.613986, 32.832193 ], [ -96.612715, 32.832904 ], [ -96.612528, 32.833007 ], [ -96.611725, 32.833358 ], [ -96.611374, 32.833512 ], [ -96.610939, 32.833711 ], [ -96.610748, 32.8338 ], [ -96.61062, 32.833855 ], [ -96.610328, 32.833955 ], [ -96.610043, 32.834081 ], [ -96.609344, 32.834391 ], [ -96.608867, 32.834586 ], [ -96.607183, 32.835217 ], [ -96.605942, 32.835749 ], [ -96.603844, 32.836592 ], [ -96.602164, 32.837297 ], [ -96.601936, 32.83739 ], [ -96.601646, 32.837509 ], [ -96.601269, 32.837677 ], [ -96.599928, 32.838216 ], [ -96.59861, 32.838747 ], [ -96.595864, 32.839827 ], [ -96.595651, 32.839917 ], [ -96.595581, 32.839947 ], [ -96.595515, 32.839973 ], [ -96.595332, 32.840047 ], [ -96.591576, 32.841533 ], [ -96.590726, 32.84187 ], [ -96.590345, 32.842003 ], [ -96.589695, 32.842274 ], [ -96.587907, 32.843007 ], [ -96.586466, 32.843641 ], [ -96.586216, 32.843733 ], [ -96.582296, 32.845276 ], [ -96.579718, 32.846341 ], [ -96.577556, 32.847208 ], [ -96.576204, 32.847754 ], [ -96.575168, 32.848173 ], [ -96.573804, 32.848725 ], [ -96.570002, 32.850248 ], [ -96.569762, 32.850344 ], [ -96.56947, 32.850465 ], [ -96.568632, 32.85081 ], [ -96.568359, 32.850924 ], [ -96.56813, 32.851022 ], [ -96.567231, 32.851384 ], [ -96.564811, 32.852395 ], [ -96.563286, 32.852984 ], [ -96.562079, 32.853456 ], [ -96.561019, 32.853879 ], [ -96.560836, 32.853953 ], [ -96.558309, 32.85494 ], [ -96.558151, 32.85501 ], [ -96.557976, 32.855085 ], [ -96.557721, 32.855195 ], [ -96.557587, 32.855255 ], [ -96.556515, 32.855708 ], [ -96.556305, 32.855787 ], [ -96.55545, 32.856152 ], [ -96.554981, 32.856374 ], [ -96.553832, 32.856915 ], [ -96.553261, 32.857238 ], [ -96.552647, 32.857596 ], [ -96.552535, 32.857675 ], [ -96.55212, 32.857947 ], [ -96.551683, 32.858255 ], [ -96.55155, 32.858351 ], [ -96.550816, 32.85887 ], [ -96.55052, 32.859112 ], [ -96.550459, 32.859162 ], [ -96.550118, 32.85944 ], [ -96.549848, 32.859681 ], [ -96.549546, 32.859951 ], [ -96.54706, 32.862386 ], [ -96.546467, 32.862886 ], [ -96.545843, 32.863361 ], [ -96.545731, 32.863447 ], [ -96.544814, 32.864081 ], [ -96.544289, 32.864409 ], [ -96.543824, 32.864693 ], [ -96.541474, 32.865929 ], [ -96.540866, 32.866248 ], [ -96.540401, 32.866493 ], [ -96.539398, 32.867012 ], [ -96.539042, 32.86719 ], [ -96.538468, 32.867461 ], [ -96.537589, 32.867882 ], [ -96.534878, 32.86909 ], [ -96.534048, 32.869431 ], [ -96.533388, 32.869732 ], [ -96.533151, 32.86984 ], [ -96.523445, 32.873953 ], [ -96.522777, 32.874252 ], [ -96.522553, 32.874353 ], [ -96.521952, 32.874623 ], [ -96.520273, 32.875315 ], [ -96.519038, 32.87589 ], [ -96.518511, 32.876137 ], [ -96.518448, 32.876165 ], [ -96.518336, 32.876216 ], [ -96.51818, 32.876289 ], [ -96.517044, 32.87683 ], [ -96.516621, 32.877043 ], [ -96.516597, 32.877055 ], [ -96.516177355237858, 32.877266976614962 ] ], [ [ -96.770252, 32.782203 ], [ -96.770014, 32.78251 ], [ -96.769849, 32.782752 ] ], [ [ -96.759096, 32.790956 ], [ -96.75879, 32.790969 ] ] ] } }
]
}
