{"type": "FeatureCollection", "features": [{"type": "Feature", "geometry": {"type": "MultiPolygon", "coordinates": [[[[-95.53075563399995, 32.21522138200004], [-95.53058657899999, 32.21538886500008], [-95.53035413299995, 32.215002757000036], [-95.52994510399998, 32.21496669100003], [-95.52887681099998, 32.21524708800007], [-95.52886008299998, 32.215393762000076], [-95.52625113999994, 32.21539480700005], [-95.52623342199996, 32.211922247000075], [-95.52944844199999, 32.21189910700008], [-95.52946805799996, 32.21341172100006], [-95.53075563399995, 32.21522138200004]]], [[[-95.50955487699997, 32.277714822000064], [-95.50870732599998, 32.27788991500006], [-95.50791984299997, 32.27853371600003], [-95.50783661899999, 32.27923405000007], [-95.50801157199999, 32.27944474200007], [-95.50928205999998, 32.279406093000034], [-95.51004347099996, 32.279077210000025], [-95.51067112699997, 32.278108399000075], [-95.51000322499999, 32.27763657100007], [-95.51169243899994, 32.277619644000026], [-95.51218427899994, 32.27824819500006], [-95.51250493799995, 32.277929794000045], [-95.51264479299994, 32.27820901200005], [-95.51231964799996, 32.27855950600008], [-95.51283853999996, 32.27896694000003], [-95.51287364499996, 32.27932880800006], [-95.51344499499999, 32.27972579900006], [-95.51343729899997, 32.281034669000064], [-95.51367695199997, 32.281943211000055], [-95.51336692499996, 32.28232531200007], [-95.51299067499997, 32.28355250800007], [-95.51343526499994, 32.28441801200006], [-95.51303130299999, 32.28569756400003], [-95.51210675799996, 32.28593342400006], [-95.51155664499998, 32.28638828000004], [-95.51153030499995, 32.28691049400004], [-95.51165290399996, 32.28726953900008], [-95.51207274199999, 32.28757403700007], [-95.51213141099998, 32.287956284000074], [-95.51166605399999, 32.28825287300003], [-95.51200174499996, 32.28850920300005], [-95.51291472199995, 32.288764196000045], [-95.51426223699997, 32.28848902800007], [-95.51483328599994, 32.28814296500008], [-95.51482898499995, 32.287791654000046], [-95.51551073299999, 32.28776979400004], [-95.51543250299994, 32.29180269900007], [-95.51170392899996, 32.29181806100007], [-95.51163951399997, 32.292057173000046], [-95.51198945599998, 32.292740096000045], [-95.51153692999998, 32.293649782000045], [-95.51161824499997, 32.29425377100006], [-95.51146309099994, 32.29467994200007], [-95.51079978899998, 32.29511123000003], [-95.51064991399994, 32.29562539900007], [-95.51025108999994, 32.295950721000054], [-95.51062901599994, 32.29680948200007], [-95.51045933999995, 32.29714707800002], [-95.51012656199998, 32.297089939000045], [-95.50982392799995, 32.297317459000055], [-95.50942122299995, 32.29713049500003], [-95.50994000199995, 32.29627739600005], [-95.50963799699997, 32.29611583700006], [-95.50903252399996, 32.297075749000044], [-95.50916213599999, 32.29615697400004], [-95.50871765299996, 32.296280918000036], [-95.50845693699995, 32.29596819300008], [-95.50861833299996, 32.29570757400006], [-95.50842803299997, 32.29549440200003], [-95.50861396899995, 32.29512926800004], [-95.50827834899997, 32.29496201100005], [-95.50718888599994, 32.295111234000046], [-95.50728875799996, 32.28565331800007], [-95.50678990799997, 32.27740156600004], [-95.50961401699999, 32.27728908300003], [-95.50955487699997, 32.277714822000064]]], [[[-95.49479168099998, 32.30126524000008], [-95.49473302099994, 32.30061295300004], [-95.49621251099995, 32.299106582000036], [-95.49621728399995, 32.29881459600006], [-95.49586979399999, 32.29857738000004], [-95.49578498399995, 32.29810854100003], [-95.49594460999998, 32.297212159000026], [-95.49641431099997, 32.29641550800005], [-95.49645932499999, 32.29601553500004], [-95.49434399999996, 32.295357962000026], [-95.49348159299996, 32.29437999000004], [-95.49267529699995, 32.29419815600005], [-95.49127755999996, 32.292884370000024], [-95.49126741699996, 32.292417846000035], [-95.49140815099997, 32.292116082000064], [-95.49126049899996, 32.29166450200006], [-95.49163405099995, 32.289983911000036], [-95.49889522299998, 32.289908783000044], [-95.49905215999996, 32.29781361500005], [-95.50725137599994, 32.29771981400006], [-95.50720231899999, 32.29689611300006], [-95.50748964899998, 32.297481823000055], [-95.50834280999999, 32.29737706000003], [-95.50866925499997, 32.29743965500006], [-95.50886192099995, 32.29766927800006], [-95.50864780799998, 32.297956835000036], [-95.50849880699997, 32.29868473400006], [-95.50884462499994, 32.299123372000054], [-95.51640744399998, 32.29904179000005], [-95.50996162699994, 32.30022857900008], [-95.51168421899996, 32.30170513400003], [-95.51283287999996, 32.30192416500006], [-95.51427405599998, 32.30176668300004], [-95.51435940799996, 32.30205636000005], [-95.51363124699998, 32.30231282800003], [-95.51258956999999, 32.30227134200004], [-95.51057590199997, 32.302994901000034], [-95.51097042399994, 32.30355909600007], [-95.51148151399997, 32.30481535000007], [-95.51383489399996, 32.305989785000065], [-95.51559698299997, 32.30627565700007], [-95.51652272099994, 32.306677603000026], [-95.51650861199994, 32.307041162000075], [-95.51459625599995, 32.306621119000056], [-95.51283236999996, 32.30601014300004], [-95.51245160699995, 32.30629259800003], [-95.51316967499997, 32.307120921000035], [-95.51425035799997, 32.307474339000066], [-95.51447699999994, 32.308332420000056], [-95.51543686499997, 32.30855654700002], [-95.51651647499995, 32.30822349400006], [-95.51650572499994, 32.30975819400004], [-95.50909178599994, 32.309782107000046], [-95.50892852199996, 32.30947167100004], [-95.50906849399996, 32.30893208400005], [-95.50856440199999, 32.308799656000076], [-95.50860198399994, 32.30853010100003], [-95.50818379899994, 32.30823336800006], [-95.50714890599994, 32.30764017200005], [-95.50645324499999, 32.30745039900006], [-95.50552653199998, 32.306852194000044], [-95.50486167199995, 32.306586207000066], [-95.50390953199997, 32.30641476100004], [-95.50381441499997, 32.30619889900004], [-95.50395836799999, 32.30604190400004], [-95.50393206699994, 32.30569888900004], [-95.50439597799999, 32.30539985900003], [-95.50440315899999, 32.305186038000045], [-95.50424657699995, 32.30496826500007], [-95.50324994599998, 32.30444969200005], [-95.50574538599994, 32.30444987000004], [-95.50524432399999, 32.30372320400005], [-95.50483592499995, 32.30380505000005], [-95.50412232899998, 32.303049884000075], [-95.50478011299998, 32.30235113500004], [-95.50431109999994, 32.30162283100003], [-95.50388498699994, 32.30184159500004], [-95.50409431899999, 32.30233622500003], [-95.50304133099996, 32.30366565500003], [-95.50256786199998, 32.30367866700004], [-95.50283230999997, 32.30307525100005], [-95.50250671799995, 32.302909975000034], [-95.50070520699995, 32.30416968800006], [-95.49912965899995, 32.30380124100003], [-95.49914097599998, 32.30404015100004], [-95.50003008699997, 32.30423410000003], [-95.50004832199994, 32.304414069000075], [-95.49905081099996, 32.304403766000064], [-95.49905276399994, 32.30176648400004], [-95.49594987999996, 32.30233014000004], [-95.49598371499997, 32.30197454700004], [-95.49479168099998, 32.30126524000008]]], [[[-95.46856138199996, 32.28024101900007], [-95.46759266199996, 32.28138971800007], [-95.46708112299996, 32.28168368300004], [-95.46697656899994, 32.28161857400005], [-95.46695975899996, 32.27963725400008], [-95.46852568199995, 32.27964468300007], [-95.46856138199996, 32.28024101900007]]], [[[-95.46807555199996, 32.28404674300003], [-95.46819196099995, 32.284855159000074], [-95.46913244999996, 32.28636835700007], [-95.46914288899995, 32.28778045800004], [-95.46904179099994, 32.288116401000025], [-95.46698121299994, 32.28810446400007], [-95.46698331499994, 32.28271756100003], [-95.46807555199996, 32.28404674300003]]], [[[-95.46834344899997, 32.291727319000074], [-95.46704003099995, 32.291754480000066], [-95.46699504499998, 32.288104807000025], [-95.46904179099994, 32.288116401000025], [-95.46864340599996, 32.291206285000044], [-95.46834344899997, 32.291727319000074]]], [[[-95.45794624899997, 32.30532434600008], [-95.45813965999997, 32.30628025300007], [-95.45994960699994, 32.30666637200005], [-95.46046868799999, 32.30640050000005], [-95.46084697899994, 32.30680428800002], [-95.46122342699994, 32.306833608000034], [-95.46274773899995, 32.30591424000005], [-95.46387002099999, 32.305957586000034], [-95.46538515599997, 32.306712884000035], [-95.46571311099996, 32.30716252000008], [-95.46578791799999, 32.30775925000006], [-95.45943131499996, 32.30769623300006], [-95.45942622599995, 32.308762923000074], [-95.45905681999994, 32.30845601300007], [-95.45828317399997, 32.308647937000046], [-95.45711817899996, 32.31082257500003], [-95.45709923599998, 32.31142711900003], [-95.45881296499994, 32.312407875000076], [-95.45919659299994, 32.312820688000045], [-95.45766543399998, 32.31328203700008], [-95.45721109599998, 32.31258541200003], [-95.45677656299995, 32.31225544400007], [-95.45586051499998, 32.312450401000035], [-95.45599260699998, 32.313030094000055], [-95.45512852599995, 32.313460622000036], [-95.45482855099999, 32.31346071400003], [-95.45514721899997, 32.31297757100003], [-95.45561609999999, 32.31268270400005], [-95.45557379699994, 32.31225834700007], [-95.45588745799995, 32.31176136300007], [-95.45564438099996, 32.31174372700008], [-95.45549874199997, 32.31106827600007], [-95.45585143899996, 32.31101541400005], [-95.45607255599998, 32.31077695600004], [-95.45609515299998, 32.31059922800006], [-95.45580341999994, 32.31044521100006], [-95.45570109699997, 32.31003402500005], [-95.45606664399997, 32.30976311100005], [-95.45580391999994, 32.30940683800003], [-95.45506475699995, 32.308935861000066], [-95.45549275499997, 32.30867035500006], [-95.45440482899994, 32.30772236700005], [-95.45189486999999, 32.30386156700007], [-95.45702556799995, 32.303839641000025], [-95.45794624899997, 32.30532434600008]]]]}, "properties": {"owner": "Upper Neches River Municipal", "acres": 911, "parcels": 12, "note": "Public water authority \u2014 owns and operates Lake Palestine", "closest": false, "label": "Upper Neches River Municipal\n911 acres"}}, {"type": "Feature", "geometry": {"type": "Polygon", "coordinates": [[[-95.51694504499994, 32.22688623400006], [-95.51681867199994, 32.21691046700005], [-95.52950845899994, 32.21681612000003], [-95.52957270099995, 32.22417292000006], [-95.53213649499997, 32.22417105100004], [-95.53197794999994, 32.23137544200006], [-95.52350854799994, 32.23141958000008], [-95.52351186499999, 32.23201669700006], [-95.51474836299997, 32.23199404800005], [-95.51467386199994, 32.22687756300007], [-95.51694504499994, 32.22688623400006]]]}, "properties": {"owner": "Texas Pecan Nursery Inc", "acres": 562, "parcels": 1, "note": "Private company", "closest": false, "label": "Texas Pecan Nursery Inc\n562 acres"}}, {"type": "Feature", "geometry": {"type": "Polygon", "coordinates": [[[-95.48886400699996, 32.28987611300005], [-95.48888379299996, 32.28826892500007], [-95.48822376299995, 32.288237768000045], [-95.48804693799997, 32.28941316100003], [-95.48729832799995, 32.289410273000044], [-95.48748764099997, 32.283280174000026], [-95.48786726299994, 32.28316849200007], [-95.48822865499994, 32.28329783200007], [-95.48880035599996, 32.283849178000025], [-95.48883398799995, 32.28450771100006], [-95.48852659199997, 32.285394591000056], [-95.48883021299997, 32.285468414000036], [-95.48948366899998, 32.284469708000074], [-95.48964236199998, 32.28454534900004], [-95.49097891299994, 32.28135348400008], [-95.49384176799998, 32.278639628000064], [-95.49420962699998, 32.278641734000075], [-95.49415332199999, 32.28005325600003], [-95.49874556099996, 32.280011915000046], [-95.49889774799999, 32.28990876200004], [-95.49163405099995, 32.289983911000036], [-95.49126049899996, 32.29166450200006], [-95.49140815099997, 32.292116082000064], [-95.49126741699996, 32.292417846000035], [-95.49127755999996, 32.292884370000024], [-95.49267529699995, 32.29419815600005], [-95.49348159299996, 32.29437999000004], [-95.49434399999996, 32.295357962000026], [-95.49645932499999, 32.29601553500004], [-95.49641431099997, 32.29641550800005], [-95.49594460999998, 32.297212159000026], [-95.49578498399995, 32.29810854100003], [-95.49586979399999, 32.29857738000004], [-95.49621728399995, 32.29881459600006], [-95.49621251099995, 32.299106582000036], [-95.49473302099994, 32.30061295300004], [-95.49479168099998, 32.30126524000008], [-95.49567546599997, 32.301770316000045], [-95.49455833699994, 32.301980136000054], [-95.49246758399994, 32.30279560500003], [-95.49116233299998, 32.304187392000074], [-95.49068068699995, 32.30430494500007], [-95.49004600999996, 32.30525729200008], [-95.48635694699999, 32.30611205300005], [-95.48633586199998, 32.305731209000044], [-95.48475842899995, 32.305785040000046], [-95.48660757299996, 32.302579312000034], [-95.48321913799998, 32.300810339000066], [-95.48502578699998, 32.29868085500004], [-95.48709734199997, 32.296712745000036], [-95.48770261399994, 32.29576637900004], [-95.48886400699996, 32.28987611300005]], [[-95.48911586499997, 32.288542549000056], [-95.48905606299996, 32.28885108900005], [-95.49025818599995, 32.28901302700007], [-95.49030121999999, 32.288594027000045], [-95.48911586499997, 32.288542549000056]]]}, "properties": {"owner": "Poteet Family Partnership No 2 LP", "acres": 538, "parcels": 3, "note": "Private partnership", "closest": false, "label": "Poteet Family Partnership No 2 LP\n538 acres"}}]}