{"type": "FeatureCollection", "features": [{"type": "Feature", "geometry": {"type": "MultiPolygon", "coordinates": [[[[-98.5266799089733, 32.5360620340017], [-98.5262155008205, 32.5354328399053], [-98.5243553981615, 32.5321318103742], [-98.5250045992217, 32.5304631650371], [-98.5255025933395, 32.5303727279989], [-98.5269733223356, 32.5242566268024], [-98.5278762803389, 32.5205975580855], [-98.5278507163188, 32.5203678320441], [-98.5460615808244, 32.5203624042571], [-98.5617961747007, 32.5200959495285], [-98.5658669927034, 32.52002668634], [-98.5674901811028, 32.5199932762637], [-98.5742912617764, 32.5198530619441], [-98.5781700167308, 32.5197729267618], [-98.5849549313989, 32.5196127164392], [-98.5847117009565, 32.5298764143493], [-98.5862658663411, 32.529881320283], [-98.6010992110212, 32.5300919296809], [-98.6022783083174, 32.5301695866443], [-98.603242421636, 32.5315027498493], [-98.6036116817631, 32.5320975379433], [-98.6039322758618, 32.5324190529889], [-98.6044571370356, 32.5331510341017], [-98.6051457061895, 32.5328801020218], [-98.6056720793466, 32.5333281710819], [-98.6070026236759, 32.5333343280256], [-98.6088223751259, 32.5333371339474], [-98.6166545520606, 32.5333157446048], [-98.6166619369882, 32.5320848843768], [-98.626259981363, 32.5321277989698], [-98.6262681052453, 32.530140766602], [-98.6407694468342, 32.5302315479918], [-98.6407570920206, 32.5333768175738], [-98.640442986951, 32.5335089546119], [-98.6402742189138, 32.5335830066329], [-98.6401085208775, 32.5336618756546], [-98.6399460828425, 32.5337454696771], [-98.6397870938085, 32.5338336927002], [-98.6396317337757, 32.5339264417241], [-98.6394801857441, 32.5340236107486], [-98.6393326247138, 32.5341250877738], [-98.6391892206847, 32.5342307547995], [-98.6390501386569, 32.5343404898258], [-98.6327905524182, 32.5394498650413], [-98.6326807683963, 32.539536600062], [-98.6325677173734, 32.5396202710824], [-98.6324515193495, 32.5397007901023], [-98.6323322953247, 32.5397780711218], [-98.632210173299, 32.5398520321407], [-98.6320852812725, 32.5399225961591], [-98.631957750245, 32.5399896871771], [-98.6318277132167, 32.5400532361945], [-98.6316953101876, 32.5401131762112], [-98.6315606781577, 32.5401694432275], [-98.631423962127, 32.5402219772431], [-98.6312853040957, 32.5402707262581], [-98.6311448510637, 32.5403156342725], [-98.6302740118645, 32.5405804703591], [-98.6299518707911, 32.5406834733921], [-98.6296338527192, 32.5407952914266], [-98.629320292649, 32.5409158034624], [-98.6290115195805, 32.5410448844996], [-98.6287078645137, 32.5411823975382], [-98.6284096434488, 32.541328197578], [-98.6281171753858, 32.5414821286191], [-98.6278307663248, 32.5416440316615], [-98.6275507212658, 32.541813732705], [-98.627277334209, 32.5419910537496], [-98.6270108951543, 32.5421758077953], [-98.6266429200792, 32.5424395408599], [-98.6261117519476, 32.542434378882], [-98.6261106599707, 32.5428210149535], [-98.6250510447546, 32.5435804331398], [-98.6249365327311, 32.5436597201594], [-98.6248189137066, 32.5437356731785], [-98.6246983216812, 32.5438082051971], [-98.6245748966549, 32.5438772322152], [-98.6244487786276, 32.5439426762328], [-98.6243201145995, 32.5440044612498], [-98.6241890505706, 32.5440625152662], [-98.624055739541, 32.544116773282], [-98.6239203315106, 32.5441671722972], [-98.6237829854794, 32.5442136533117], [-98.6236438584476, 32.5442561653256], [-98.6235031094152, 32.5442946563388], [-98.6233609013821, 32.5443290843513], [-98.6232173953484, 32.5443594093631], [-98.6230727583143, 32.5443855953743], [-98.6229271562796, 32.5444076143846], [-98.6227807582445, 32.5444254393942], [-98.622633729209, 32.5444390504031], [-98.6224862411731, 32.5444484314113], [-98.6223384611369, 32.5444535734186], [-98.6221905611004, 32.5444544664252], [-98.6220427090636, 32.5444511134309], [-98.6218950790267, 32.544443517436], [-98.6217478349896, 32.5444316864401], [-98.6216011509523, 32.5444156344435], [-98.6214551939151, 32.5443953784461], [-98.6213101298777, 32.5443709444478], [-98.6171235997966, 32.5436029684869], [-98.6168273477199, 32.5435443684889], [-98.6165334776432, 32.5434777094893], [-98.6162422985668, 32.5434030594881], [-98.6159541124906, 32.5433204994853], [-98.6156692184147, 32.5432301124809], [-98.6153879113392, 32.543131994475], [-98.6151104872643, 32.5430262444674], [-98.6124340795385, 32.5419617373863], [-98.6108562121106, 32.5413341223385], [-98.6110741171408, 32.5409410732564], [-98.6098523928095, 32.5404550982194], [-98.6096344837793, 32.5408481443015], [-98.6082046883916, 32.5402793812581], [-98.6020428057205, 32.5378279490712], [-98.6017174606327, 32.5377046610625], [-98.6013869645442, 32.5375916320559], [-98.6010517694551, 32.5374890140514], [-98.6007123293657, 32.5373969470491], [-98.6003691092759, 32.5373155580489], [-98.6000225771859, 32.5372449580508], [-98.599673203096, 32.5371852430548], [-98.5891952574076, 32.5355637802079], [-98.5887325442886, 32.5354875422137], [-98.5882722101697, 32.5354015852178], [-98.5878145420507, 32.5353059642199], [-98.587359820932, 32.53520073722], [-98.5869083268134, 32.5350859692183], [-98.5864603416952, 32.5349617312147], [-98.5860161395772, 32.5348281002092], [-98.5823092585908, 32.5336687291548], [-98.5795146168471, 32.5327945811139], [-98.5793469638026, 32.5327450461119], [-98.579177345758, 32.5327005741111], [-98.5790059737132, 32.5326612211112], [-98.5788330616684, 32.5326270381123], [-98.5786588296235, 32.5325980681145], [-98.5784834945788, 32.5325743461177], [-98.5783072765341, 32.5325559031219], [-98.5781303994896, 32.5325427601271], [-98.5779530824452, 32.5325349361333], [-98.5777755504012, 32.5325324401405], [-98.5775980243574, 32.5325352751487], [-98.5774207283142, 32.5325434371579], [-98.5772438862712, 32.532556916168], [-98.5770677192288, 32.5325756961791], [-98.5768924461869, 32.5325997521911], [-98.5767182921455, 32.5326290542041], [-98.5765454721049, 32.532663567218], [-98.5763742050649, 32.5327032462327], [-98.5762047030257, 32.5327480402483], [-98.5760371839873, 32.5327978962648], [-98.5758718529497, 32.5328527482821], [-98.575708922913, 32.5329125303002], [-98.5755485928772, 32.5329771653191], [-98.5753910708425, 32.5330465723387], [-98.5752365488087, 32.5331206653591], [-98.575085222776, 32.5331993493802], [-98.5749372847445, 32.533282527402], [-98.5741051745679, 32.5337681455278], [-98.5739640405378, 32.5338482595488], [-98.5738222105076, 32.5339274855696], [-98.573679688477, 32.5340058175902], [-98.5735364854463, 32.5340832516107], [-98.5733926084153, 32.5341597846311], [-98.5732480643841, 32.5342354116513], [-98.5731028633527, 32.5343101276715], [-98.5708776678715, 32.5354588189803], [-98.5707337968406, 32.5355360890007], [-98.5705932608108, 32.5356176430219], [-98.570456235782, 32.5357033780437], [-98.5703228937544, 32.5357931840661], [-98.5701934057281, 32.5358869480891], [-98.5700679347029, 32.5359845521125], [-98.569946637679, 32.5360858741365], [-98.5698296686564, 32.536190783161], [-98.5697171766351, 32.5362991491859], [-98.5696093046152, 32.5364108342113], [-98.5695061855966, 32.536525696237], [-98.5694079525794, 32.5366435912631], [-98.5693147285636, 32.5367643702894], [-98.5692266325492, 32.5368878793161], [-98.5691437755363, 32.537013963343], [-98.5688358124896, 32.5375028364468], [-98.5687698934805, 32.5376231134719], [-98.5686992264702, 32.5377414424969], [-98.5686238984586, 32.5378576895216], [-98.5685439894457, 32.5379717195462], [-98.5684595924316, 32.5380834055705], [-98.5683708024162, 32.5381926215945], [-98.5682777203995, 32.5382992426183], [-98.5681804523818, 32.5384031466417], [-98.5680791073628, 32.5385042166648], [-98.5679738033426, 32.5386023396875], [-98.5678646553214, 32.5386974027099], [-98.567751790299, 32.5387892977317], [-98.5676353362755, 32.5388779197532], [-98.5675154252511, 32.5389631697741], [-98.5673921912255, 32.5390449527946], [-98.5672657761989, 32.5391231708145], [-98.5671363211714, 32.539197739834], [-98.5670039771429, 32.5392685728528], [-98.5668688901135, 32.539335590871], [-98.5667312150833, 32.5393987158886], [-98.5665911090522, 32.5394578789056], [-98.5664487300203, 32.539513009922], [-98.5663042399876, 32.5395640489377], [-98.5661312219468, 32.5395973679513], [-98.5659569909055, 32.5396257829641], [-98.5657817378636, 32.5396492629761], [-98.5656056568211, 32.5396677809871], [-98.5654289457782, 32.5396813159972], [-98.5652517997349, 32.5396898540065], [-98.5650744166913, 32.5396933850148], [-98.5648969936473, 32.5396919040222], [-98.564719725603, 32.5396854140287], [-98.5645428135586, 32.5396739240342], [-98.564366451514, 32.5396574420388], [-98.5641908354692, 32.5396359910424], [-98.5640161624244, 32.539609592045], [-98.5638426253796, 32.5395782750467], [-98.5636704163348, 32.5395420750475], [-98.5634997292901, 32.5395010330473], [-98.5633307512456, 32.5394551930461], [-98.5631636712012, 32.539404609044], [-98.5629986761571, 32.5393493340409], [-98.5628359471132, 32.5392894290368], [-98.5626756660697, 32.5392249630318], [-98.5625180110266, 32.5391560070259], [-98.5623631589838, 32.539082638019], [-98.5622112799416, 32.5390049370112], [-98.5620625438999, 32.5389229910024], [-98.5580439157675, 32.5366271297511], [-98.558134624783, 32.5365132067261], [-98.5576293216407, 32.5362245066945], [-98.5575276906122, 32.5361685206885], [-98.5574238975833, 32.5361154596832], [-98.5573180575541, 32.5360653806785], [-98.5572102925246, 32.5360183436745], [-98.5571007234949, 32.5359743966711], [-98.5569894724649, 32.5359335946683], [-98.5568766674347, 32.5358959806663], [-98.5567624324044, 32.5358615976648], [-98.5566469003739, 32.5358304856641], [-98.5565301993434, 32.5358026776639], [-98.5564124623128, 32.5357782056645], [-98.5562938202821, 32.5357570986657], [-98.5561744092515, 32.5357393796676], [-98.556054361221, 32.5357250686702], [-98.5559338141905, 32.5357141806733], [-98.5558129041601, 32.5357067306772], [-98.5556917661299, 32.5357027236817], [-98.5556788481219, 32.5356219656673], [-98.5549665439506, 32.5357037627132], [-98.5548468589219, 32.5357192537212], [-98.5547278598936, 32.5357381567299], [-98.5546096818658, 32.5357604507391], [-98.5544924578383, 32.5357861097489], [-98.5543763218113, 32.5358151037593], [-98.5542614097848, 32.5358474027702], [-98.5541478477589, 32.5358829677818], [-98.5540357687334, 32.5359217577938], [-98.5539252977087, 32.5359637318063], [-98.5538165616845, 32.5360088378193], [-98.553709683661, 32.5360570278329], [-98.5536047876381, 32.5361082438469], [-98.5535019906159, 32.5361624308614], [-98.5534014105945, 32.5362195238763], [-98.5533031635738, 32.5362794598917], [-98.5532073575539, 32.5363421699074], [-98.5531141065347, 32.5364075839236], [-98.5530235125164, 32.53647562494], [-98.5529356814989, 32.5365462189569], [-98.5528507134823, 32.5366192809741], [-98.5527687034666, 32.5366947319916], [-98.5526897474518, 32.5367724830094], [-98.5526139314378, 32.5368524470275], [-98.5525413454247, 32.5369345340459], [-98.5524720694127, 32.5370186470645], [-98.5524061844016, 32.5371046930832], [-98.5523437653915, 32.5371925741022], [-98.5522848813823, 32.5372821891213], [-98.5522296023741, 32.5373734371406], [-98.5521779893669, 32.53746621116], [-98.5521301013608, 32.5375604101795], [-98.5520859933556, 32.5376559231991], [-98.5520457153514, 32.5377526432187], [-98.5520093133483, 32.5378504582384], [-98.5519768283462, 32.5379492592581], [-98.5519482983452, 32.5380489312778], [-98.5519237563451, 32.5381493632974], [-98.5519032283462, 32.5382504393171], [-98.5518867383482, 32.5383520443366], [-98.5515725474038, 32.5405642747597], [-98.5515100304148, 32.5410043978438], [-98.5514805104184, 32.5411854548786], [-98.5514435214201, 32.5413655249136], [-98.5513991084199, 32.5415443879486], [-98.5513473274178, 32.5417218229837], [-98.5512882414137, 32.5418976130188], [-98.5512219214078, 32.5420715420538], [-98.5511484504, 32.5422433980888], [-98.5510679183903, 32.5424129681237], [-98.5509804233787, 32.5425800451584], [-98.5508860743653, 32.5427444231929], [-98.55078498535, 32.5429059022271], [-98.5506772813329, 32.5430642832611], [-98.550563093314, 32.5432193712948], [-98.5504425612933, 32.5433709763281], [-98.5503158362709, 32.5435189123609], [-98.5501830692467, 32.5436629973933], [-98.5500444262209, 32.5438030564253], [-98.5499000761933, 32.5439389154567], [-98.5497501961642, 32.5440704094874], [-98.5495949711334, 32.5441973755177], [-98.5494345901011, 32.5443196595472], [-98.5493195210776, 32.5444022855675], [-98.5492020960534, 32.5444825005875], [-98.5490823880285, 32.544560255607], [-98.5489604670028, 32.5446355046262], [-98.5488364079765, 32.544708203645], [-98.5487102839496, 32.5447783066635], [-98.5485821719219, 32.5448457726815], [-98.5409723222741, 32.5487442357322], [-98.5378761826009, 32.5502859341515], [-98.5376903545603, 32.550374912176], [-98.5375010765185, 32.5504585101997], [-98.5373085634755, 32.5505366322225], [-98.5371130394315, 32.5506091902444], [-98.5369147263865, 32.5506761012653], [-98.5367138523405, 32.5507372862853], [-98.5365106472935, 32.5507926773044], [-98.5363053462457, 32.5508422103224], [-98.5360981801971, 32.5508858273394], [-98.5358893911477, 32.5509234803555], [-98.5356792160976, 32.5509551233704], [-98.5354678960468, 32.5509807233842], [-98.5352556749955, 32.5510002493971], [-98.5350427939436, 32.5510136784087], [-98.5348294988913, 32.5510209964193], [-98.5336200185935, 32.5510451234761], [-98.5271831490082, 32.5511733297782], [-98.5271770529935, 32.5509534907378], [-98.5271750525982, 32.5444036125251], [-98.5289298899838, 32.5435956002996], [-98.53223221577, 32.5430796460613], [-98.5277500853511, 32.5379388633031], [-98.5270368271253, 32.5371207231824], [-98.5275324342344, 32.5368952301192], [-98.527590699243, 32.5367987670988], [-98.5266799089733, 32.5360620340017]]], [[[-98.5861877692197, 32.5447846660439], [-98.585006065925, 32.5447431530873], [-98.582757064371, 32.544777676191], [-98.5820092581849, 32.5447579732197], [-98.5819994905436, 32.5341576802587], [-98.5857898325523, 32.5353431713142], [-98.5862491386742, 32.5354813503199], [-98.5867123577965, 32.5356098183237], [-98.5871792019191, 32.5357284973255], [-98.5876493860419, 32.5358373143253], [-98.5881226151649, 32.5359362003231], [-98.5885985992879, 32.536025095319], [-98.589077045411, 32.5361039453129], [-98.5995557580995, 32.5377255791599], [-98.5998816651834, 32.5377812861561], [-98.6002049202673, 32.5378471451542], [-98.600525087351, 32.5379230691545], [-98.6008417264345, 32.5380089531567], [-98.6011544075176, 32.5381046801608], [-98.6014627026002, 32.538210120167], [-98.6017661936821, 32.5383251291752], [-98.6077456073037, 32.5407040063565], [-98.6082080074291, 32.5408879533706], [-98.6082231895825, 32.543370393829], [-98.6064001611032, 32.54289522582], [-98.6054704618681, 32.5428083148441], [-98.6049523417522, 32.5430095919038], [-98.6035648914225, 32.5432294600045], [-98.6032165733622, 32.5436576330988], [-98.6026618552174, 32.5435316980995], [-98.6016400519397, 32.5431151370666], [-98.6007283917027, 32.5429232020705], [-98.5970095907765, 32.5428101792105], [-98.5946994772046, 32.5427976303081], [-98.5946566953205, 32.5448951186979], [-98.589568484058, 32.5448230449047], [-98.5861877692197, 32.5447846660439]]], [[[-98.6141903623902, 32.5488847175905], [-98.614155595042, 32.5432536965508], [-98.6148346762261, 32.5435237845713], [-98.6151311793062, 32.5436368055794], [-98.6154318303868, 32.5437416715858], [-98.6157363174679, 32.5438382745905], [-98.6160443215493, 32.5439265125935], [-98.6163555256311, 32.5440062945948], [-98.6166696037131, 32.5440775385943], [-98.6169862307951, 32.5441401695922], [-98.6211727848762, 32.5449081495531], [-98.6213394279191, 32.544936219551], [-98.6215070989619, 32.5449594875481], [-98.6216756050047, 32.5449779275442], [-98.6218447530473, 32.5449915185394], [-98.6220143470898, 32.5450002455337], [-98.622184192132, 32.545004097527], [-98.6223540941739, 32.5450030695195], [-98.6225238582155, 32.5449971645111], [-98.6226932872567, 32.5449863885018], [-98.6228621882975, 32.5449707514916], [-98.6230303663378, 32.5449502744805], [-98.6231976273777, 32.5449249804686], [-98.6233637814169, 32.5448948994558], [-98.6235286344556, 32.5448600634423], [-98.6236919984936, 32.5448205144279], [-98.6238536865309, 32.5447762964126], [-98.6240135105674, 32.5447274613968], [-98.6241712886032, 32.54467406338], [-98.6243268396381, 32.5446161693626], [-98.6244799816722, 32.5445538393444], [-98.6246305437054, 32.5444871473256], [-98.6247783477376, 32.5444161723061], [-98.6249232267689, 32.5443409932859], [-98.6250650137991, 32.5442616972651], [-98.6252035438284, 32.5441783752437], [-98.6253386618565, 32.5440911242218], [-98.6254702068835, 32.5440000421992], [-98.6261086250137, 32.543542493087], [-98.6260993582096, 32.546828759695], [-98.6253174140239, 32.5469531217517], [-98.6245829438481, 32.5470479578011], [-98.6242411837815, 32.5473437928706], [-98.6237103196736, 32.5477297469649], [-98.6233409736092, 32.5481766840635], [-98.6228773555328, 32.5488086012004], [-98.6193575886647, 32.5488395153585], [-98.6188174114767, 32.5479372682151], [-98.6181591393144, 32.5479430362446], [-98.6181702123718, 32.5488499214118], [-98.6141903623902, 32.5488847175905]]]]}, "properties": {"name": "Palo Pinto Mountains State Park", "acres": 4871, "counties": "Palo Pinto and Stephens", "source": "TPWD"}}]}