{"type": "FeatureCollection", "features": [{"type": "Feature", "geometry": {"type": "MultiPolygon", "coordinates": [[[[-100.26780860699995, 29.517342772000063], [-100.25835667699994, 29.518584931000078], [-100.25794332899994, 29.516418095000063], [-100.25956542699998, 29.51601469900004], [-100.26741684499996, 29.515290090000065], [-100.26780860699995, 29.517342772000063]]], [[[-100.27483502599995, 29.518349804000025], [-100.27196176899997, 29.517915234000043], [-100.27145639599996, 29.515267847000075], [-100.27744899499999, 29.516258348000065], [-100.27783414399994, 29.51827529700006], [-100.27483502599995, 29.518349804000025]]], [[[-100.25838279999999, 29.518721870000036], [-100.26783452399997, 29.517478562000065], [-100.26894255299999, 29.523283737000042], [-100.27287209799994, 29.52268360900007], [-100.27198938199996, 29.51805987800003], [-100.27449566199999, 29.51846762300005], [-100.27747041599997, 29.518473672000027], [-100.27927095299998, 29.51800932900005], [-100.28034565499996, 29.51705898800003], [-100.28224589099995, 29.517563264000046], [-100.28376256899998, 29.51768186700008], [-100.28577106199998, 29.52707220600007], [-100.28719373999996, 29.52926945200005], [-100.28890074299994, 29.534528334000072], [-100.29372426299994, 29.53815338100003], [-100.30155876099997, 29.539427845000034], [-100.30471678799995, 29.541092915000036], [-100.33142826399995, 29.54129022500007], [-100.33124817499998, 29.56271027500003], [-100.33192810499997, 29.564619935000053], [-100.33008657099998, 29.564748964000046], [-100.32776755099997, 29.56555528000007], [-100.32402881299998, 29.567433036000068], [-100.32252660799998, 29.56905361300005], [-100.32151557799995, 29.570551828000077], [-100.32007679199995, 29.573620807000054], [-100.31601446099995, 29.574757414000032], [-100.31339561099998, 29.576663008000025], [-100.31170385899998, 29.57750204200005], [-100.30479668099997, 29.580428531000052], [-100.29956985299998, 29.58234986100007], [-100.30129397899998, 29.58656532300006], [-100.26668896599995, 29.597369971000035], [-100.26449462899996, 29.597848593000037], [-100.25474191299998, 29.60109755900004], [-100.25912207099998, 29.61181719900003], [-100.24369659399997, 29.61659581300006], [-100.24620830599997, 29.622743945000025], [-100.2443702050814, 29.623304484755398], [-100.24633087399997, 29.623304451000024], [-100.24627861099998, 29.628303594000045], [-100.25207352299998, 29.62838541800005], [-100.25399254299998, 29.630303626000057], [-100.25785066099996, 29.629933643000072], [-100.25749226799996, 29.691589488000034], [-100.25336958799994, 29.691472281000074], [-100.25331463799995, 29.705956825000044], [-100.24214119399994, 29.706032305000065], [-100.24197893899998, 29.71530864400006], [-100.23393400399999, 29.71524574700004], [-100.22782313799996, 29.715862268000024], [-100.22777945899998, 29.721589572000028], [-100.22692091399995, 29.72158594900003], [-100.22652509199997, 29.726316396000072], [-100.21877141499999, 29.726462936000075], [-100.21885935599994, 29.72497491200005], [-100.20721241099994, 29.72489022800005], [-100.20668572799997, 29.72669519200008], [-100.19718438999996, 29.72667563600004], [-100.19520511599995, 29.726940485000057], [-100.19404848699998, 29.726748936000035], [-100.18704929199998, 29.726705990000028], [-100.18676741199994, 29.74121972300003], [-100.17038265799994, 29.741201325000077], [-100.17036434799996, 29.734424115000024], [-100.15251710599995, 29.73433202600006], [-100.15255676199996, 29.74110429700005], [-100.13553133199997, 29.741104867000047], [-100.13560266499996, 29.726720771000032], [-100.14617557399998, 29.726686420000078], [-100.14635903999994, 29.714713704000076], [-100.11879031799998, 29.71463470200007], [-100.16042217499995, 29.701493277000054], [-100.15992574499995, 29.70028747500004], [-100.17076023799996, 29.700449469000034], [-100.17076236599996, 29.682399129000032], [-100.17129925499995, 29.676342523000073], [-100.17422353299997, 29.67541366200004], [-100.17235518999996, 29.67098439800003], [-100.17364692099994, 29.65640698800007], [-100.15716110699998, 29.66169052500004], [-100.15231101899997, 29.649737423000033], [-100.15198677199999, 29.649841406000064], [-100.14669751299999, 29.636872190000076], [-100.14674093299999, 29.63549653900003], [-100.14954557599998, 29.635564800000054], [-100.1496282636798, 29.625605527393862], [-100.14280706699998, 29.625565167000047], [-100.14278432499998, 29.578913552000074], [-100.12218158899998, 29.57866354600003], [-100.12207618199994, 29.56502068900005], [-100.13006439899999, 29.565025739000077], [-100.13770843399999, 29.565992891000064], [-100.13737053599999, 29.567107021000027], [-100.15069636199996, 29.57118920700003], [-100.15105070099997, 29.570307055000058], [-100.15249731699998, 29.570774709000034], [-100.15423176499996, 29.567441434000045], [-100.16742752699997, 29.57271187300006], [-100.16908664099998, 29.576897643000052], [-100.16621903099997, 29.582269946000054], [-100.16480860499996, 29.582942397000068], [-100.16921226799997, 29.59126978200004], [-100.18040650499995, 29.586746764000054], [-100.18384891499994, 29.593177169000057], [-100.19884523699994, 29.587115742000037], [-100.19869328799996, 29.586828609000065], [-100.20054703699998, 29.58655623100003], [-100.19827515899999, 29.57464068200005], [-100.21597314099995, 29.571892826000067], [-100.21431291699997, 29.56282452800008], [-100.23055631499994, 29.560361088000036], [-100.22915849499998, 29.553475891000062], [-100.24545250499995, 29.55103159300006], [-100.24684568899994, 29.55788857400006], [-100.26317020499994, 29.555408614000044], [-100.26037002099997, 29.541754646000072], [-100.25696680999994, 29.542259744000035], [-100.25473375099995, 29.531348855000033], [-100.25656743199994, 29.530867982000075], [-100.25569833999998, 29.52682275500007], [-100.25980861099998, 29.526195465000058], [-100.25838279999999, 29.518721870000036]], [[-100.23016974770738, 29.62606282304757], [-100.23065631999998, 29.627214181000056], [-100.23442826916951, 29.626085622429564], [-100.23016974770738, 29.62606282304757]], [[-100.20134043499996, 29.626092392000032], [-100.20325169099999, 29.630366088000073], [-100.21241360299996, 29.62760127200005], [-100.21178775393209, 29.625962839992535], [-100.1946466764972, 29.62586724185225], [-100.19472431599996, 29.626019135000035], [-100.20134043499996, 29.626092392000032]]]]}, "properties": {"name": "Silver Lake Ranch \u2014 future Silver Lake State Park", "part": "Acquired by TPWD", "acres_from_parcels": 54218, "acres_announced": 54000, "match_pct": 100.4, "parcels": 115, "blocks": 3, "counties": "Kinney and Edwards", "sellers": "Moody Foundation (Edwards); Libbie Shearn Moody Trust (Kinney)", "source": "Texas StratMap land parcels 2025, TxGIO"}}, {"type": "Feature", "geometry": {"type": "Polygon", "coordinates": [[[-100.24497893399996, 29.543140236000056], [-100.24438798399996, 29.54027554700008], [-100.24459577899995, 29.539299090000043], [-100.24687128799997, 29.538548393000042], [-100.24653675599995, 29.53774819000006], [-100.24866235399998, 29.537171434000072], [-100.25572239899998, 29.53617976000004], [-100.25696680999994, 29.542259744000035], [-100.26037002099997, 29.541754646000072], [-100.26317020499994, 29.555408614000044], [-100.24684568899994, 29.55788857400006], [-100.24545250499995, 29.55103159300006], [-100.23730559699999, 29.552253990000054], [-100.23591028299995, 29.545382877000065], [-100.24405950899995, 29.54417458900008], [-100.24387808899996, 29.54328147900003], [-100.24497893399996, 29.543140236000056]]]}, "properties": {"name": "Adjoining Moody family land", "part": "Adjoins, not part of the announced acquisition", "acres_from_parcels": 953, "parcels": 3, "counties": "Kinney", "source": "Texas StratMap land parcels 2025, TxGIO"}}]}