{"type": "FeatureCollection", "features": [{"type": "Feature", "geometry": {"type": "MultiPolygon", "coordinates": [[[[-93.6594049944141, 31.32858708734889], [-94.04178102499998, 31.209391381000046], [-94.34319991399997, 31.18694429100003], [-94.64578355199995, 31.114339017000077], [-95.24505702599998, 31.183789036000064], [-95.63786254699994, 31.198599608000052], [-95.76580369299995, 31.14068351000003], [-95.83706535099998, 30.983382463000055], [-95.89562920699996, 30.904895060000058], [-96.06896592099997, 30.84697935300005], [-96.28719320299996, 30.917418476000023], [-96.50616264199994, 30.89854499000006], [-96.62134063799994, 30.898833081000078], [-96.70183071999998, 30.977962262000062], [-96.68997190799996, 31.155648532000043], [-96.71292477999998, 31.254373487000066], [-96.78230638099996, 31.293904739000027], [-96.97913173399996, 31.33330469200007], [-97.12970157699999, 31.342883638000046], [-97.36131849699996, 31.342043627000066], [-97.52319742299994, 31.311568392000027], [-97.70767530199998, 31.241206340000076], [-97.90390528499995, 31.209896929000024], [-97.97368589899997, 31.238818620000075], [-97.96321319599997, 31.31787568900006], [-97.77958400599994, 31.457704741000043], [-97.06139756399995, 31.777008376000026], [-96.99864029499997, 31.83700384000008], [-96.94518000699998, 31.944752738000034], [-96.93363735599996, 32.05316777200005], [-96.94544935199997, 32.15168946000006], [-97.02747258599999, 32.210694912000065], [-97.32007481899996, 32.199981070000035], [-97.67019130299997, 32.09942486400007], [-97.86777846499996, 32.009107002000064], [-98.12354956199994, 31.937489608000078], [-98.35741322899997, 31.96415120100005], [-98.55958004699994, 32.138647906000074], [-98.62199527999996, 32.31503036000004], [-98.59028770799995, 32.47312443800007], [-98.19837407299997, 32.911651136000046], [-98.12769307999997, 32.96989258200006], [-98.09931906399999, 33.16690856900004], [-98.21190208999997, 33.283609857000044], [-98.45312394199999, 33.47709284500007], [-98.61282264499994, 33.52716723200007], [-98.86558348699998, 33.48367595800005], [-99.17948136399997, 33.37284505200006], [-99.30166105499995, 33.347670426000036], [-99.33627608599994, 33.33123391500004], [-99.50038096899999, 33.31083568400004], [-99.52544143199998, 33.29971334700008], [-99.72427157499999, 33.11126756900006], [-99.76770445599999, 33.00521539300007], [-99.68705344299997, 32.954775106000056], [-99.63797091699996, 32.903506417000074], [-99.64858930799994, 32.75889601700004], [-99.73849992299995, 32.63850943800003], [-99.96748613199998, 32.474878182000054], [-100.02073057999996, 32.46153178700007], [-100.08257439799996, 32.41279058500004], [-100.21254461399997, 32.38453489800003], [-100.33309789599997, 32.33403695800007], [-100.42316543799996, 32.32821331800005], [-100.55387277399996, 32.348522467000066], [-100.80339054999996, 32.35351970500005], [-101.00341319599994, 32.280505266000034], [-101.09863301199994, 32.23559574600006], [-101.18108698699996, 32.15668790800004], [-101.26833931299996, 32.139465596000036], [-101.27992202399997, 32.12875222500003], [-101.43335231499998, 32.08316067700002], [-101.63718334099997, 32.100964745000056], [-101.85502365399998, 32.09147899900006], [-101.97611474299998, 32.03341117200006], [-102.06254533499998, 31.924189467000076], [-102.00583742799995, 31.768912466000074], [-101.91676356899995, 31.588719155000035], [-101.84839522999994, 31.48648539900006], [-101.75334351699996, 31.451210569000068], [-101.63374551699997, 31.522230869000055], [-101.55407719899995, 31.749339530000043], [-101.44560936499994, 31.753847261000033], [-101.33566244899998, 31.731997097000033], [-101.35339661199998, 31.49441809500007], [-101.47657795799995, 31.212875025000073], [-101.56663138499994, 31.169571876000077], [-101.82811776399996, 31.15814799900005], [-102.09463349199996, 31.224919967000062], [-102.29998475499997, 31.294081790000064], [-102.41864225299997, 31.446278969000048], [-102.34776029099999, 31.541985401000034], [-102.25683116699997, 31.572763769000062], [-102.25106489099994, 31.717857305000052], [-102.35204289199999, 31.831398716000024], [-102.40946440299996, 31.98648232800008], [-102.40029938199996, 32.07903412700006], [-102.31147063699996, 32.149156247000064], [-102.12726748299997, 32.19739983900007], [-101.94787331899994, 32.32399697000005], [-101.79250426599998, 32.593762955000045], [-101.76341363999995, 32.67056935900007], [-101.73054711999998, 32.853433480000035], [-101.69637421899995, 33.20275651500003], [-101.74162968699994, 33.28516437400003], [-101.85794115199997, 33.279228131000025], [-101.92922955399996, 33.25754433700007], [-102.37590610599995, 33.07922825900005], [-102.50593797499994, 32.99753769100005], [-102.99418414499996, 32.49545572300008], [-103.0646414910146, 32.447156209205154], [-103.06470807312947, 32.795065830595036], [-103.01448821999998, 32.95931243700005], [-102.69431329199995, 33.181220762000066], [-102.29633916199998, 33.29486486900004], [-101.95931434199997, 33.31238925200006], [-101.90375696099994, 33.456042756000045], [-101.75873209399998, 33.56092963800006], [-101.62246525499995, 33.44231654500004], [-101.50893574699995, 33.10810060800003], [-101.41786885299996, 33.011566747000074], [-101.24828305299997, 32.95832484400006], [-100.93610435499994, 32.81941176200007], [-100.82493171699997, 32.65497540300004], [-100.65247864599996, 32.57717863200003], [-100.43214708399995, 32.56566097500007], [-100.33140813199998, 32.53865328300003], [-100.23901421099998, 32.53527328000007], [-100.07294640399999, 32.563369701000056], [-100.04331946299999, 32.59465991800005], [-100.03628050799995, 32.61980364900006], [-100.02521410399999, 32.781603320000045], [-100.04439216199995, 32.826645453000026], [-100.03175781599998, 32.90628186200007], [-99.90284684099998, 33.23778854400007], [-99.66041927599997, 33.53546271600004], [-99.41671980099994, 33.68753130400006], [-99.10784088799994, 33.73334366500006], [-98.74988996499997, 33.739821042000074], [-98.53466734399996, 33.72352075600003], [-98.38819284899995, 33.558452387000045], [-98.31435675299997, 33.43159493500008], [-98.05101968499997, 33.316661140000065], [-97.95466792599996, 33.219282304000046], [-97.96428111699998, 33.06179096400007], [-98.04470470499996, 32.90353556600007], [-97.93720530699994, 32.816045968000026], [-97.62856638199997, 32.62173074000003], [-97.54619907599994, 32.622271976000036], [-97.48864774399999, 32.780111619000024], [-97.45487621199999, 32.986953603000075], [-97.34905391699999, 33.07601913800005], [-96.93509522499994, 33.293501528000036], [-96.88766058799996, 33.35253477200007], [-96.94710839999999, 33.40166151200003], [-97.10162891899995, 33.41124767300005], [-97.26796637299998, 33.40091685300007], [-97.44659570899995, 33.44927779300008], [-97.54268633599997, 33.55688083300004], [-97.56814006199994, 33.73366047800005], [-97.48598005299999, 33.90121708600003], [-97.45788499568374, 33.901370256193196], [-97.450954, 33.891398], [-97.462857, 33.841772], [-97.453057, 33.828536], [-97.426493, 33.819398], [-97.372941, 33.819454], [-97.310843, 33.872461], [-97.25123913464819, 33.902277423481756], [-97.19227442926379, 33.90481293324466], [-97.180845, 33.895204], [-97.166824, 33.840395], [-97.1997, 33.827322], [-97.204827, 33.799908], [-97.172192, 33.737545], [-97.151257, 33.722608], [-97.121102, 33.717174], [-97.092414, 33.733214], [-97.047972, 33.817931], [-96.985567, 33.886522], [-96.97769292194002, 33.917018626185545], [-96.8982187780813, 33.921438473162574], [-96.88301, 33.868019], [-96.866438, 33.853149], [-96.761588, 33.824406], [-96.707274, 33.835398], [-96.67858, 33.892786], [-96.65864, 33.900081], [-96.615356, 33.881114], [-96.612925, 33.833939], [-96.49392233899994, 33.764914426000075], [-96.25595720699994, 33.655835815000046], [-95.87422069799999, 33.67292583500006], [-95.53806616399999, 33.80722659300005], [-95.17829664999994, 33.87140779200007], [-95.04850252807543, 33.87766486631304], [-95.039452, 33.860621], [-94.89098342646729, 33.7604942379703], [-95.05176460999996, 33.653263382000034], [-95.07715307499996, 33.58483339700007], [-95.05484579299997, 33.499419002000025], [-95.01138641799997, 33.526263216000075], [-94.90035931999995, 33.524443862000055], [-94.74385864599998, 33.443052511000076], [-94.48161474899996, 33.20196253100005], [-94.40749954599994, 33.04302643400007], [-94.40428942199998, 33.00202369900006], [-94.36968490399994, 32.97169515300004], [-94.25153755299999, 32.96907566600004], [-94.13238782299999, 32.995838968000044], [-94.10362735199999, 33.02959479700007], [-94.10821641399997, 33.060246423000024], [-94.09086796399998, 33.09418069800006], [-94.09211117399997, 33.11321800200005], [-94.04284604898788, 33.22067664881191], [-94.04272, 31.999265], [-94.01563, 31.979856], [-93.975377, 31.92366], [-93.92029, 31.888651], [-93.840029, 31.800596], [-93.812477, 31.715246], [-93.834924, 31.586211], [-93.798087, 31.534044], [-93.729613, 31.487922], [-93.695866, 31.409392], [-93.640805, 31.372546], [-93.6594049944141, 31.32858708734889]], [[-95.20286886899999, 32.679420761000074], [-94.96278237199994, 32.91849548500005], [-94.93376413999994, 32.992605414000025], [-94.91784677599998, 33.07088339000006], [-95.01106073199998, 33.107687516000055], [-95.16005496499997, 33.06586732400007], [-95.29186254199999, 33.062376905000065], [-95.48066768299998, 32.999910525000075], [-95.53702009399996, 32.93178816400007], [-95.54031196499994, 32.903162371000064], [-95.56508532599997, 32.883068413000046], [-95.68356689099994, 32.85480847400004], [-95.82480048099995, 32.88567909100004], [-96.00126200599999, 32.94615755700005], [-96.19119125099996, 32.839150708000034], [-96.27476947699995, 32.70180284300005], [-96.35758052099999, 32.64312156500006], [-96.45174172599997, 32.643483143000026], [-96.54619578099994, 32.56500814700007], [-96.59359770499998, 32.44696356700007], [-96.59387247699999, 32.35833061200003], [-96.50042544999997, 32.269440889000066], [-96.33629064099995, 32.28852782300004], [-96.26534520799999, 32.376834185000064], [-96.17000905399999, 32.553561803000036], [-96.10977842999995, 32.71070519700004], [-96.03870155699997, 32.74959893800008], [-95.96788002899996, 32.75892050700003], [-95.83897124399994, 32.69879785100005], [-95.76910182499995, 32.63909388500008], [-95.78972641299998, 32.60966685200003], [-95.86840456599998, 32.58217037000003], [-95.92582961099998, 32.518646501000035], [-95.93690913999995, 32.46907310900008], [-95.91587403999995, 32.37349928700007], [-95.87951127499997, 32.298941967000076], [-95.80467523499999, 32.27004763600007], [-95.68145297899997, 32.27656069000005], [-95.59969083599998, 32.32119988200003], [-95.48362745299994, 32.42512996200003], [-95.54983163399999, 32.52865470200004], [-95.52854404099998, 32.64688322400008], [-95.36271144799997, 32.67367391300007], [-95.29015641799998, 32.66030707800007], [-95.20286886899999, 32.679420761000074]], [[-95.98732453099996, 33.142823591000024], [-96.06898416099995, 33.27127169800008], [-96.36451158799997, 33.44988574000007], [-96.45954353299999, 33.46990477800006], [-96.62611366399994, 33.450672533000045], [-96.78075877699996, 33.37219539500006], [-96.81642116199998, 33.293537515000025], [-96.75722011599998, 33.16564984000007], [-96.60346082599995, 33.07690135400003], [-96.44985244299994, 33.02728880700005], [-96.31988232699996, 33.00709265300003], [-96.10695778899998, 33.01576155600003], [-96.01194307299994, 33.054465822000054], [-95.98732453099996, 33.142823591000024]], [[-101.63269581899999, 31.21642262000006], [-101.58486268699994, 31.22883416800005], [-101.54487189499997, 31.27197509000007], [-101.52725339399996, 31.334875846000045], [-101.56392127299995, 31.390300500000023], [-101.67529840999998, 31.421782551000035], [-101.83054485799994, 31.42271655500008], [-101.90547896899994, 31.45300712200003], [-101.97267213199996, 31.504321006000055], [-102.02800963999994, 31.51212315300006], [-102.11896760999997, 31.505272367000032], [-102.25720398599998, 31.431309329000044], [-102.27349942599994, 31.40202226100007], [-102.23651372199998, 31.34941589400006], [-102.14943088499996, 31.31991993400004], [-102.04776309999994, 31.298812351000038], [-101.91953446499997, 31.289190658000052], [-101.83837063699997, 31.254005307000057], [-101.77127223099995, 31.249226269000076], [-101.63269581899999, 31.21642262000006]]], [[[-103.83062427399994, 31.91219342200003], [-103.971258543629, 32.00012832793348], [-103.66000979607617, 32.00024462454935], [-103.83062427399994, 31.91219342200003]]], [[[-104.81259941799999, 31.87081407100004], [-104.67584818199998, 31.713037839000037], [-104.30665660599999, 31.511455598000055], [-104.16473494999997, 31.418232861000035], [-104.10214925199995, 31.357504391000077], [-104.11772818199995, 31.10791712500003], [-104.18143919499994, 30.90368232900005], [-104.18326053299995, 30.714261331000046], [-104.11448944599994, 30.578154648000066], [-103.82492933699996, 30.42376372700005], [-103.77399409099996, 30.340402468000036], [-103.75777424699999, 30.222344493000037], [-103.71054561299997, 30.106208207000066], [-103.58722127199997, 30.048908701000073], [-103.42361372899995, 30.05738395000003], [-103.00933695199996, 30.202855086000056], [-102.76752276199994, 30.318377489000056], [-102.57863751899998, 30.433582220000062], [-102.53886765399994, 30.52937358400004], [-102.46087235299996, 30.59704732000006], [-102.36277521199997, 30.619411117000027], [-102.25277872699996, 30.593552423000062], [-102.18643889599997, 30.48801063600007], [-102.05931164499998, 30.42010782400007], [-102.00052016599994, 30.28802236300004], [-101.93539037299996, 30.259247534000053], [-101.82695475399998, 30.277179630000035], [-101.73249904999994, 30.310539515000073], [-101.48409927499995, 30.048243151000065], [-101.1490644569676, 29.479609600948343], [-101.17409594699996, 29.512839497000073], [-101.235275, 29.524854], [-101.24913869499994, 29.624737937000077], [-101.31739890599994, 29.660586557000045], [-101.343743, 29.662047], [-101.40733845984306, 29.758428808235596], [-101.39955225199998, 29.769051770000033], [-101.42199856950411, 29.762045261355915], [-101.45543378459891, 29.77019018446528], [-101.45877162599999, 29.788888198000052], [-101.49363981165298, 29.770385739177872], [-101.53958635432836, 29.77062091314492], [-101.53731626199999, 29.799718123000048], [-101.54595273899997, 29.81150363200004], [-101.56981748899994, 29.794217326000023], [-101.57548162397937, 29.770804640417325], [-101.625958, 29.771063], [-101.64625787871036, 29.75436599204225], [-101.66345306999995, 29.769923420000055], [-101.67584414777843, 29.760137934376015], [-101.68711182799996, 29.770016879000025], [-101.73477847799995, 29.772551545000056], [-101.72404245999996, 29.84960107300003], [-101.76347843799999, 29.91144197400007], [-101.84247303299998, 29.944572863000076], [-101.93969715999998, 29.948059511000054], [-102.20383051199997, 30.011286752000046], [-102.30915684199994, 30.078846291000048], [-102.45500069399998, 30.07033584900006], [-102.54815619499999, 30.078178699000034], [-102.56366585199999, 30.057820709000055], [-102.60159774699997, 30.045733734000066], [-102.93381573399995, 29.816583223000066], [-103.18394024699995, 29.672299515000077], [-103.41278997199998, 29.582835412000065], [-103.51555575899994, 29.571799983000062], [-103.84732419799997, 29.724898987000074], [-104.04035083699995, 29.79466383500005], [-104.28250833699997, 29.84397827400005], [-104.51084195499999, 30.14141442600004], [-104.58259162699994, 30.145613592000075], [-104.68674936476992, 30.083633258186183], [-104.687296, 30.179464], [-104.70947429999995, 30.239113989000032], [-104.761634, 30.301148], [-104.82133254146778, 30.353514662511177], [-104.81247115599996, 30.36198540500004], [-104.81907058399997, 30.37498017400003], [-104.8570095549075, 30.38798639908001], [-104.85679032099995, 30.41224595700004], [-104.84865738499997, 30.418101517000025], [-104.86147477099996, 30.42852708600003], [-104.86850144799996, 30.493239621000043], [-104.89889696699998, 30.566523782000047], [-104.92093829299995, 30.588433499000075], [-104.92196063299997, 30.605326887000047], [-104.93502978799995, 30.601538893000054], [-104.97850208999995, 30.616980787000045], [-104.98867970599997, 30.661839730000054], [-105.00443441199997, 30.684472329000073], [-105.04694331986933, 30.685873497349572], [-105.11281608623977, 30.737258614522528], [-105.11371788599996, 30.74675299100005], [-105.12103074190189, 30.74366658957795], [-105.21761500899999, 30.805516501000056], [-105.265479, 30.802536], [-105.29252804999999, 30.82621504900004], [-105.30290678074186, 30.81887638459248], [-105.394627, 30.85892], [-105.40171997099998, 30.88867309400007], [-105.41696350499996, 30.90119865400004], [-105.49367558701064, 30.94762609957364], [-105.50141329699994, 30.96613816000007], [-105.51957888899994, 30.966151511000078], [-105.53360171999998, 30.98375634100006], [-105.55740248584632, 30.990359893842243], [-105.60178563999995, 31.08145647300006], [-105.64804267099998, 31.11571436500003], [-105.70841719178283, 31.136012567376724], [-105.72469521599999, 31.155253707000043], [-105.75127612758635, 31.165584487331785], [-105.869353, 31.288634], [-105.9023665060761, 31.301094265993395], [-105.90871626199998, 31.313971835000075], [-105.9237154081176, 31.312725261518526], [-105.94813660013595, 31.339313298628056], [-105.95479781899996, 31.364119852000044], [-106.00693, 31.392826], [-106.1362721159695, 31.42729493430355], [-106.17338002499997, 31.455596298000046], [-106.2068689995223, 31.467339649014136], [-106.23278856699994, 31.510012218000043], [-106.18907981899997, 31.61832045500006], [-106.06587035199999, 31.655615586000067], [-105.90066629299997, 31.60423710300006], [-105.77353847999996, 31.549584382000035], [-105.59224505899999, 31.580174963000047], [-105.44067065099995, 31.65142173600003], [-105.38943334599998, 31.768854563000048], [-105.42469872299995, 31.88932912000007], [-105.47887175999995, 31.94568145900007], [-105.52075982799994, 31.964865936000024], [-105.63507007399994, 31.978384904000052], [-105.84155699199994, 31.984436604000052], [-105.98195288886592, 32.00229043005515], [-104.81525928325189, 32.00047579422833], [-104.81259941799999, 31.87081407100004]]], [[[-94.04477695299994, 33.41710546300004], [-94.06362665899997, 33.40239931200006], [-94.37907661099996, 33.44892452400006], [-94.50192741999996, 33.58256692000003], [-94.57980682716153, 33.63318860531881], [-94.524055, 33.615765], [-94.490684, 33.625586], [-94.485875, 33.637867], [-94.464336, 33.598819], [-94.355945, 33.54318], [-94.252656, 33.586144], [-94.181805, 33.593217], [-94.066846, 33.568909], [-94.04345, 33.552253], [-94.04477695299994, 33.41710546300004]]], [[[-97.07049952899996, 30.505459909000024], [-97.02714299999997, 30.38730025600006], [-96.88743364199996, 30.323311834000037], [-96.84851824299994, 30.231091741000057], [-96.83150414099998, 30.049836128000038], [-96.86916963799996, 29.959709863000057], [-96.88282672799994, 29.874054553000065], [-96.91319130099998, 29.831384701000047], [-96.90602588299998, 29.765711117000023], [-96.91255235399996, 29.70906436200005], [-96.77576413699995, 29.496412083000052], [-96.73875261699999, 29.418978003000063], [-96.72422743099997, 29.33865694700006], [-96.81259295099994, 29.185783540000045], [-96.96401931899999, 29.098124978000044], [-97.11437923799997, 29.09986837400004], [-97.22020774099997, 29.082827076000058], [-97.35840402899998, 29.030229622000036], [-97.40929516099999, 28.713315513000055], [-97.53590809099995, 28.587556076000055], [-97.63353240699996, 28.436863720000076], [-97.78338264299998, 28.28982947000003], [-97.84015552599999, 28.267053480000072], [-97.90090329199995, 28.189443435000044], [-97.90610238399995, 28.118845450000038], [-97.83761888999999, 27.983806739000045], [-97.79463311599994, 27.940766417000077], [-97.65449294299998, 27.882202146000054], [-97.47224707599997, 27.839997322000045], [-97.39369521699996, 27.79660206400007], [-97.39366130299999, 27.774121240000056], [-97.34698, 27.725398], [-97.253955, 27.696696], [-97.29748512799995, 27.617409631000044], [-97.30350471999998, 27.588997762000076], [-97.34500100399998, 27.523234272000025], [-97.35038735799998, 27.481432812000037], [-97.37316110199998, 27.43959892400005], [-97.37253549199994, 27.410082698000053], [-97.41353586599996, 27.322119574000055], [-97.482859, 27.297915], [-97.508304, 27.275014], [-97.544437, 27.284175], [-97.546981, 27.290791], [-97.526625, 27.291808], [-97.517465, 27.30504], [-97.498126, 27.308602], [-97.502706, 27.322343], [-97.483877, 27.338628], [-97.483877, 27.351351], [-97.501688, 27.366618], [-97.609068, 27.285193], [-97.636549, 27.282139], [-97.639094, 27.253131], [-97.628916, 27.242953], [-97.54291, 27.229213], [-97.42414986388607, 27.264068929560302], [-97.43624857499998, 27.21153910700008], [-97.43344095799995, 27.237297855000065], [-97.44831828099996, 27.23443110900007], [-97.44088724899996, 27.20980723200006], [-97.45631388499999, 27.153908555000044], [-97.45108011899998, 27.141327680000074], [-97.44290903499996, 27.159119433000058], [-97.44651010999996, 27.123684703000038], [-97.46765116699999, 27.097901157000024], [-97.48835734799997, 27.10393410100005], [-97.50170116199996, 27.083031463000054], [-97.479042, 27.0628], [-97.48556415590974, 27.058947654471623], [-97.66003565499994, 27.19727643500005], [-97.88146837899995, 27.59771939500007], [-97.92784499199996, 27.633681531000036], [-97.99321690299996, 27.646332895000057], [-98.04639424799996, 27.631348642000034], [-98.07231899499999, 27.578275827000027], [-98.04335542599995, 27.415441222000027], [-97.87282682399996, 26.960949378000066], [-97.71637082299998, 26.678690606000032], [-97.52489744199994, 26.49728821800005], [-97.46690100199999, 26.46646214900005], [-97.48255135899996, 26.448507939000024], [-97.44396186999995, 26.454037344000028], [-97.42903412999999, 26.44630445200005], [-97.45509315699996, 26.402071620000072], [-97.43587470899996, 26.40252366200008], [-97.42782569599996, 26.418505340000024], [-97.39598958075243, 26.41288169278488], [-97.43599677799995, 26.381260535000024], [-97.40119147199994, 26.396576550000077], [-97.40528845899996, 26.377722404000053], [-97.38191198699997, 26.382221841000046], [-97.3851304513989, 26.36981885297847], [-97.40586829099999, 26.358317034000038], [-97.3900279619542, 26.35663905528613], [-97.391001, 26.332262], [-97.35150980755687, 26.357699309028888], [-97.36902593499997, 26.340742721000026], [-97.35953496599996, 26.337265623000064], [-97.35744451099998, 26.32287849000005], [-97.34448979699994, 26.350290913000038], [-97.33284733899995, 26.350918428000057], [-97.33667771031598, 26.332120906062027], [-97.35573552599999, 26.312660821000065], [-97.34983193699998, 26.29786696800005], [-97.65262957799996, 26.412958282000034], [-97.91043551799999, 26.530580586000042], [-98.10287317499996, 26.626542088000065], [-98.25071325699997, 26.716404159000035], [-98.35214377199998, 26.868405043000053], [-98.39093112199998, 27.02574997200003], [-98.38960207499997, 27.09650947700004], [-98.35769102599994, 27.184075668000048], [-98.34183318799995, 27.30943531400004], [-98.41570508399997, 27.39537936200003], [-98.59276188199999, 27.501338323000027], [-98.75127609499998, 27.56926300600003], [-98.99207552299998, 27.53201400900008], [-99.07802534899997, 27.584593681000058], [-99.11169746899998, 27.714321579000057], [-99.07967049399997, 27.877994305000072], [-98.95073856999994, 28.059835890000045], [-98.77784958899997, 28.192218240000045], [-98.61275850699997, 28.300574351000023], [-98.55955154799994, 28.409622571000057], [-98.45642591599994, 28.476680379000072], [-98.32668577399994, 28.465216929000064], [-98.20375101199994, 28.403183269000067], [-98.06502924499995, 28.348491585000033], [-97.91939765599994, 28.33684128400006], [-97.78263407199995, 28.360759389000066], [-97.72748197399994, 28.472340776000067], [-97.72689271199994, 28.690601921000052], [-97.64189430599998, 28.794868717000043], [-97.61360203699996, 28.868360187000064], [-97.63611047399996, 28.931321380000043], [-97.70911136899997, 28.989561278000053], [-97.84403103699998, 28.95087974100005], [-98.08306311599995, 28.907576559000063], [-98.26374457899999, 28.910204253000074], [-98.35415119299995, 28.959200418000023], [-98.40930402299995, 29.04937383300006], [-98.40165911399998, 29.126396747000058], [-98.22796173999996, 29.21008416500007], [-97.38385039799994, 29.217068735000055], [-97.28728327399995, 29.19100345100003], [-97.14648979099996, 29.18205593500005], [-97.10637388999999, 29.240348114000028], [-97.22192304899994, 29.39404737800004], [-97.19491176299994, 29.606623908000074], [-97.11709978099998, 29.819618802000036], [-97.08911525399998, 29.936061579000068], [-97.07226279999998, 30.02857866000005], [-97.07442744299999, 30.166608651000047], [-97.12127646599998, 30.24803778900008], [-97.23861815399994, 30.360200749000057], [-97.51185465699996, 30.44714073800003], [-97.62332804499994, 30.466868404000024], [-97.83361660699995, 30.381603880000057], [-98.03492670499998, 30.27878537400005], [-98.21142598999995, 30.218403710000075], [-98.19240541499994, 30.132329319000064], [-98.14674270399996, 30.088186249000046], [-98.03324447999995, 30.036582848000023], [-97.91769031299998, 30.021732344000043], [-97.89072830199996, 29.968240844000036], [-97.90711077499998, 29.898663258000056], [-97.82528854599997, 29.809041404000027], [-97.76018606299999, 29.712019009000073], [-97.65589963499997, 29.66456522900006], [-97.65411811499996, 29.62326034800003], [-97.73642581899998, 29.521939230000044], [-97.85368138899997, 29.462548020000042], [-98.01223242899994, 29.42779113000006], [-98.20541594799994, 29.37131258100004], [-98.39258456099998, 29.349220525000078], [-98.56497600099999, 29.385171120000052], [-98.75965874999997, 29.337392342000044], [-98.93088691699995, 29.319520173000058], [-99.07336268499995, 29.199910077000027], [-99.08569506699996, 29.091996411000025], [-99.08815163899999, 28.88679042700005], [-99.16608416299994, 28.597893015000068], [-99.23359931999994, 28.390326106000032], [-99.31026287999998, 28.090103030000023], [-99.42060853899994, 27.919140868000056], [-99.57823127399996, 27.72502398900008], [-99.60236158825745, 27.641529126823684], [-99.666175, 27.638324], [-99.66513097399996, 27.655085430000042], [-99.6992837254278, 27.663766220101664], [-99.76950111799994, 27.72719275600008], [-99.80650783271113, 27.74616200255648], [-99.81351510799999, 27.771471862000055], [-99.83149665619118, 27.765364528139877], [-99.87924858573457, 27.813307268561587], [-99.75322816599999, 28.001399475000028], [-99.67134418399996, 28.29767805700004], [-99.54407042799994, 28.579739919000076], [-99.34566661399998, 28.811732793000033], [-99.24903042499994, 28.861584013000027], [-99.19299359099995, 28.98380179700007], [-99.19101286399996, 29.131138708000037], [-99.08548032899995, 29.26219216100003], [-98.94956422799999, 29.405618446000062], [-98.79767488799996, 29.42970605900007], [-98.66902539599994, 29.466382147000047], [-98.55390846099999, 29.52597356600006], [-98.46352035599995, 29.554045230000042], [-98.38459668499996, 29.53898221700007], [-98.31796340899996, 29.43439141300007], [-98.28838563599999, 29.405963775000032], [-98.23608447599997, 29.415249784000025], [-98.20133452499994, 29.436597688000063], [-98.15345427499994, 29.48796259100004], [-98.13370609899994, 29.67388630100004], [-98.15686181199999, 29.788567148000027], [-98.19021419299997, 29.86269363300005], [-98.36861313999998, 29.944855442000062], [-98.43916213399996, 30.044948848000047], [-98.39439711599994, 30.186322261000043], [-98.35092445999999, 30.227050457000075], [-98.33285732099995, 30.362458728000036], [-98.26789581899999, 30.44388027000008], [-97.99264458899995, 30.539837848000047], [-98.03306676499994, 30.55672076500008], [-98.29666423999998, 30.543672511000068], [-98.33250353499994, 30.62226018100006], [-98.31114659099995, 30.71148060400003], [-98.24322270199997, 30.77164257700008], [-98.31346118299996, 30.839881010000056], [-98.41722372199996, 30.848330717000067], [-98.41913514399994, 30.947073808000027], [-98.16609835199995, 30.980011583000078], [-97.94692106799994, 30.97253783000008], [-97.61223654399998, 30.935869756000045], [-97.41599857599994, 30.887683159000062], [-97.23121914999996, 30.779840525000054], [-97.07049952899996, 30.505459909000024]]], [[[-97.20260584200466, 26.304334278051304], [-97.18688935199998, 26.25734007500006], [-97.18038091799997, 26.219497723000075], [-97.20260584200466, 26.304334278051304]]], [[[-97.18331070599999, 27.654261741000028], [-97.28294349199996, 27.46220482700005], [-97.33752418699999, 27.31930242100003], [-97.36545540599997, 27.207943756000077], [-97.37721993499997, 27.206854659000044], [-97.38525368899997, 27.211205321000023], [-97.37310769099997, 27.241341436000027], [-97.3737098951712, 27.269921405379343], [-97.36500527399994, 27.27249798300005], [-97.36667762086137, 27.29930124830571], [-97.35420967799996, 27.308195928000032], [-97.35996224599995, 27.353525984000044], [-97.32475258299996, 27.41763961600003], [-97.32560707599998, 27.43932617400003], [-97.236882, 27.598293], [-97.242643, 27.607458], [-97.231383, 27.632336], [-97.21966528399997, 27.630595138000047], [-97.21356176599994, 27.613387037000052], [-97.20167516699996, 27.64762395200006], [-97.19240545099996, 27.64876073100004], [-97.19347051199998, 27.662674992000063], [-97.18331070599999, 27.654261741000028]]], [[[-97.37749490099998, 26.965884937000055], [-97.38973213899999, 26.99631956500008], [-97.38420082899995, 27.128147900000045], [-97.39024469389612, 27.136684969905343], [-97.37277962599995, 27.202130155000077], [-97.37749490099998, 26.965884937000055]]], [[[-97.37021983823145, 27.28742273694283], [-97.37073494999999, 27.285553786000037], [-97.37077686792064, 27.28545000310881], [-97.37021983823145, 27.28742273694283]]], [[[-97.37870763999996, 26.388151789000062], [-97.39712500299999, 26.397400525000023], [-97.38405584799995, 26.411863952000033], [-97.38486456399994, 26.40171304100005], [-97.37187933299998, 26.396763469000064], [-97.37870763999996, 26.388151789000062]]], [[[-97.41529059799996, 26.432062777000056], [-97.42999244499998, 26.430578859000036], [-97.41513038099998, 26.437607442000058], [-97.41529059799996, 26.432062777000056]]], [[[-97.41665280999996, 26.442959306000034], [-97.42307258199997, 26.442427312000063], [-97.42301636999997, 26.444318274000068], [-97.41665280999996, 26.442959306000034]]], [[[-97.46417214199994, 26.454533255000058], [-97.46228310499998, 26.464005204000046], [-97.45591067199996, 26.460614169000053], [-97.45758034199997, 26.455296195000074], [-97.46417214199994, 26.454533255000058]]], [[[-99.04279931799994, 27.155620929000065], [-98.88442986199999, 27.071732050000037], [-98.80887736299997, 26.920719361000067], [-98.71575220999995, 26.77535593600004], [-98.55587689999999, 26.592938942000046], [-98.51729872099997, 26.52925263800006], [-98.45223792299998, 26.312858504000076], [-98.42983464448105, 26.202686032739578], [-98.44309235799994, 26.222319209000034], [-98.45571529790969, 26.21895538754582], [-98.58869938999999, 26.259085264000078], [-98.65226431184585, 26.25756731006103], [-98.705676, 26.27748], [-98.70077522499997, 26.286444275000065], [-98.71550168456301, 26.2891069592634], [-98.73804482699995, 26.325275994000037], [-98.807348, 26.369421], [-98.861354, 26.36599], [-98.92412380360913, 26.379787013233358], [-98.92446912999998, 26.392550098000072], [-98.93436630479427, 26.38203834932601], [-98.96631636999996, 26.398983585000053], [-98.98456119990529, 26.393071355521254], [-99.01581889080154, 26.399941900753884], [-99.02729813499997, 26.412050831000045], [-99.04817441026863, 26.407249807645194], [-99.105719, 26.43872], [-99.09336108099995, 26.47272169400003], [-99.09824389499994, 26.488936069000033], [-99.12270373999996, 26.52056373000005], [-99.15385743205607, 26.530764837593402], [-99.167996, 26.557799], [-99.16420765799995, 26.570334096000067], [-99.17868062499997, 26.59215798100007], [-99.17332478799995, 26.62259927200006], [-99.19138657492498, 26.633010801365405], [-99.21095297499994, 26.717556642000034], [-99.268613, 26.843213], [-99.32753015699996, 26.917313302000025], [-99.37971029930429, 26.935227441065933], [-99.39330318499998, 26.958321305000027], [-99.38150813999994, 26.97255585100004], [-99.38449123399994, 26.98226235100003], [-99.41477993799998, 27.015650493000066], [-99.44064129519, 27.015279239118794], [-99.45210881014964, 27.06125025748363], [-99.429879, 27.094323], [-99.43028181622795, 27.195323708816417], [-99.17441873399997, 27.211639492000074], [-99.04279931799994, 27.155620929000065]]]]}, "properties": {"class": "D0", "label": "Abnormally Dry", "colour": "#ffff00", "severity": 0}}, {"type": "Feature", "geometry": {"type": "MultiPolygon", "coordinates": [[[[-95.04850252807543, 33.87766486631304], [-95.17829664999994, 33.87140779200007], [-95.53806616399999, 33.80722659300005], [-95.87422069799999, 33.67292583500006], [-96.25595720699994, 33.655835815000046], [-96.49955030608274, 33.77269909976855], [-96.423362, 33.776365], [-96.36959, 33.716809], [-96.304675, 33.745901], [-96.220521, 33.74739], [-96.181704, 33.758504], [-96.170055, 33.76917], [-96.14807, 33.837799], [-95.949935, 33.857452], [-95.82468, 33.837726], [-95.763622, 33.847954], [-95.757156, 33.867293], [-95.599678, 33.934247], [-95.559414, 33.930179], [-95.544346, 33.880111], [-95.407795, 33.866308], [-95.287565, 33.873617], [-95.255541, 33.892047], [-95.2482, 33.912327], [-95.252906, 33.933648], [-95.226393, 33.961954], [-95.067253, 33.917351], [-95.04850252807543, 33.87766486631304]]], [[[-96.90224952699998, 33.92121607200005], [-96.94470360399998, 33.91886090300005], [-96.97769292194002, 33.917018626185545], [-96.97287, 33.935698], [-96.922114, 33.959579], [-96.907387, 33.950025], [-96.90224952699998, 33.92121607200005]]], [[[-97.19275284999998, 33.90478569800007], [-97.23482753799999, 33.90234493000003], [-97.25123913464819, 33.902277423481756], [-97.210921, 33.916064], [-97.19275284999998, 33.90478569800007]]], [[[-97.48202633999995, 33.90123906500003], [-97.56814006199994, 33.73366047800005], [-97.54268633599997, 33.55688083300004], [-97.44659570899995, 33.44927779300008], [-97.26796637299998, 33.40091685300007], [-97.10162891899995, 33.41124767300005], [-96.94710839999999, 33.40166151200003], [-96.88766058799996, 33.35253477200007], [-96.93509522499994, 33.293501528000036], [-97.34905391699999, 33.07601913800005], [-97.45487621199999, 32.986953603000075], [-97.48864774399999, 32.780111619000024], [-97.54619907599994, 32.622271976000036], [-97.62856638199997, 32.62173074000003], [-97.93720530699994, 32.816045968000026], [-98.04470470499996, 32.90353556600007], [-97.96428111699998, 33.06179096400007], [-97.95466792599996, 33.219282304000046], [-98.05101968499997, 33.316661140000065], [-98.31435675299997, 33.43159493500008], [-98.38819284899995, 33.558452387000045], [-98.53466734399996, 33.72352075600003], [-98.74988996499997, 33.739821042000074], [-99.10784088799994, 33.73334366500006], [-99.41671980099994, 33.68753130400006], [-99.66041927599997, 33.53546271600004], [-99.90284684099998, 33.23778854400007], [-100.03175781599998, 32.90628186200007], [-100.04439216199995, 32.826645453000026], [-100.02521410399999, 32.781603320000045], [-100.03628050799995, 32.61980364900006], [-100.04331946299999, 32.59465991800005], [-100.07294640399999, 32.563369701000056], [-100.23901421099998, 32.53527328000007], [-100.33140813199998, 32.53865328300003], [-100.43214708399995, 32.56566097500007], [-100.65247864599996, 32.57717863200003], [-100.82493171699997, 32.65497540300004], [-100.93610435499994, 32.81941176200007], [-101.24828305299997, 32.95832484400006], [-101.41786885299996, 33.011566747000074], [-101.50893574699995, 33.10810060800003], [-101.62246525499995, 33.44231654500004], [-101.75873209399998, 33.56092963800006], [-101.90375696099994, 33.456042756000045], [-101.95931434199997, 33.31238925200006], [-102.29633916199998, 33.29486486900004], [-102.69431329199995, 33.181220762000066], [-103.01448821999998, 32.95931243700005], [-103.06470807312947, 32.795065830595036], [-103.04355976186054, 34.472965679977], [-102.80508908699994, 34.510661467000034], [-102.50355340999994, 34.53681239600007], [-101.85387211999995, 34.55927131400006], [-101.57931652399998, 34.54454137400006], [-101.41104623999996, 34.42022947000004], [-101.35002008299995, 34.19982482200004], [-101.34471370299997, 34.10827909300008], [-101.27488831699998, 34.006102903000055], [-101.16254471699995, 33.99724276100005], [-101.10969607499999, 33.907439461000024], [-101.06721338899996, 33.71232972900003], [-101.01466619599995, 33.62244924100003], [-100.75812312999994, 33.57900931800003], [-100.58547739799997, 33.60684586200006], [-100.32083850099997, 33.624435935000065], [-99.75491005599997, 33.79747451600008], [-99.44612259999997, 33.854008161000024], [-99.12378451199999, 33.870654201000036], [-98.77667214199994, 33.85733004300005], [-98.38246731199996, 33.873087362000035], [-98.22845961699994, 33.95365510900007], [-98.07912132397283, 34.001895761409635], [-98.041117, 33.993456], [-97.983521, 34.001559], [-97.94573, 33.989839], [-97.953395, 33.936445], [-97.977859, 33.889929], [-97.877387, 33.850236], [-97.834333, 33.857671], [-97.785317, 33.890701], [-97.69311, 33.983699], [-97.671772, 33.99137], [-97.589598, 33.953554], [-97.597115, 33.917868], [-97.587441, 33.902479], [-97.555002, 33.897282], [-97.50096, 33.919643], [-97.45788499568374, 33.901370256193196], [-97.48202633999995, 33.90123906500003]]], [[[-100.23618269199994, 36.44780814300003], [-100.33019096999999, 36.39715646900004], [-100.39813834399996, 36.41241356000006], [-100.41646946499998, 36.47085300900005], [-100.41514521798403, 36.49945267270005], [-100.21651174144853, 36.49963545411656], [-100.23618269199994, 36.44780814300003]]], [[[-94.96278237199994, 32.91849548500005], [-95.20286886899999, 32.679420761000074], [-95.29015641799998, 32.66030707800007], [-95.36271144799997, 32.67367391300007], [-95.52854404099998, 32.64688322400008], [-95.54983163399999, 32.52865470200004], [-95.48362745299994, 32.42512996200003], [-95.59969083599998, 32.32119988200003], [-95.68145297899997, 32.27656069000005], [-95.80467523499999, 32.27004763600007], [-95.87951127499997, 32.298941967000076], [-95.91587403999995, 32.37349928700007], [-95.93690913999995, 32.46907310900008], [-95.92582961099998, 32.518646501000035], [-95.86840456599998, 32.58217037000003], [-95.78972641299998, 32.60966685200003], [-95.76910182499995, 32.63909388500008], [-95.83897124399994, 32.69879785100005], [-95.96788002899996, 32.75892050700003], [-96.03870155699997, 32.74959893800008], [-96.10977842999995, 32.71070519700004], [-96.17000905399999, 32.553561803000036], [-96.26534520799999, 32.376834185000064], [-96.33629064099995, 32.28852782300004], [-96.50042544999997, 32.269440889000066], [-96.59387247699999, 32.35833061200003], [-96.59359770499998, 32.44696356700007], [-96.54619578099994, 32.56500814700007], [-96.45174172599997, 32.643483143000026], [-96.35758052099999, 32.64312156500006], [-96.27476947699995, 32.70180284300005], [-96.19119125099996, 32.839150708000034], [-96.00126200599999, 32.94615755700005], [-95.82480048099995, 32.88567909100004], [-95.68356689099994, 32.85480847400004], [-95.56508532599997, 32.883068413000046], [-95.54031196499994, 32.903162371000064], [-95.53702009399996, 32.93178816400007], [-95.48066768299998, 32.999910525000075], [-95.29186254199999, 33.062376905000065], [-95.16005496499997, 33.06586732400007], [-95.01106073199998, 33.107687516000055], [-94.91784677599998, 33.07088339000006], [-94.93376413999994, 32.992605414000025], [-94.96278237199994, 32.91849548500005]]], [[[-97.12127646599998, 30.24803778900008], [-97.07442744299999, 30.166608651000047], [-97.07226279999998, 30.02857866000005], [-97.11709978099998, 29.819618802000036], [-97.19491176299994, 29.606623908000074], [-97.22192304899994, 29.39404737800004], [-97.10637388999999, 29.240348114000028], [-97.14648979099996, 29.18205593500005], [-97.28728327399995, 29.19100345100003], [-97.38385039799994, 29.217068735000055], [-98.22796173999996, 29.21008416500007], [-98.40165911399998, 29.126396747000058], [-98.40930402299995, 29.04937383300006], [-98.35415119299995, 28.959200418000023], [-98.26374457899999, 28.910204253000074], [-98.08306311599995, 28.907576559000063], [-97.84403103699998, 28.95087974100005], [-97.70911136899997, 28.989561278000053], [-97.63611047399996, 28.931321380000043], [-97.61360203699996, 28.868360187000064], [-97.64189430599998, 28.794868717000043], [-97.72689271199994, 28.690601921000052], [-97.72748197399994, 28.472340776000067], [-97.78263407199995, 28.360759389000066], [-97.91939765599994, 28.33684128400006], [-98.06502924499995, 28.348491585000033], [-98.20375101199994, 28.403183269000067], [-98.32668577399994, 28.465216929000064], [-98.45642591599994, 28.476680379000072], [-98.55955154799994, 28.409622571000057], [-98.61275850699997, 28.300574351000023], [-98.77784958899997, 28.192218240000045], [-98.95073856999994, 28.059835890000045], [-99.07967049399997, 27.877994305000072], [-99.11169746899998, 27.714321579000057], [-99.07802534899997, 27.584593681000058], [-98.99207552299998, 27.53201400900008], [-98.75127609499998, 27.56926300600003], [-98.59276188199999, 27.501338323000027], [-98.41570508399997, 27.39537936200003], [-98.34183318799995, 27.30943531400004], [-98.35769102599994, 27.184075668000048], [-98.38960207499997, 27.09650947700004], [-98.39093112199998, 27.02574997200003], [-98.35214377199998, 26.868405043000053], [-98.25071325699997, 26.716404159000035], [-98.10287317499996, 26.626542088000065], [-97.91043551799999, 26.530580586000042], [-97.65262957799996, 26.412958282000034], [-97.34983193699998, 26.29786696800005], [-97.34815190599994, 26.263441680000028], [-97.31558201099995, 26.272316575000048], [-97.33251164199999, 26.24685155800006], [-97.307031, 26.253126], [-97.32144901599997, 26.245642300000043], [-97.32001168399482, 26.23732196771213], [-97.33590672299994, 26.234913461000076], [-97.33673832499994, 26.207640277000053], [-97.34516117899994, 26.212483036000037], [-97.35015843299999, 26.19734440600007], [-97.33558628699996, 26.179390531000024], [-97.32565281299998, 26.223547568000072], [-97.29573794899994, 26.196400270000026], [-97.31052371799996, 26.15838680400003], [-97.28456850999999, 26.117914765000023], [-97.29782840099995, 26.128904909000028], [-97.31124088199994, 26.118610946000047], [-97.27147646499998, 26.085640513000044], [-97.20923584999997, 26.079350076000026], [-97.19857695459848, 26.068809495583142], [-97.20567291999998, 26.049168185000042], [-97.21430939699997, 26.062361318000058], [-97.22170228199997, 26.05145318900003], [-97.23941773999996, 26.064425070000027], [-97.23120087999996, 26.03782136500007], [-97.31922885499995, 25.989695133000055], [-97.32475253799998, 25.97363143900003], [-97.30908938799996, 25.976006088000076], [-97.29798098399999, 25.993769230000055], [-97.28086824899998, 25.994240346000026], [-97.25344056999995, 26.018513270000028], [-97.26052827999996, 26.00111061800004], [-97.24374360699994, 26.007143562000067], [-97.23798341199995, 25.998196187000076], [-97.24942750599996, 25.97026115500006], [-97.21858948599998, 25.97545295900005], [-97.20811719366577, 25.99184597026308], [-97.19828003299995, 25.981382908000057], [-97.16733222512373, 26.006949142968743], [-97.15882842399998, 26.00391823800004], [-97.17157153868554, 26.043665044763834], [-97.16197173699999, 26.046589451000045], [-97.16511504799996, 26.058247167000047], [-97.17907684199997, 26.046595172000025], [-97.18273, 26.053126], [-97.15642516599996, 26.06217440000006], [-97.14774890498767, 25.970467013144045], [-97.26802691058104, 25.95238172796163], [-97.28746767599995, 25.95969443900003], [-97.28533468446827, 25.94807785997472], [-97.33526840581185, 25.93464258288997], [-97.35187201799994, 25.95648667100005], [-97.51274386999995, 26.053847207000047], [-97.82936547899999, 26.225960979000035], [-97.87708229699996, 26.236407800000052], [-97.91832114199997, 26.203246913000044], [-97.92847585516434, 26.06367259236889], [-97.98434437799995, 26.06636673400004], [-98.01272967393555, 26.05627430139857], [-98.03020467999994, 26.06401115600005], [-98.044517, 26.043746], [-98.07250247349364, 26.048117856561007], [-98.08290092099998, 26.070555269000067], [-98.09622184799997, 26.059698638000043], [-98.12989800299994, 26.061701353000046], [-98.13671105399999, 26.072928010000055], [-98.14132956775553, 26.058869936216645], [-98.17699426699994, 26.072258530000056], [-98.18153425635707, 26.06515064005314], [-98.241664, 26.074544], [-98.28913876499996, 26.10286194200006], [-98.26834866199994, 26.11038071300004], [-98.28212735099999, 26.126339501000075], [-98.30635831399997, 26.12350136500004], [-98.30019569172042, 26.106640619425015], [-98.33146665799995, 26.127146311000047], [-98.33782194599996, 26.163794112000062], [-98.35621642099994, 26.150209973000074], [-98.36492919299997, 26.169313980000027], [-98.37985430246881, 26.1538209710931], [-98.42983464448105, 26.202686032739578], [-98.45223792299998, 26.312858504000076], [-98.51729872099997, 26.52925263800006], [-98.55587689999999, 26.592938942000046], [-98.71575220999995, 26.77535593600004], [-98.80887736299997, 26.920719361000067], [-98.88442986199999, 27.071732050000037], [-99.04279931799994, 27.155620929000065], [-99.17441873399997, 27.211639492000074], [-99.43028181622795, 27.195323708816417], [-99.452391, 27.264046], [-99.49747379762546, 27.27986962309099], [-99.49149352899997, 27.292269506000025], [-99.49753600999998, 27.30520514600005], [-99.536443, 27.312538], [-99.50805694799999, 27.340283200000044], [-99.487704, 27.409924], [-99.480219, 27.485796], [-99.541644, 27.605772], [-99.60236158825745, 27.641529126823684], [-99.59559402499997, 27.67598556200005], [-99.57823127399996, 27.72502398900008], [-99.42060853899994, 27.919140868000056], [-99.31026287999998, 28.090103030000023], [-99.23359931999994, 28.390326106000032], [-99.16608416299994, 28.597893015000068], [-99.08815163899999, 28.88679042700005], [-99.08569506699996, 29.091996411000025], [-99.07336268499995, 29.199910077000027], [-98.93088691699995, 29.319520173000058], [-98.75965874999997, 29.337392342000044], [-98.56497600099999, 29.385171120000052], [-98.39258456099998, 29.349220525000078], [-98.20541594799994, 29.37131258100004], [-98.01223242899994, 29.42779113000006], [-97.85368138899997, 29.462548020000042], [-97.73642581899998, 29.521939230000044], [-97.65411811499996, 29.62326034800003], [-97.65589963499997, 29.66456522900006], [-97.76018606299999, 29.712019009000073], [-97.82528854599997, 29.809041404000027], [-97.90711077499998, 29.898663258000056], [-97.89072830199996, 29.968240844000036], [-97.91769031299998, 30.021732344000043], [-98.03324447999995, 30.036582848000023], [-98.14674270399996, 30.088186249000046], [-98.19240541499994, 30.132329319000064], [-98.21142598999995, 30.218403710000075], [-98.03492670499998, 30.27878537400005], [-97.83361660699995, 30.381603880000057], [-97.62332804499994, 30.466868404000024], [-97.51185465699996, 30.44714073800003], [-97.23861815399994, 30.360200749000057], [-97.12127646599998, 30.24803778900008]], [[-97.54073430799997, 30.006423905000077], [-97.35279747599998, 30.01763566300008], [-97.27292278399995, 30.07639415500006], [-97.24193742899996, 30.19527037900008], [-97.27637448199994, 30.268855676000044], [-97.32475442699996, 30.316199681000057], [-97.40703287899998, 30.32735310100003], [-97.51462721599995, 30.303383722000035], [-97.67534513499999, 30.194275892000064], [-97.67034957599998, 30.109400163000032], [-97.62848689999998, 30.05817557900008], [-97.54073430799997, 30.006423905000077]], [[-98.77621855799998, 28.361122266000052], [-98.70448869199998, 28.391697503000046], [-98.64145879599994, 28.44355435600005], [-98.63073899499994, 28.55651447400004], [-98.74472003299996, 28.634840216000043], [-98.81645873299999, 28.61094749700004], [-98.86609278799995, 28.475942978000035], [-98.84983280399996, 28.387920880000024], [-98.77621855799998, 28.361122266000052]]], [[[-97.20159119299996, 26.035172058000057], [-97.22444123499997, 26.028845381000053], [-97.22586030199994, 26.031660628000054], [-97.1955728850403, 26.045777858363582], [-97.20159119299996, 26.035172058000057]]], [[[-97.18638635515939, 26.227447455536606], [-97.15819518699999, 26.06962831900006], [-97.16218944944785, 26.068526568163588], [-97.169842, 26.077853], [-97.18638635515939, 26.227447455536606]]], [[[-97.22207806593937, 26.007779434991495], [-97.22499817999994, 26.011271067000052], [-97.22335885176149, 26.013045012103593], [-97.22207806593937, 26.007779434991495]]], [[[-97.23008698899997, 26.02529389700004], [-97.23867768799994, 26.02413613600004], [-97.23811311299994, 26.025971006000077], [-97.23008698899997, 26.02529389700004]]], [[[-97.304462888873, 26.15561257295214], [-97.30799075699997, 26.15878353200003], [-97.30671988688162, 26.15960724389669], [-97.304462888873, 26.15561257295214]]], [[[-100.65771432199995, 35.03387167100004], [-100.24901980599998, 35.04345876000008], [-100.19302137799997, 35.02718903500005], [-100.12206721699994, 34.91892394400003], [-100.11269103899997, 34.871498548000034], [-100.13011018999998, 34.851252386000056], [-100.30251604499995, 34.73791119200007], [-100.33952907499997, 34.608678515000065], [-100.35150040999997, 34.472355382000046], [-100.13573123199996, 34.380300583000064], [-100.05209497899995, 34.27932569500007], [-100.12681031799997, 34.21273879900008], [-100.23172286999994, 34.16498606600004], [-100.41025035199999, 34.12634953400004], [-100.54167497299994, 34.13048542300004], [-100.64458227799997, 34.185771902000056], [-100.71439148299999, 34.30138256500004], [-100.78773996499996, 34.482319259000064], [-100.83260322199999, 34.66838035300003], [-100.80030666799996, 34.86817124700008], [-100.69714921299999, 35.01171831800008], [-100.65771432199995, 35.03387167100004]]], [[[-101.63269581899999, 31.21642262000006], [-101.77127223099995, 31.249226269000076], [-101.83837063699997, 31.254005307000057], [-101.91953446499997, 31.289190658000052], [-102.04776309999994, 31.298812351000038], [-102.14943088499996, 31.31991993400004], [-102.23651372199998, 31.34941589400006], [-102.27349942599994, 31.40202226100007], [-102.25720398599998, 31.431309329000044], [-102.11896760999997, 31.505272367000032], [-102.02800963999994, 31.51212315300006], [-101.97267213199996, 31.504321006000055], [-101.90547896899994, 31.45300712200003], [-101.83054485799994, 31.42271655500008], [-101.67529840999998, 31.421782551000035], [-101.56392127299995, 31.390300500000023], [-101.52725339399996, 31.334875846000045], [-101.54487189499997, 31.27197509000007], [-101.58486268699994, 31.22883416800005], [-101.63269581899999, 31.21642262000006]]], [[[-104.28250833699997, 29.84397827400005], [-104.04035083699995, 29.79466383500005], [-103.84732419799997, 29.724898987000074], [-103.51555575899994, 29.571799983000062], [-103.41278997199998, 29.582835412000065], [-103.18394024699995, 29.672299515000077], [-102.93381573399995, 29.816583223000066], [-102.60159774699997, 30.045733734000066], [-102.56366585199999, 30.057820709000055], [-102.54815619499999, 30.078178699000034], [-102.45500069399998, 30.07033584900006], [-102.30915684199994, 30.078846291000048], [-102.20383051199997, 30.011286752000046], [-101.93969715999998, 29.948059511000054], [-101.84247303299998, 29.944572863000076], [-101.76347843799999, 29.91144197400007], [-101.72404245999996, 29.84960107300003], [-101.73477847799995, 29.772551545000056], [-101.78164767899995, 29.79050180300004], [-101.78764183272601, 29.782234373617623], [-101.81349534902354, 29.785993020321133], [-101.80448246299994, 29.800662251000062], [-101.81997013899996, 29.811398718000078], [-101.82683659499997, 29.788838594000026], [-101.84985448299994, 29.807231159000025], [-101.87484838499995, 29.795811859000025], [-101.96372689729296, 29.799223734565697], [-101.96782020899997, 29.81341287300006], [-101.98103432199997, 29.816378800000052], [-101.98640541799995, 29.79887505800008], [-101.99762826099999, 29.806456770000068], [-102.01426034399998, 29.79836388800004], [-102.03542428899999, 29.80346795300005], [-102.03931528099997, 29.790568550000046], [-102.0573481535738, 29.78589485875333], [-102.116076, 29.792527], [-102.14725477654629, 29.805569734600326], [-102.16747388099998, 29.824744426000052], [-102.18010053299997, 29.82495041900006], [-102.18222150699995, 29.845523085000025], [-102.19619092999994, 29.836539471000037], [-102.22419081499999, 29.84055062500005], [-102.24487410899997, 29.846541607000063], [-102.24478255699995, 29.86257478300007], [-102.25561661558079, 29.850899759183935], [-102.26490890399998, 29.86719819600006], [-102.28054157530113, 29.86275024502988], [-102.32100785499995, 29.87792893900007], [-102.364647, 29.843624], [-102.38826097999998, 29.782107539000037], [-102.38738712921489, 29.761625067252968], [-102.486819, 29.786725], [-102.51606862599999, 29.782900991000076], [-102.51341723308391, 29.773845969532147], [-102.554915, 29.748966], [-102.56670492799998, 29.77072447200004], [-102.57406729599995, 29.75405424300004], [-102.58709067499996, 29.75008123400005], [-102.66545367267408, 29.73726153998763], [-102.67152520199994, 29.743920495000054], [-102.689738, 29.722349], [-102.71717448961513, 29.654609552733724], [-102.74154016799997, 29.635855821000064], [-102.74541990238626, 29.59312828690079], [-102.76750300199996, 29.59577669600003], [-102.76210138899995, 29.575287954000032], [-102.77301142499999, 29.572259083000063], [-102.77540991094808, 29.551352635730442], [-102.808692, 29.522319], [-102.83332, 29.408981], [-102.88387417199999, 29.350638478000064], [-102.88077475020675, 29.336674788073374], [-102.90785335999999, 29.258250308000072], [-102.8731765520394, 29.242446877841967], [-102.86721256334911, 29.224676550557284], [-102.89151882199997, 29.209137980000037], [-102.91476559099999, 29.216771189000042], [-102.9178094977295, 29.19402351458033], [-102.94355130299999, 29.188460407000036], [-102.95459103899998, 29.175770814000032], [-102.97271848499997, 29.18628602800004], [-102.99545408599994, 29.179694230000052], [-102.99776053467733, 29.158786494359752], [-103.0492230246328, 29.09838567286918], [-103.07474639699996, 29.092560803000026], [-103.08641937099998, 29.055506734000062], [-103.10061767999997, 29.058772115000068], [-103.11577541373431, 28.985135303755236], [-103.163865, 28.972099], [-103.19114046099997, 28.984972965000054], [-103.28636670437233, 28.991583696263568], [-103.29453404099996, 29.00435925800008], [-103.31601842299995, 29.007372867000072], [-103.31151707999999, 29.025418296000055], [-103.34056218899997, 29.021767629000067], [-103.34394201199996, 29.028088583000056], [-103.32821782799999, 29.039134042000057], [-103.34305700299996, 29.045104044000027], [-103.36032232599996, 29.020693791000042], [-103.383508, 29.024112], [-103.45153938999994, 29.071068782000054], [-103.471037, 29.075368], [-103.470518, 29.085108], [-103.503236, 29.11911], [-103.55539836499997, 29.158591301000058], [-103.627067, 29.163336], [-103.714867, 29.184137], [-103.75976700599995, 29.232916869000064], [-103.7685045537472, 29.226031350625153], [-103.78321977199994, 29.266060871000036], [-103.96688522748612, 29.299380537200825], [-104.042298585833, 29.324199034759072], [-104.08950344825163, 29.35170392202365], [-104.10858300999996, 29.374894193000046], [-104.11995080999998, 29.37170891900007], [-104.167506, 29.402928], [-104.21466213894959, 29.464004103537786], [-104.21254116699998, 29.483773298000074], [-104.22667202212317, 29.482564637434624], [-104.26665647699997, 29.516526292000037], [-104.30850371599996, 29.52450854600005], [-104.31314239099999, 29.53304011700004], [-104.32246919748171, 29.528311305276763], [-104.394351, 29.560535], [-104.45952753941638, 29.60408500600912], [-104.47714389599997, 29.626404844000035], [-104.5143690039329, 29.640729266821825], [-104.538569, 29.677396], [-104.54136264870365, 29.68704436099498], [-104.53165593599999, 29.691567513000052], [-104.54428664981695, 29.697142917142724], [-104.566055, 29.771379], [-104.61154335099997, 29.842288134000057], [-104.679877, 29.920946], [-104.67585916599995, 29.95507539700003], [-104.68396158499996, 29.958394183000053], [-104.693592, 30.019077], [-104.68674936476992, 30.083633258186183], [-104.58259162699994, 30.145613592000075], [-104.51084195499999, 30.14141442600004], [-104.28250833699997, 29.84397827400005]]]]}, "properties": {"class": "D1", "label": "Moderate Drought", "colour": "#fcd37f", "severity": 1}}, {"type": "Feature", "geometry": {"type": "MultiPolygon", "coordinates": [[[[-100.41646946499998, 36.47085300900005], [-100.39813834399996, 36.41241356000006], [-100.33019096999999, 36.39715646900004], [-100.23618269199994, 36.44780814300003], [-100.21651174144853, 36.49963545411656], [-100.000406, 36.499702], [-100.00156834399996, 36.33674200200005], [-100.19885398799994, 36.31316863300003], [-100.27212275199997, 36.29283840000005], [-100.33623449499999, 36.24323483400008], [-100.28061404699997, 36.18021013600003], [-100.33568579499996, 36.15339053100007], [-100.16401444599995, 36.10370797400003], [-100.14801269099996, 36.05933972400004], [-100.14459394899995, 35.98097474800005], [-100.32342245699999, 35.94972115300004], [-100.52225675099999, 35.996051168000065], [-100.89936436499994, 35.99687257000005], [-101.07902947999997, 35.904570170000056], [-101.21240421199997, 35.93595600500004], [-101.27397498399995, 36.00703095400007], [-101.38715945899997, 36.077270863000024], [-101.53799647099999, 35.99690540600005], [-101.64433397899995, 35.955400015000066], [-101.92363754999997, 35.94379141100006], [-102.17619204799996, 35.99484785900006], [-102.32844449299995, 36.16186337000005], [-102.41349163699999, 36.468493453000065], [-102.3676060986569, 36.50034334007484], [-101.54944128388978, 36.49948874212147], [-101.49929144299995, 36.41971971600003], [-101.37547241799996, 36.28058580800007], [-101.28950466499998, 36.218412157000046], [-101.23723254399994, 36.16802374700006], [-101.00760526999994, 36.17626290000004], [-100.84632332199999, 36.23409925800007], [-100.85117566299999, 36.32548268600004], [-100.90400227899994, 36.38908804400006], [-100.91495485299998, 36.44524980600005], [-100.88420766237516, 36.49968194020196], [-100.41514521798403, 36.49945267270005], [-100.41646946499998, 36.47085300900005]]], [[[-98.07912132397283, 34.001895761409635], [-98.22845961699994, 33.95365510900007], [-98.38246731199996, 33.873087362000035], [-98.77667214199994, 33.85733004300005], [-99.12378451199999, 33.870654201000036], [-99.44612259999997, 33.854008161000024], [-99.75491005599997, 33.79747451600008], [-100.32083850099997, 33.624435935000065], [-100.58547739799997, 33.60684586200006], [-100.75812312999994, 33.57900931800003], [-101.01466619599995, 33.62244924100003], [-101.06721338899996, 33.71232972900003], [-101.10969607499999, 33.907439461000024], [-101.16254471699995, 33.99724276100005], [-101.27488831699998, 34.006102903000055], [-101.34471370299997, 34.10827909300008], [-101.35002008299995, 34.19982482200004], [-101.41104623999996, 34.42022947000004], [-101.57931652399998, 34.54454137400006], [-101.85387211999995, 34.55927131400006], [-102.50355340999994, 34.53681239600007], [-102.80508908699994, 34.510661467000034], [-103.04355976186054, 34.472965679977], [-103.04181338250939, 35.5095400828021], [-103.00253944599996, 35.488937657000065], [-102.94614376699997, 35.112263780000035], [-102.87115096599996, 34.94198021600005], [-102.81849028299996, 34.93936836900008], [-102.73016366999997, 34.85915143400007], [-102.21090455399997, 34.83169817400005], [-101.93704003099998, 34.84393853900008], [-101.67592499399996, 34.80261138700007], [-101.47791472199998, 34.73202894700006], [-101.26493649399998, 34.67478728100008], [-101.11366972599996, 34.56252715900007], [-101.13562246699996, 34.37830514900003], [-101.12911140999995, 34.26061467900007], [-101.10879972999999, 34.182733796000036], [-100.99202926199996, 34.09523149200004], [-100.92404923699996, 34.01900805500003], [-100.88467897699996, 33.87620243400005], [-100.89380606199995, 33.74477932000008], [-100.79512831299996, 33.68264717200003], [-100.58738784599996, 33.663365283000076], [-100.36623037199996, 33.69656278900004], [-100.18693861499997, 33.78677221500004], [-100.06076560399998, 33.83747870600007], [-99.62142881699998, 33.995699494000064], [-99.34907811799997, 34.11823936800005], [-99.19334752599997, 34.205247763000045], [-98.966743, 34.201185], [-98.858419, 34.152732], [-98.76557, 34.136376], [-98.700182, 34.135995], [-98.652347, 34.161029], [-98.599789, 34.160571], [-98.553717, 34.13366], [-98.504182, 34.072371], [-98.475066, 34.064269], [-98.400494, 34.121778], [-98.383222, 34.147806], [-98.364023, 34.157109], [-98.325445, 34.151025], [-98.293901, 34.13302], [-98.16912, 34.114171], [-98.07912132397283, 34.001895761409635]]], [[[-97.54073430799997, 30.006423905000077], [-97.62848689999998, 30.05817557900008], [-97.67034957599998, 30.109400163000032], [-97.67534513499999, 30.194275892000064], [-97.51462721599995, 30.303383722000035], [-97.40703287899998, 30.32735310100003], [-97.32475442699996, 30.316199681000057], [-97.27637448199994, 30.268855676000044], [-97.24193742899996, 30.19527037900008], [-97.27292278399995, 30.07639415500006], [-97.35279747599998, 30.01763566300008], [-97.54073430799997, 30.006423905000077]]], [[[-97.82936547899999, 26.225960979000035], [-97.35187201799994, 25.95648667100005], [-97.33526840581185, 25.93464258288997], [-97.36972782699996, 25.916451021000057], [-97.36674440423879, 25.886259518967844], [-97.408357, 25.856459], [-97.46041043400078, 25.870338700228064], [-97.45854162999996, 25.886265312000035], [-97.47492194599994, 25.875553641000067], [-97.47103858199995, 25.888426339000034], [-97.49887061999999, 25.88123181800006], [-97.49945045499999, 25.896063363000053], [-97.51298012893982, 25.888741993605933], [-97.5263175495815, 25.898155929280684], [-97.53388192099999, 25.922359984000025], [-97.54544808599996, 25.922171156000047], [-97.54067208499998, 25.931316895000066], [-97.55604531799997, 25.938627763000056], [-97.56742074699997, 25.92732290500004], [-97.582565, 25.937857], [-97.57022836599998, 25.952850865000073], [-97.58297708799995, 25.946205660000032], [-97.58755472499996, 25.962515402000065], [-97.60324091359838, 25.958322852465766], [-97.61225871299996, 25.978365472000064], [-97.63601248548133, 25.990761474925485], [-97.62113170099997, 26.00356727600007], [-97.64862804699999, 26.00975280700004], [-97.64035777999999, 26.01789528000006], [-97.64663677399994, 26.027758181000024], [-97.66556716089953, 26.02001588363175], [-97.671568, 26.033955], [-97.79257896634084, 26.05121862789574], [-97.80477890499998, 26.06131989200003], [-97.81143463412073, 26.053908609160416], [-97.92847585516434, 26.06367259236889], [-97.91832114199997, 26.203246913000044], [-97.87708229699996, 26.236407800000052], [-97.82936547899999, 26.225960979000035]]], [[[-98.77621855799998, 28.361122266000052], [-98.84983280399996, 28.387920880000024], [-98.86609278799995, 28.475942978000035], [-98.81645873299999, 28.61094749700004], [-98.74472003299996, 28.634840216000043], [-98.63073899499994, 28.55651447400004], [-98.64145879599994, 28.44355435600005], [-98.70448869199998, 28.391697503000046], [-98.77621855799998, 28.361122266000052]]], [[[-100.00113527299999, 34.81583242800008], [-100.08002811999995, 34.80318144000006], [-100.22656934199995, 34.70133238500006], [-100.26213112699998, 34.59296638700005], [-100.23350664299994, 34.52522325700005], [-100.08739415299999, 34.44589227700004], [-99.96090671899998, 34.392692717000045], [-99.91049830799994, 34.31948205200007], [-99.93927922899996, 34.21731852800008], [-100.11235535599997, 34.08430403300002], [-100.26502555099995, 33.99635512400005], [-100.41186926899996, 33.947158940000065], [-100.51683102799996, 33.937902938000036], [-100.56212240599996, 33.953858893000074], [-100.85643598699994, 34.257255660000055], [-100.94522245599995, 35.02690844800003], [-100.89627619199996, 35.10358742300008], [-100.73708105899999, 35.255929156000036], [-100.66044690799998, 35.409042440000064], [-100.44250739899996, 35.697654355000054], [-100.31444933799997, 35.75379661100004], [-100.11750029499996, 35.73323954600005], [-100.00039294830515, 35.68118939562066], [-100.00113527299999, 34.81583242800008]], [[-100.41025035199999, 34.12634953400004], [-100.23172286999994, 34.16498606600004], [-100.12681031799997, 34.21273879900008], [-100.05209497899995, 34.27932569500007], [-100.13573123199996, 34.380300583000064], [-100.35150040999997, 34.472355382000046], [-100.33952907499997, 34.608678515000065], [-100.30251604499995, 34.73791119200007], [-100.13011018999998, 34.851252386000056], [-100.11269103899997, 34.871498548000034], [-100.12206721699994, 34.91892394400003], [-100.19302137799997, 35.02718903500005], [-100.24901980599998, 35.04345876000008], [-100.65771432199995, 35.03387167100004], [-100.69714921299999, 35.01171831800008], [-100.80030666799996, 34.86817124700008], [-100.83260322199999, 34.66838035300003], [-100.78773996499996, 34.482319259000064], [-100.71439148299999, 34.30138256500004], [-100.64458227799997, 34.185771902000056], [-100.54167497299994, 34.13048542300004], [-100.41025035199999, 34.12634953400004]]], [[[-102.05406726299998, 35.57781171400006], [-101.93303210799996, 35.620360970000036], [-101.79237290299994, 35.60147771000004], [-101.78754468499994, 35.527127343000075], [-101.87276604099998, 35.41168791600006], [-102.00890164399999, 35.36851911200006], [-102.13206895299999, 35.36305835600007], [-102.25785343799998, 35.394640468000034], [-102.33841701099999, 35.440637981000066], [-102.45446951799994, 35.54705588300004], [-102.35183476299994, 35.62645908600007], [-102.27194997899994, 35.59286612300008], [-102.17756924199995, 35.57230468000006], [-102.05406726299998, 35.57781171400006]]]]}, "properties": {"class": "D2", "label": "Severe Drought", "colour": "#ffaa00", "severity": 2}}, {"type": "Feature", "geometry": {"type": "MultiPolygon", "coordinates": [[[[-102.41349163699999, 36.468493453000065], [-102.32844449299995, 36.16186337000005], [-102.17619204799996, 35.99484785900006], [-101.92363754999997, 35.94379141100006], [-101.64433397899995, 35.955400015000066], [-101.53799647099999, 35.99690540600005], [-101.38715945899997, 36.077270863000024], [-101.27397498399995, 36.00703095400007], [-101.21240421199997, 35.93595600500004], [-101.07902947999997, 35.904570170000056], [-100.89936436499994, 35.99687257000005], [-100.52225675099999, 35.996051168000065], [-100.32342245699999, 35.94972115300004], [-100.14459394899995, 35.98097474800005], [-100.14801269099996, 36.05933972400004], [-100.16401444599995, 36.10370797400003], [-100.33568579499996, 36.15339053100007], [-100.28061404699997, 36.18021013600003], [-100.33623449499999, 36.24323483400008], [-100.27212275199997, 36.29283840000005], [-100.19885398799994, 36.31316863300003], [-100.00156834399996, 36.33674200200005], [-100.00040395166018, 36.36977141570342], [-100.00039294830515, 35.68118939562066], [-100.11750029499996, 35.73323954600005], [-100.31444933799997, 35.75379661100004], [-100.44250739899996, 35.697654355000054], [-100.66044690799998, 35.409042440000064], [-100.73708105899999, 35.255929156000036], [-100.89627619199996, 35.10358742300008], [-100.94522245599995, 35.02690844800003], [-100.85643598699994, 34.257255660000055], [-100.56212240599996, 33.953858893000074], [-100.51683102799996, 33.937902938000036], [-100.41186926899996, 33.947158940000065], [-100.26502555099995, 33.99635512400005], [-100.11235535599997, 34.08430403300002], [-99.93927922899996, 34.21731852800008], [-99.91049830799994, 34.31948205200007], [-99.96090671899998, 34.392692717000045], [-100.08739415299999, 34.44589227700004], [-100.23350664299994, 34.52522325700005], [-100.26213112699998, 34.59296638700005], [-100.22656934199995, 34.70133238500006], [-100.08002811999995, 34.80318144000006], [-100.00038173426624, 34.81595293587097], [-100.000381, 34.560509], [-99.954567, 34.578195], [-99.923211, 34.574552], [-99.767234, 34.430502], [-99.69497, 34.378333], [-99.616793, 34.375391], [-99.574367, 34.418281], [-99.515385, 34.414333], [-99.453477, 34.388756], [-99.44076, 34.374123], [-99.407168, 34.372605], [-99.356713, 34.442144], [-99.261321, 34.403499], [-99.211423, 34.337897], [-99.211648, 34.292232], [-99.19089, 34.215251], [-99.16127599997817, 34.20837970327537], [-99.19334752599997, 34.205247763000045], [-99.34907811799997, 34.11823936800005], [-99.62142881699998, 33.995699494000064], [-100.06076560399998, 33.83747870600007], [-100.18693861499997, 33.78677221500004], [-100.36623037199996, 33.69656278900004], [-100.58738784599996, 33.663365283000076], [-100.79512831299996, 33.68264717200003], [-100.89380606199995, 33.74477932000008], [-100.88467897699996, 33.87620243400005], [-100.92404923699996, 34.01900805500003], [-100.99202926199996, 34.09523149200004], [-101.10879972999999, 34.182733796000036], [-101.12911140999995, 34.26061467900007], [-101.13562246699996, 34.37830514900003], [-101.11366972599996, 34.56252715900007], [-101.26493649399998, 34.67478728100008], [-101.47791472199998, 34.73202894700006], [-101.67592499399996, 34.80261138700007], [-101.93704003099998, 34.84393853900008], [-102.21090455399997, 34.83169817400005], [-102.73016366999997, 34.85915143400007], [-102.81849028299996, 34.93936836900008], [-102.87115096599996, 34.94198021600005], [-102.94614376699997, 35.112263780000035], [-103.00253944599996, 35.488937657000065], [-103.04181338250939, 35.5095400828021], [-103.04097725315495, 36.102523661533496], [-102.96797005999997, 36.15556795500004], [-102.96756274499995, 36.30993747000008], [-102.88189237299997, 36.44577673400005], [-102.86368977226564, 36.50038527240444], [-102.3676060986569, 36.50034334007484], [-102.41349163699999, 36.468493453000065]], [[-101.17230666199998, 35.34102063300003], [-101.15200186599998, 35.43440644900005], [-101.12914482199994, 35.48327154700007], [-101.09117776799997, 35.49150456900003], [-101.03389670299998, 35.45924312500006], [-100.99090515199998, 35.37499019100005], [-100.96352716699994, 35.34164005700006], [-100.91600984999997, 35.329567302000044], [-100.83981634899999, 35.33903696600004], [-100.76251154899995, 35.41024446800003], [-100.75482678299994, 35.50997933800005], [-100.76243405299999, 35.57489933200003], [-100.78642585299997, 35.62555156500008], [-100.82308719799994, 35.67234301700006], [-100.92487666399995, 35.65515879600008], [-101.23167055299996, 35.55841801500003], [-101.50619851499994, 35.434670948000075], [-101.54581804899999, 35.38505397400007], [-101.54392160299994, 35.354242370000065], [-101.45142790999995, 35.23434248700005], [-101.36123992399996, 35.22067856100006], [-101.28175822299994, 35.24429433300003], [-101.21131156299998, 35.27781429500004], [-101.17230666199998, 35.34102063300003]], [[-101.93303210799996, 35.620360970000036], [-102.05406726299998, 35.57781171400006], [-102.17756924199995, 35.57230468000006], [-102.27194997899994, 35.59286612300008], [-102.35183476299994, 35.62645908600007], [-102.45446951799994, 35.54705588300004], [-102.33841701099999, 35.440637981000066], [-102.25785343799998, 35.394640468000034], [-102.13206895299999, 35.36305835600007], [-102.00890164399999, 35.36851911200006], [-101.87276604099998, 35.41168791600006], [-101.78754468499994, 35.527127343000075], [-101.79237290299994, 35.60147771000004], [-101.93303210799996, 35.620360970000036]], [[-102.43816785199999, 35.746696572000076], [-102.38170529799999, 35.82391295200006], [-102.43546245299996, 35.920807215000025], [-102.54771889899996, 35.96517867400007], [-102.63889669299999, 35.93591229900005], [-102.65945255999998, 35.798191073000055], [-102.53097986299997, 35.74227850400007], [-102.43816785199999, 35.746696572000076]]], [[[-101.00760526999994, 36.17626290000004], [-101.23723254399994, 36.16802374700006], [-101.28950466499998, 36.218412157000046], [-101.37547241799996, 36.28058580800007], [-101.49929144299995, 36.41971971600003], [-101.54944128388978, 36.49948874212147], [-100.88420766237516, 36.49968194020196], [-100.91495485299998, 36.44524980600005], [-100.90400227899994, 36.38908804400006], [-100.85117566299999, 36.32548268600004], [-100.84632332199999, 36.23409925800007], [-101.00760526999994, 36.17626290000004]]]]}, "properties": {"class": "D3", "label": "Extreme Drought", "colour": "#e60000", "severity": 3}}, {"type": "Feature", "geometry": {"type": "MultiPolygon", "coordinates": [[[[-100.76251154899995, 35.41024446800003], [-100.83981634899999, 35.33903696600004], [-100.91600984999997, 35.329567302000044], [-100.96352716699994, 35.34164005700006], [-100.99090515199998, 35.37499019100005], [-101.03389670299998, 35.45924312500006], [-101.09117776799997, 35.49150456900003], [-101.12914482199994, 35.48327154700007], [-101.15200186599998, 35.43440644900005], [-101.17230666199998, 35.34102063300003], [-101.21131156299998, 35.27781429500004], [-101.28175822299994, 35.24429433300003], [-101.36123992399996, 35.22067856100006], [-101.45142790999995, 35.23434248700005], [-101.54392160299994, 35.354242370000065], [-101.54581804899999, 35.38505397400007], [-101.50619851499994, 35.434670948000075], [-101.23167055299996, 35.55841801500003], [-100.92487666399995, 35.65515879600008], [-100.82308719799994, 35.67234301700006], [-100.78642585299997, 35.62555156500008], [-100.76243405299999, 35.57489933200003], [-100.75482678299994, 35.50997933800005], [-100.76251154899995, 35.41024446800003]]], [[[-102.43816785199999, 35.746696572000076], [-102.53097986299997, 35.74227850400007], [-102.65945255999998, 35.798191073000055], [-102.63889669299999, 35.93591229900005], [-102.54771889899996, 35.96517867400007], [-102.43546245299996, 35.920807215000025], [-102.38170529799999, 35.82391295200006], [-102.43816785199999, 35.746696572000076]]], [[[-102.88189237299997, 36.44577673400005], [-102.96756274499995, 36.30993747000008], [-102.96797005999997, 36.15556795500004], [-103.04097725315495, 36.102523661533496], [-103.041669, 36.478514], [-103.002434, 36.500397], [-102.86368977226564, 36.50038527240444], [-102.88189237299997, 36.44577673400005]]]]}, "properties": {"class": "D4", "label": "Exceptional Drought", "colour": "#730000", "severity": 4}}]}