{"type":"FeatureCollection","name":"Texas MVCPA grant awards, FY2026","attribution":"Texas Motor Vehicle Crime Prevention Authority (TxDMV)","license":"Public record","source":"https://www.txdmv.gov/sites/default/files/body-files/MVCPA-FY-2026-Grant-Listing.pdf","fiscal_year":2026,"note":"Award amounts as published. The camera flag matches the programme name only, so it is a floor \u2014 a task-force grant may also buy cameras without saying so.","features":[{"type":"Feature","geometry":{"type":"Point","coordinates":[-97.713999,30.30754]},"properties":{"grantee":"City of Austin","program":"APD Auto Burglary and Theft","award":532588,"kind":"city","place":"Austin","stream":"taskforce","camera":false,"flock":false,"grant_no":"608-26-2270100"}},{"type":"Feature","geometry":{"type":"Point","coordinates":[-94.149726,30.080938]},"properties":{"grantee":"City of Beaumont","program":"Southeast Texas Auto Theft Task Force South Texas Auto Theft Enforcement Task Force (S.T.A.T.E. Task","award":760241,"kind":"city","place":"Beaumont","stream":"taskforce","camera":false,"flock":false,"grant_no":"608-26-1230100"}},{"type":"Feature","geometry":{"type":"Point","coordinates":[-97.47107,26.02796]},"properties":{"grantee":"City of Brownsville","program":"Force)","award":1960343,"kind":"city","place":"Brownsville","stream":"taskforce","camera":false,"flock":false,"grant_no":"608-26-0310100"}},{"type":"Feature","geometry":{"type":"Point","coordinates":[-98.188935,30.730485]},"properties":{"grantee":"Burnet County","program":"Heart of Texas Auto Theft Task Force","award":750706,"kind":"county","place":"Burnet County","stream":"taskforce","camera":false,"flock":false,"grant_no":"608-26-0270000"}},{"type":"Feature","geometry":{"type":"Point","coordinates":[-97.274157,27.705492]},"properties":{"grantee":"City of Corpus Christi","program":"Corpus Christi Police Department Auto Theft Task Force","award":894028,"kind":"city","place":"Corpus Christi","stream":"taskforce","camera":false,"flock":false,"grant_no":"608-26-1780200"}},{"type":"Feature","geometry":{"type":"Point","coordinates":[-96.785715,32.814909]},"properties":{"grantee":"City of Dallas","program":"Dallas Auto Theft Task Force","award":1732442,"kind":"city","place":"Dallas","stream":"taskforce","camera":false,"flock":false,"grant_no":"608-26-DPD0000"}},{"type":"Feature","geometry":{"type":"Point","coordinates":[-96.777392,32.767003]},"properties":{"grantee":"Dallas County","program":"North Texas Auto Theft Task Force","award":1283888,"kind":"county","place":"Dallas County","stream":"taskforce","camera":false,"flock":false,"grant_no":"608-26-0570000"}},{"type":"Feature","geometry":{"type":"Point","coordinates":[-100.488627,28.705473]},"properties":{"grantee":"City of Eagle Pass","program":"Eagle Pass Auto Theft Task Force","award":361449,"kind":"city","place":"Eagle Pass","stream":"taskforce","camera":false,"flock":false,"grant_no":"608-26-1620100"}},{"type":"Feature","geometry":{"type":"Point","coordinates":[-106.501366,31.812056]},"properties":{"grantee":"City of El Paso","program":"El Paso Police Department's Auto Theft Task Force","award":2023985,"kind":"city","place":"El Paso","stream":"taskforce","camera":false,"flock":false,"grant_no":"608-26-0710200"}},{"type":"Feature","geometry":{"type":"Point","coordinates":[-96.882978,32.924484]},"properties":{"grantee":"City of Farmers Branch","program":"Carrollton-Farmers Branch Auto Theft Taskforce","award":240000,"kind":"city","place":"Farmers Branch","stream":"taskforce","camera":false,"flock":false,"grant_no":"608-26-0571000"}},{"type":"Feature","geometry":{"type":"Point","coordinates":[-94.93962,29.339425]},"properties":{"grantee":"Galveston County","program":"Gulf Coast Auto Crimes Task Force","award":1075096,"kind":"county","place":"Galveston County","stream":"taskforce","camera":false,"flock":false,"grant_no":"608-26-0840000"}},{"type":"Feature","geometry":{"type":"Point","coordinates":[-95.389448,29.83404]},"properties":{"grantee":"Harris County","program":"Harris County Auto Theft Unit","award":1240191,"kind":"county","place":"Harris County","stream":"taskforce","camera":false,"flock":false,"grant_no":"608-26-1010000"}},{"type":"Feature","geometry":{"type":"Point","coordinates":[-95.451817,29.826826]},"properties":{"grantee":"City of Houston","program":"Houston Auto Crimes Task Force/34 (HACTF/34)","award":2402936,"kind":"city","place":"Houston","stream":"taskforce","camera":false,"flock":false,"grant_no":"608-26-HPD0000"}},{"type":"Feature","geometry":{"type":"Point","coordinates":[-99.474593,27.555579]},"properties":{"grantee":"City of Laredo","program":"Laredo Auto Theft Task Force","award":1904825,"kind":"city","place":"Laredo","stream":"taskforce","camera":false,"flock":false,"grant_no":"608-26-2400100"}},{"type":"Feature","geometry":{"type":"Point","coordinates":[-101.820528,33.610419]},"properties":{"grantee":"Lubbock County","program":"South Plains Auto Theft Task Force","award":1088277,"kind":"county","place":"Lubbock County","stream":"taskforce","camera":false,"flock":false,"grant_no":"608-26-1520000"}},{"type":"Feature","geometry":{"type":"Point","coordinates":[-97.112319,32.56461]},"properties":{"grantee":"City of Mansfield","program":"Tri County Auto Theft Task Force","award":963810,"kind":"city","place":"Mansfield","stream":"taskforce","camera":false,"flock":false,"grant_no":"608-26-2202000"}},{"type":"Feature","geometry":{"type":"Point","coordinates":[-95.514761,30.32836]},"properties":{"grantee":"Montgomery County","program":"Montgomery County Auto Theft Taskforce","award":1074187,"kind":"county","place":"Montgomery County","stream":"taskforce","camera":false,"flock":false,"grant_no":"608-26-1700000"}},{"type":"Feature","geometry":{"type":"Point","coordinates":[-95.548375,33.679609]},"properties":{"grantee":"City of Paris","program":"Northeast Texas Auto Theft Task Force","award":608121,"kind":"city","place":"Paris","stream":"taskforce","camera":false,"flock":false,"grant_no":"608-26-1390200"}},{"type":"Feature","geometry":{"type":"Point","coordinates":[-95.155647,29.648835]},"properties":{"grantee":"City of Pasadena","program":"Pasadena Auto Crimes Prevention Program","award":141733,"kind":"city","place":"Pasadena","stream":"taskforce","camera":false,"flock":false,"grant_no":"608-26-1011500"}},{"type":"Feature","geometry":{"type":"Point","coordinates":[-101.894083,35.398051]},"properties":{"grantee":"Potter County","program":"Potter County","award":532893,"kind":"county","place":"Potter County","stream":"taskforce","camera":false,"flock":false,"grant_no":"608-26-1880000"}},{"type":"Feature","geometry":{"type":"Point","coordinates":[-97.400821,32.776634]},"properties":{"grantee":"City of River Oaks","program":"Flock Safety Automated License Plate Reading Cameras","award":17500,"kind":"city","place":"River Oaks","stream":"taskforce","camera":true,"flock":true,"grant_no":"608-26-2202300"}},{"type":"Feature","geometry":{"type":"Point","coordinates":[-98.557727,29.458183]},"properties":{"grantee":"City of San Antonio","program":"ReACT (Regional Auto Crimes Taskforce)","award":1369198,"kind":"city","place":"San Antonio","stream":"taskforce","camera":false,"flock":false,"grant_no":"608-26-SPD0000"}},{"type":"Feature","geometry":{"type":"Point","coordinates":[-95.245258,32.411091]},"properties":{"grantee":"Smith County","program":"Smith County - East Texas Auto Theft Task Force","award":420957,"kind":"county","place":"Smith County","stream":"taskforce","camera":false,"flock":false,"grant_no":"608-26-2120000"}},{"type":"Feature","geometry":{"type":"Point","coordinates":[-97.291709,32.773026]},"properties":{"grantee":"Tarrant County","program":"Tarrant Regional Auto Crimes Task Force","award":2088421,"kind":"county","place":"Tarrant County","stream":"taskforce","camera":false,"flock":false,"grant_no":"608-26-2200000"}},{"type":"Feature","geometry":{"type":"Point","coordinates":[-97.779897,30.33183]},"properties":{"grantee":"Travis County","program":"Travis County Auto Crimes Enforcement (TC-ACE)","award":1164849,"kind":"county","place":"Travis County","stream":"taskforce","camera":false,"flock":false,"grant_no":"608-26-2270000"}},{"type":"Feature","geometry":{"type":"Point","coordinates":[-96.977998,28.834073]},"properties":{"grantee":"City of Victoria","program":"Victoria Auto Crimes Task Force","award":315865,"kind":"city","place":"Victoria","stream":"taskforce","camera":false,"flock":false,"grant_no":"608-26-2350100"}},{"type":"Feature","geometry":{"type":"Point","coordinates":[-96.810682,33.240737]},"properties":{"grantee":"Town of Prosper","program":"Northern Collin/Denton County/Catalytic Converter/Auto Theft Task $Force (FY26)","award":1320829,"kind":"city","place":"Prosper","stream":"taskforce","camera":false,"flock":false,"grant_no":"608-26-0430700"}},{"type":"Feature","geometry":{"type":"Point","coordinates":[-100.28023,28.641565]},"properties":{"grantee":"Maverick County","program":"Maverick County Auto Theft Task Force Program FY26","award":242679,"kind":"county","place":"Maverick County","stream":"taskforce","camera":false,"flock":false,"grant_no":"608-26-1011500"}},{"type":"Feature","geometry":{"type":"Point","coordinates":[-98.185282,26.410504]},"properties":{"grantee":"Hidalgo County","program":"Hidalgo County Taskforce Grant Application for Fiscal Year 2026","award":1052143,"kind":"county","place":"Hidalgo County","stream":"taskforce","camera":false,"flock":false,"grant_no":"608-26-1080000"}},{"type":"Feature","geometry":{"type":"Point","coordinates":[-97.953867,29.86864]},"properties":{"grantee":"City of San Marcos","program":"San Marcos Police Department Auto Crimes Unit","award":150422,"kind":"city","place":"San Marcos","stream":"taskforce","camera":false,"flock":false,"grant_no":"608-26-1050100"}},{"type":"Feature","geometry":{"type":"Point","coordinates":[-100.455659,31.431021]},"properties":{"grantee":"City of San Angelo","program":"San Angelo PD Motor Vehicle Theft Prevention Program","award":253505,"kind":"city","place":"San Angelo","stream":"taskforce","camera":false,"flock":false,"grant_no":"608-26-2260100"}},{"type":"Feature","geometry":{"type":"Point","coordinates":[-97.625403,29.85101]},"properties":{"grantee":"Caldwell County","program":"FY26 MVCPA- Caldwell County Catalytic Converter Grant","award":18501,"kind":"county","place":"Caldwell County","stream":"catalytic","camera":false,"flock":false,"grant_no":"608-26-0280800C"}},{"type":"Feature","geometry":{"type":"Point","coordinates":[-96.676616,33.114307]},"properties":{"grantee":"City of Allen","program":"Surveillance Camera Trailers","award":81667,"kind":"city","place":"Allen","stream":"catalytic","camera":true,"flock":false,"grant_no":"608-26-0430100C"}},{"type":"Feature","geometry":{"type":"Point","coordinates":[-97.210595,32.398497]},"properties":{"grantee":"City of Alvarado","program":"Alvarado PD MVCPA Grant","award":24000,"kind":"city","place":"Alvarado","stream":"catalytic","camera":false,"flock":false,"grant_no":"608-26-1260100C"}},{"type":"Feature","geometry":{"type":"Point","coordinates":[-95.060985,32.227654]},"properties":{"grantee":"City of Arp","program":"Arp PD Flock Grant","award":22043,"kind":"city","place":"Arp","stream":"catalytic","camera":true,"flock":true,"grant_no":"608-26-2120100C"}},{"type":"Feature","geometry":{"type":"Point","coordinates":[-97.552018,32.910108]},"properties":{"grantee":"City of Azle","program":"Azle Area Targeted Surveillance and Deterrence","award":138750,"kind":"city","place":"Azle","stream":"catalytic","camera":false,"flock":false,"grant_no":"608-26-2200200C"}},{"type":"Feature","geometry":{"type":"Point","coordinates":[-99.073629,29.723583]},"properties":{"grantee":"City of Bandera","program":"City of Bandera Marshal's Office","award":14167,"kind":"city","place":"Bandera","stream":"catalytic","camera":false,"flock":false,"grant_no":"608-26-0100700C"}},{"type":"Feature","geometry":{"type":"Point","coordinates":[-94.149726,30.080938]},"properties":{"grantee":"City of Beaumont","program":"Southeast Texas Auto Theft Task Force","award":285834,"kind":"city","place":"Beaumont","stream":"catalytic","camera":false,"flock":false,"grant_no":"608-26-1230100C"}},{"type":"Feature","geometry":{"type":"Point","coordinates":[-97.085701,31.601827]},"properties":{"grantee":"City of Bellmead","program":"FLOCK LPR Cameras","award":7083,"kind":"city","place":"Bellmead","stream":"catalytic","camera":true,"flock":true,"grant_no":"608-26-1550100C"}},{"type":"Feature","geometry":{"type":"Point","coordinates":[-97.471831,31.042702]},"properties":{"grantee":"City of Belton","program":"Belton Police Department Automatic License Plate Readers (ALPR) $Initiative","award":18250,"kind":"city","place":"Belton","stream":"catalytic","camera":true,"flock":false,"grant_no":"608-26-0140200C"}},{"type":"Feature","geometry":{"type":"Point","coordinates":[-97.47107,26.02796]},"properties":{"grantee":"City of Brownsville","program":"South Texas Auto Theft Enforcement Task Force (S.T.A.T.E. Task $ Force)","award":388517,"kind":"city","place":"Brownsville","stream":"catalytic","camera":false,"flock":false,"grant_no":"608-26-0310100C"}},{"type":"Feature","geometry":{"type":"Point","coordinates":[-95.31164,32.142329]},"properties":{"grantee":"City of Bullard","program":"City of Bullard MVCPA Grant FY2026","award":25237,"kind":"city","place":"Bullard","stream":"catalytic","camera":false,"flock":false,"grant_no":"608-26-2121500C"}},{"type":"Feature","geometry":{"type":"Point","coordinates":[-95.534229,29.764133]},"properties":{"grantee":"City of Bunker Hill Village","program":"Metro Auto Crimes Task Force (MACTF) 2025/26","award":65417,"kind":"city","place":"Bunker Hill Village","stream":"catalytic","camera":false,"flock":false,"grant_no":"608-26-1012400C"}},{"type":"Feature","geometry":{"type":"Point","coordinates":[-96.24333,33.039042]},"properties":{"grantee":"City of Caddo Mills","program":"Grant Application 2026 MVCPA","award":21391,"kind":"city","place":"Caddo Mills","stream":"catalytic","camera":false,"flock":false,"grant_no":"608-26-1160700C"}},{"type":"Feature","geometry":{"type":"Point","coordinates":[-96.695289,30.530321]},"properties":{"grantee":"City of Caldwell","program":"FY 26 SB 224 Catalytic Converter Grant Program","award":17791,"kind":"city","place":"Caldwell","stream":"catalytic","camera":false,"flock":false,"grant_no":"608-26-0260100C"}},{"type":"Feature","geometry":{"type":"Point","coordinates":[-98.8813,29.353883]},"properties":{"grantee":"City of Castroville","program":"ALPR Project","award":28800,"kind":"city","place":"Castroville","stream":"catalytic","camera":true,"flock":false,"grant_no":"608-26-1630100C"}},{"type":"Feature","geometry":{"type":"Point","coordinates":[-96.960552,32.587683]},"properties":{"grantee":"City of Cedar Hill","program":"Continuation funding for Two Mobile Security Deterrence Trailers and $ Five ALPR cameras","award":55209,"kind":"city","place":"Cedar Hill","stream":"catalytic","camera":true,"flock":false,"grant_no":"608-26-0570500C"}},{"type":"Feature","geometry":{"type":"Point","coordinates":[-96.797283,33.330538]},"properties":{"grantee":"City of Celina","program":"Senate Bill 224 Catalytic Converter Theft Prevention Grant (FY26)","award":112000,"kind":"city","place":"Celina","stream":"catalytic","camera":false,"flock":false,"grant_no":"608-26-0430200C"}},{"type":"Feature","geometry":{"type":"Point","coordinates":[-98.215626,29.56071]},"properties":{"grantee":"City of Cibolo","program":"2.0: High Enforcement Activity Team - Enhanced Vehicle Crime Suppression Initiative","award":487118,"kind":"city","place":"Cibolo","stream":"catalytic","camera":false,"flock":false,"grant_no":"608-26-0940600C"}},{"type":"Feature","geometry":{"type":"Point","coordinates":[-95.034737,29.54347]},"properties":{"grantee":"City of Clear Lake Shores","program":"FY 26 SB 224 Catalytic Convertor Grant Program","award":25416,"kind":"city","place":"Clear Lake Shores","stream":"catalytic","camera":false,"flock":false,"grant_no":"608-26-0840100C"}},{"type":"Feature","geometry":{"type":"Point","coordinates":[-96.307952,30.587432]},"properties":{"grantee":"City of College Station","program":"Catalytic Converter Grant - College Station Police Department","award":301492,"kind":"city","place":"College Station","stream":"catalytic","camera":false,"flock":false,"grant_no":"608-26-0210200C"}},{"type":"Feature","geometry":{"type":"Point","coordinates":[-96.911119,33.558172]},"properties":{"grantee":"City of Collinsville","program":"Flock Safety Cameras","award":29600,"kind":"city","place":"Collinsville","stream":"catalytic","camera":true,"flock":true,"grant_no":"608-26-0910100C"}},{"type":"Feature","geometry":{"type":"Point","coordinates":[-95.897429,33.257807]},"properties":{"grantee":"City of Commerce","program":"Commerce PD - MVCPA Grant","award":60000,"kind":"city","place":"Commerce","stream":"catalytic","camera":false,"flock":false,"grant_no":"608-26-1160200C"}},{"type":"Feature","geometry":{"type":"Point","coordinates":[-98.302438,29.503742]},"properties":{"grantee":"City of Converse","program":"Converse Motor Vehicle Theft Apprehension Program","award":288800,"kind":"city","place":"Converse","stream":"catalytic","camera":false,"flock":false,"grant_no":"608-26-0150500C"}},{"type":"Feature","geometry":{"type":"Point","coordinates":[-97.285148,29.109237]},"properties":{"grantee":"City of Cuero","program":"Expansion and Continued Operation of Automated License Plate $ Reader Program","award":13750,"kind":"city","place":"Cuero","stream":"catalytic","camera":true,"flock":false,"grant_no":"608-26-0620100C"}},{"type":"Feature","geometry":{"type":"Point","coordinates":[-95.84084,33.137182]},"properties":{"grantee":"City of Cumby","program":"CUMBY PD FLOCK GRANT","award":29952,"kind":"city","place":"Cumby","stream":"catalytic","camera":true,"flock":true,"grant_no":"608-26-1120100C"}},{"type":"Feature","geometry":{"type":"Point","coordinates":[-96.785715,32.814909]},"properties":{"grantee":"City of Dallas","program":"Dallas Convert Squad","award":1224538,"kind":"city","place":"Dallas","stream":"catalytic","camera":false,"flock":false,"grant_no":"608-26-DPD0000C"}},{"type":"Feature","geometry":{"type":"Point","coordinates":[-100.488627,28.705473]},"properties":{"grantee":"City of Eagle Pass","program":"Eagle Pass Auto Theft Task Force","award":339133,"kind":"city","place":"Eagle Pass","stream":"catalytic","camera":false,"flock":false,"grant_no":"608-26-1620100C"}},{"type":"Feature","geometry":{"type":"Point","coordinates":[-98.822614,32.397519]},"properties":{"grantee":"City of Eastland","program":"Eastland Police Department License Plate Reader Program","award":46667,"kind":"city","place":"Eastland","stream":"catalytic","camera":true,"flock":false,"grant_no":"608-26-0670200C"}},{"type":"Feature","geometry":{"type":"Point","coordinates":[-106.501366,31.812056]},"properties":{"grantee":"City of El Paso","program":"El Paso Police Department's Auto Theft Task Force","award":370833,"kind":"city","place":"El Paso","stream":"catalytic","camera":false,"flock":false,"grant_no":"608-26-0710200C"}},{"type":"Feature","geometry":{"type":"Point","coordinates":[-97.393334,30.355467]},"properties":{"grantee":"City of Elgin","program":"City High Resolution Thermal Camera Program Euless PD - Technology Integrations to Combat Catalytic","award":43880,"kind":"city","place":"Elgin","stream":"catalytic","camera":true,"flock":false,"grant_no":"608-26-0110200C"}},{"type":"Feature","geometry":{"type":"Point","coordinates":[-97.06678,32.846541]},"properties":{"grantee":"City of Euless","program":"Converter Thefts Reduction of Catalytic Converter Theft and Associated Crimes Through the Implementation of License Plate Readers (LPR) and","award":100209,"kind":"city","place":"Euless","stream":"catalytic","camera":true,"flock":false,"grant_no":"608-26-2200900C"}},{"type":"Feature","geometry":{"type":"Point","coordinates":[-96.172886,31.716424]},"properties":{"grantee":"City of Fairfield","program":"Ruggedized Tablet Computers","award":123299,"kind":"city","place":"Fairfield","stream":"catalytic","camera":false,"flock":false,"grant_no":"608-26-0810100C"}},{"type":"Feature","geometry":{"type":"Point","coordinates":[-102.889455,30.893035]},"properties":{"grantee":"City of Fort Stockton","program":"LPR Technology to Combat Catalytic Converter Theft","award":106724,"kind":"city","place":"Fort Stockton","stream":"catalytic","camera":true,"flock":false,"grant_no":"608-26-1860100C"}},{"type":"Feature","geometry":{"type":"Point","coordinates":[-96.822542,33.150843]},"properties":{"grantee":"City of Frisco","program":"SB224 FY26 Frisco Police Department","award":586393,"kind":"city","place":"Frisco","stream":"catalytic","camera":false,"flock":false,"grant_no":"608-26-0430400C"}},{"type":"Feature","geometry":{"type":"Point","coordinates":[-95.900722,29.688294]},"properties":{"grantee":"City of Fulshear","program":"Fulshear Police Department Auto and Catalytic Theft Mitigation","award":138500,"kind":"city","place":"Fulshear","stream":"catalytic","camera":false,"flock":false,"grant_no":"608-26-0791400C"}},{"type":"Feature","geometry":{"type":"Point","coordinates":[-94.859972,29.235142]},"properties":{"grantee":"City of Galveston","program":"GPD Catalytic Converter Theft Reduction Program","award":533212,"kind":"city","place":"Galveston","stream":"catalytic","camera":false,"flock":false,"grant_no":"608-26-0840400C"}},{"type":"Feature","geometry":{"type":"Point","coordinates":[-93.917287,29.944731]},"properties":{"grantee":"City of Groves","program":"Groves Police Automated License Plate Reader Program","award":63333,"kind":"city","place":"Groves","stream":"catalytic","camera":true,"flock":false,"grant_no":"608-26-1230300C"}},{"type":"Feature","geometry":{"type":"Point","coordinates":[-96.80192,33.462654]},"properties":{"grantee":"City of Gunter","program":"Gunter PD Flock Grant","award":56668,"kind":"city","place":"Gunter","stream":"catalytic","camera":true,"flock":true,"grant_no":"608-26-0912000C"}},{"type":"Feature","geometry":{"type":"Point","coordinates":[-96.954687,29.4266]},"properties":{"grantee":"City of Hallettsville","program":"Hallettsville Secure Vehicles 2026","award":74400,"kind":"city","place":"Hallettsville","stream":"catalytic","camera":false,"flock":false,"grant_no":"608-26-1430100C"}},{"type":"Feature","geometry":{"type":"Point","coordinates":[-96.471518,32.843693]},"properties":{"grantee":"City of Heath","program":"Heath Department of Public Safety Flock Grant","award":12000,"kind":"city","place":"Heath","stream":"catalytic","camera":true,"flock":true,"grant_no":"608-26-1990300C"}},{"type":"Feature","geometry":{"type":"Point","coordinates":[-97.196448,31.449555]},"properties":{"grantee":"City of Hewitt","program":"Hewitt TX Automated License Plate Readers (ALPR)","award":65625,"kind":"city","place":"Hewitt","stream":"catalytic","camera":true,"flock":false,"grant_no":"608-26-1550400C"}},{"type":"Feature","geometry":{"type":"Point","coordinates":[-97.401844,30.884135]},"properties":{"grantee":"City of Holland","program":"CITY OF HOLLAND","award":203881,"kind":"city","place":"Holland","stream":"catalytic","camera":false,"flock":false,"grant_no":"608-26-0141100C"}},{"type":"Feature","geometry":{"type":"Point","coordinates":[-99.158458,29.351621]},"properties":{"grantee":"City of Hondo","program":"City of Hondo Auto/Converter Theft Prevention Program","award":44320,"kind":"city","place":"Hondo","stream":"catalytic","camera":false,"flock":false,"grant_no":"608-26-1630300C"}},{"type":"Feature","geometry":{"type":"Point","coordinates":[-95.451817,29.826826]},"properties":{"grantee":"City of Houston","program":"Houston Catalytic Converter Crimes Task Force 3 (HCCCTF 3)","award":1024642,"kind":"city","place":"Houston","stream":"catalytic","camera":false,"flock":false,"grant_no":"608-26-HPD0000C"}},{"type":"Feature","geometry":{"type":"Point","coordinates":[-95.239148,29.766292]},"properties":{"grantee":"City of Jacinto City","program":"Jacinto City Security Camera Program","award":24375,"kind":"city","place":"Jacinto City","stream":"catalytic","camera":true,"flock":false,"grant_no":"608-26-1011100C"}},{"type":"Feature","geometry":{"type":"Point","coordinates":[-95.017061,29.532367]},"properties":{"grantee":"City of Kemah","program":"Kemah Safe Streets 2026: Combating Catalytic Converter Theft","award":55042,"kind":"city","place":"Kemah","stream":"catalytic","camera":false,"flock":false,"grant_no":"608-26-0840600C"}},{"type":"Feature","geometry":{"type":"Point","coordinates":[-97.865378,29.999153]},"properties":{"grantee":"City of Kyle","program":"Kyle Police Department Falcon/Condor Camera Safety and Drone","award":205000,"kind":"city","place":"Kyle","stream":"catalytic","camera":true,"flock":false,"grant_no":"608-26-1050700C"}},{"type":"Feature","geometry":{"type":"Point","coordinates":[-99.474593,27.555579]},"properties":{"grantee":"City of Laredo","program":"Laredo Auto Theft Task Force","award":1829609,"kind":"city","place":"Laredo","stream":"catalytic","camera":false,"flock":false,"grant_no":"608-26-2400100C"}},{"type":"Feature","geometry":{"type":"Point","coordinates":[-98.336637,29.555726]},"properties":{"grantee":"City of Live Oak","program":"City of Live Oak Technology Grant","award":30510,"kind":"city","place":"Live Oak","stream":"catalytic","camera":false,"flock":false,"grant_no":"608-26-0151600C"}},{"type":"Feature","geometry":{"type":"Point","coordinates":[-96.104341,32.371664]},"properties":{"grantee":"City of Mabank","program":"Mabank PD Grant Catalytic Converter Theft Education, Prevention, and","award":357200,"kind":"city","place":"Mabank","stream":"catalytic","camera":false,"flock":false,"grant_no":"608-26-1290400C"}},{"type":"Feature","geometry":{"type":"Point","coordinates":[-97.112319,32.56461]},"properties":{"grantee":"City of Mansfield","program":"Enforcement Initiative","award":456500,"kind":"city","place":"Mansfield","stream":"catalytic","camera":false,"flock":false,"grant_no":"608-26-2202000C"}},{"type":"Feature","geometry":{"type":"Point","coordinates":[-96.481153,31.674387]},"properties":{"grantee":"City of Mexia","program":"Mexia Police Grant","award":35000,"kind":"city","place":"Mexia","stream":"catalytic","camera":false,"flock":false,"grant_no":"608-26-1470300C"}},{"type":"Feature","geometry":{"type":"Point","coordinates":[-94.88234,29.860281]},"properties":{"grantee":"City of Mont Belvieu","program":"Mont Belvieu Police Department SB244 Grant Application FY2026","award":153349,"kind":"city","place":"Mont Belvieu","stream":"catalytic","camera":false,"flock":false,"grant_no":"608-26-0360700C"}},{"type":"Feature","geometry":{"type":"Point","coordinates":[-97.461262,31.149093]},"properties":{"grantee":"City of Morgans Point Resort","program":"Morgan's Point Resort MVCPA FY26","award":10800,"kind":"city","place":"Morgan's Point Resort","stream":"catalytic","camera":false,"flock":false,"grant_no":"608-26-0141000C"}},{"type":"Feature","geometry":{"type":"Point","coordinates":[-96.613988,33.013787]},"properties":{"grantee":"City of Murphy","program":"FLOCK security management","award":15000,"kind":"city","place":"Murphy","stream":"catalytic","camera":true,"flock":true,"grant_no":"608-26-0431800C"}},{"type":"Feature","geometry":{"type":"Point","coordinates":[-97.685779,30.062052]},"properties":{"grantee":"City of Mustang Ridge","program":"Mustang Ridge - Operation Watch Your Car New Braunfels Police Department - Fiscal Year 2026 SB 224","award":326340,"kind":"city","place":"Mustang Ridge","stream":"catalytic","camera":false,"flock":false,"grant_no":"608-26-2272300C"}},{"type":"Feature","geometry":{"type":"Point","coordinates":[-98.126879,29.70317]},"properties":{"grantee":"City of New Braunfels","program":"Catalytic Converter Theft Enforcement and Prevention","award":511890,"kind":"city","place":"New Braunfels","stream":"catalytic","camera":false,"flock":false,"grant_no":"608-26-0460100C"}},{"type":"Feature","geometry":{"type":"Point","coordinates":[-97.601684,31.073589]},"properties":{"grantee":"City of Nolanville","program":"Nolanville Flock Grant","award":25800,"kind":"city","place":"Nolanville","stream":"catalytic","camera":true,"flock":true,"grant_no":"608-26-0140500C"}},{"type":"Feature","geometry":{"type":"Point","coordinates":[-95.639182,31.751991]},"properties":{"grantee":"City of Palestine","program":"Safe Streets Initiative","award":30000,"kind":"city","place":"Palestine","stream":"catalytic","camera":false,"flock":false,"grant_no":"608-26-0010100C"}},{"type":"Feature","geometry":{"type":"Point","coordinates":[-96.662696,32.422736]},"properties":{"grantee":"City of Palmer","program":"City of Palmer Grant Application Continuation of funds","award":10000,"kind":"city","place":"Palmer","stream":"catalytic","camera":false,"flock":false,"grant_no":"608-26-0700700C"}},{"type":"Feature","geometry":{"type":"Point","coordinates":[-98.123679,27.355485]},"properties":{"grantee":"City of Premont","program":"City of Premont MVCPA Project: Operation Safe Streets (OSS)","award":372543,"kind":"city","place":"Premont","stream":"catalytic","camera":false,"flock":false,"grant_no":"608-26-1250200C"}},{"type":"Feature","geometry":{"type":"Point","coordinates":[-96.528129,33.189882]},"properties":{"grantee":"City of Princeton","program":"FLOCK","award":16667,"kind":"city","place":"Princeton","stream":"catalytic","camera":true,"flock":true,"grant_no":"608-26-0430900C"}},{"type":"Feature","geometry":{"type":"Point","coordinates":[-97.232284,33.016491]},"properties":{"grantee":"City of Roanoke","program":"Roanoke Police Department DFR technology program","award":125000,"kind":"city","place":"Roanoke","stream":"catalytic","camera":false,"flock":false,"grant_no":"608-26-0612900C"}},{"type":"Feature","geometry":{"type":"Point","coordinates":[-97.122298,31.453464]},"properties":{"grantee":"City of Robinson","program":"City of Robinson MVCPA Catalytic Converter Grant","award":21600,"kind":"city","place":"Robinson","stream":"catalytic","camera":false,"flock":false,"grant_no":"608-26-1551100C"}},{"type":"Feature","geometry":{"type":"Point","coordinates":[-97.660104,27.789169]},"properties":{"grantee":"City of Robstown","program":"Secure Robstown Strategy (SRS)","award":78354,"kind":"city","place":"Robstown","stream":"catalytic","camera":false,"flock":false,"grant_no":"608-26-1780300C"}},{"type":"Feature","geometry":{"type":"Point","coordinates":[-97.691917,30.531178]},"properties":{"grantee":"City of Round Rock","program":"Regional Vehicle Burglary Suppression Task Force","award":423519,"kind":"city","place":"Round Rock","stream":"catalytic","camera":false,"flock":false,"grant_no":"608-26-2460500C"}},{"type":"Feature","geometry":{"type":"Point","coordinates":[-96.583071,32.973167]},"properties":{"grantee":"City of Sachse","program":"Sachse Police Department Motor Vehicle Crime (FY26) San Angelo Police Department Catalytic Converter Theft","award":16208,"kind":"city","place":"Sachse","stream":"catalytic","camera":false,"flock":false,"grant_no":"608-26-0572100C"}},{"type":"Feature","geometry":{"type":"Point","coordinates":[-100.455659,31.431021]},"properties":{"grantee":"City of San Angelo","program":"Apprehension Program Sansom Park Flock Camera/ Drone as First Responder MVCPA","award":133962,"kind":"city","place":"San Angelo","stream":"catalytic","camera":true,"flock":true,"grant_no":"608-26-2260100C"}},{"type":"Feature","geometry":{"type":"Point","coordinates":[-97.401114,32.802954]},"properties":{"grantee":"City of Sansom Park","program":"Grant","award":56400,"kind":"city","place":"Sansom Park","stream":"catalytic","camera":false,"flock":false,"grant_no":"608-26-2202500C"}},{"type":"Feature","geometry":{"type":"Point","coordinates":[-98.267401,29.563611]},"properties":{"grantee":"City of Schertz","program":"2026 Catalytic Converter Grant","award":362263,"kind":"city","place":"Schertz","stream":"catalytic","camera":false,"flock":false,"grant_no":"608-26-0940200C"}},{"type":"Feature","geometry":{"type":"Point","coordinates":[-96.147526,29.773957]},"properties":{"grantee":"City of Sealy","program":"Sealy Area License Plate Reader Cameras","award":35833,"kind":"city","place":"Sealy","stream":"catalytic","camera":true,"flock":false,"grant_no":"608-26-0080200C"}},{"type":"Feature","geometry":{"type":"Point","coordinates":[-97.971564,29.597877]},"properties":{"grantee":"City of Seguin","program":"Seguin Police Department Detection and Apprehension Phase 2","award":133801,"kind":"city","place":"Seguin","stream":"catalytic","camera":false,"flock":false,"grant_no":"608-26-0940300C"}},{"type":"Feature","geometry":{"type":"Point","coordinates":[-94.174071,30.345033]},"properties":{"grantee":"City of Silsbee","program":"SB 224 (YR 2026) Catalytic Converter Grant Program","award":33125,"kind":"city","place":"Silsbee","stream":"catalytic","camera":false,"flock":false,"grant_no":"608-26-1000200C"}},{"type":"Feature","geometry":{"type":"Point","coordinates":[-97.500917,28.033132]},"properties":{"grantee":"City of Sinton","program":"Operation: Secure Cats - Sinton's Plan to Protect Vehicles","award":189612,"kind":"city","place":"Sinton","stream":"catalytic","camera":false,"flock":false,"grant_no":"608-26-2050400C"}},{"type":"Feature","geometry":{"type":"Point","coordinates":[-95.639198,29.587384]},"properties":{"grantee":"City of Sugar Land","program":"City of Sugar Land Catalytic Converter Theft Initiative","award":42084,"kind":"city","place":"Sugar Land","stream":"catalytic","camera":false,"flock":false,"grant_no":"608-26-0790500C"}},{"type":"Feature","geometry":{"type":"Point","coordinates":[-97.376996,31.097339]},"properties":{"grantee":"City of Temple","program":"Temple PD LPR cameras, DFR and equipment The Colony Police Department Drone as a First Responder","award":875029,"kind":"city","place":"Temple","stream":"catalytic","camera":true,"flock":false,"grant_no":"608-26-0140700C"}},{"type":"Feature","geometry":{"type":"Point","coordinates":[-96.899423,33.091869]},"properties":{"grantee":"City of The Colony","program":"Program","award":137883,"kind":"city","place":"The Colony","stream":"catalytic","camera":false,"flock":false,"grant_no":"608-26-0611500C"}},{"type":"Feature","geometry":{"type":"Point","coordinates":[-98.303388,29.55321]},"properties":{"grantee":"City of Universal City","program":"Contractual Fees for current ALPR's","award":45642,"kind":"city","place":"Universal City","stream":"catalytic","camera":true,"flock":false,"grant_no":"608-26-0151400C"}},{"type":"Feature","geometry":{"type":"Point","coordinates":[-93.984504,30.137948]},"properties":{"grantee":"City of Vidor","program":"VIDOR PD FLOCK GRANT","award":55833,"kind":"city","place":"Vidor","stream":"catalytic","camera":true,"flock":true,"grant_no":"608-26-1810400C"}},{"type":"Feature","geometry":{"type":"Point","coordinates":[-97.093487,31.805257]},"properties":{"grantee":"City of West","program":"West Police Department Enhanced Theft Mitigation Program","award":63200,"kind":"city","place":"West","stream":"catalytic","camera":false,"flock":false,"grant_no":"608-26-1551300C"}},{"type":"Feature","geometry":{"type":"Point","coordinates":[-98.506276,33.916037]},"properties":{"grantee":"City of Wichita Falls","program":"Project Over watch FY 26","award":254166,"kind":"city","place":"Wichita Falls","stream":"catalytic","camera":false,"flock":false,"grant_no":"608-26-2430500C"}},{"type":"Feature","geometry":{"type":"Point","coordinates":[-95.404866,29.031233]},"properties":{"grantee":"City of Clute","program":"City of Clute Cameras","award":119999,"kind":"city","place":"Clute","stream":"catalytic","camera":true,"flock":false,"grant_no":"608-26-0200300C"}},{"type":"Feature","geometry":{"type":"Point","coordinates":[-97.214458,33.686406]},"properties":{"grantee":"Cooke County","program":"Flock Safety Development Program","award":66292,"kind":"county","place":"Cooke County","stream":"catalytic","camera":true,"flock":true,"grant_no":"608-26-0490000C"}},{"type":"Feature","geometry":{"type":"Point","coordinates":[-98.798239,32.296746]},"properties":{"grantee":"Eastland County","program":"Eastland County Sheriff's Office License Plate Reader Program Elm Ridge Denton County Water District","award":29583,"kind":"county","place":"Eastland County","stream":"catalytic","camera":true,"flock":false,"grant_no":"608-26-0670000C"}},{"type":"Feature","geometry":{"type":"Point","coordinates":[-97.115572,33.207026]},"properties":{"grantee":"Elm Ridge Denton County Water District Police Department","program":"Catalytic Converter Grant","award":104132,"kind":"county","place":"Denton County","stream":"catalytic","camera":false,"flock":false,"grant_no":"608-26-0614700C"}},{"type":"Feature","geometry":{"type":"Point","coordinates":[-94.93962,29.339425]},"properties":{"grantee":"Galveston County","program":"Gulf Coast Auto Crimes Task Force - Catalytic Converter Unit Harris County Auto Theft Taskforce Catalytic Converter Theft","award":397400,"kind":"county","place":"Galveston County","stream":"catalytic","camera":false,"flock":false,"grant_no":"608-26-0840000C"}},{"type":"Feature","geometry":{"type":"Point","coordinates":[-95.389448,29.83404]},"properties":{"grantee":"Harris County","program":"Prevention and Investigation","award":255150,"kind":"county","place":"Harris County","stream":"catalytic","camera":false,"flock":false,"grant_no":"608-26-1010000C"}},{"type":"Feature","geometry":{"type":"Point","coordinates":[-94.37255,32.558706]},"properties":{"grantee":"Harrison County","program":"Harrison County LPR system City of Henderson Police Department Catalytic Converter/Auto","award":213727,"kind":"county","place":"Harrison County","stream":"catalytic","camera":true,"flock":false,"grant_no":"608-26-1020000C"}},{"type":"Feature","geometry":{"type":"Point","coordinates":[-94.791803,32.159403]},"properties":{"grantee":"City of Henderson","program":"Theft Task Force (FY26)","award":29583,"kind":"city","place":"Henderson","stream":"catalytic","camera":false,"flock":false,"grant_no":"608-26-2010000C"}},{"type":"Feature","geometry":{"type":"Point","coordinates":[-98.185282,26.410504]},"properties":{"grantee":"Hidalgo County","program":"HCSO Catalytic Converter Grant Hood County MVCPA Task Force Program To Reduce Vehicle","award":346528,"kind":"county","place":"Hidalgo County","stream":"catalytic","camera":false,"flock":false,"grant_no":"608-26-1080000C"}},{"type":"Feature","geometry":{"type":"Point","coordinates":[-97.815619,32.392991]},"properties":{"grantee":"Hood County","program":"Crimes and Catalytic Converter Theft","award":60000,"kind":"county","place":"Hood County","stream":"catalytic","camera":false,"flock":false,"grant_no":"608-26-1110000C"}},{"type":"Feature","geometry":{"type":"Point","coordinates":[-94.348929,32.76804]},"properties":{"grantee":"Jefferson ISD Police Department","program":"FY 26 SB 224 Catalytic Converter Grant Program Johnson County Integrating License Plate Capture to Combat","award":22625,"kind":"city","place":"Jefferson","stream":"catalytic","camera":true,"flock":false,"grant_no":"608-26-1580700C"}},{"type":"Feature","geometry":{"type":"Point","coordinates":[-97.351357,32.340866]},"properties":{"grantee":"Johnson County","program":"Vehicle Crimes and Catalytic Converter Thefts","award":208333,"kind":"county","place":"Johnson County","stream":"catalytic","camera":false,"flock":false,"grant_no":"608-26-1260000C"}},{"type":"Feature","geometry":{"type":"Point","coordinates":[-98.675939,29.92241]},"properties":{"grantee":"Kendall County","program":"Kendall County Flock Safety Enhancements","award":215254,"kind":"county","place":"Kendall County","stream":"catalytic","camera":true,"flock":true,"grant_no":"608-26-1300000C"}},{"type":"Feature","geometry":{"type":"Point","coordinates":[-101.820528,33.610419]},"properties":{"grantee":"Lubbock County","program":"South Plains Auto Theft Task Force","award":204245,"kind":"county","place":"Lubbock County","stream":"catalytic","camera":false,"flock":false,"grant_no":"608-26-1520000C"}},{"type":"Feature","geometry":{"type":"Point","coordinates":[-100.696589,34.672927]},"properties":{"grantee":"Lakeview Police Department","program":"FY 26 SB 224 Catalytic Converter Grant Program FY26 Maverick County Sheriffs Office Catalytic Converter Task","award":46583,"kind":"city","place":"Lakeview","stream":"catalytic","camera":false,"flock":false,"grant_no":"608-26-1016600C"}},{"type":"Feature","geometry":{"type":"Point","coordinates":[-100.28023,28.641565]},"properties":{"grantee":"Maverick County","program":"Force Grant Program Midlothian PD Auto Theft and BMV detection and prevention","award":341100,"kind":"county","place":"Maverick County","stream":"catalytic","camera":false,"flock":false,"grant_no":"608-26-1620000C"}},{"type":"Feature","geometry":{"type":"Point","coordinates":[-96.981269,32.467961]},"properties":{"grantee":"City of Midlothian","program":"through use of technology","award":185471,"kind":"city","place":"Midlothian","stream":"catalytic","camera":false,"flock":false,"grant_no":"608-26-0700500C"}},{"type":"Feature","geometry":{"type":"Point","coordinates":[-95.514761,30.32836]},"properties":{"grantee":"Montgomery County","program":"Catalytic Converter Theft Reduction Program","award":200375,"kind":"county","place":"Montgomery County","stream":"catalytic","camera":false,"flock":false,"grant_no":"608-26-1700000C"}},{"type":"Feature","geometry":{"type":"Point","coordinates":[-94.311571,32.184346]},"properties":{"grantee":"Panola County","program":"Flock LPR camera deployment for motor vehicle crime prevention","award":95625,"kind":"county","place":"Panola County","stream":"catalytic","camera":true,"flock":true,"grant_no":"608-26-1830000C"}},{"type":"Feature","geometry":{"type":"Point","coordinates":[-94.896636,30.81685]},"properties":{"grantee":"Polk County","program":"Polk County Vehicle Crime","award":45000,"kind":"county","place":"Polk County","stream":"catalytic","camera":false,"flock":false,"grant_no":"608-26-1870000C"}},{"type":"Feature","geometry":{"type":"Point","coordinates":[-101.894083,35.398051]},"properties":{"grantee":"Potter County","program":"Potter County (Panhandle Auto Burglary and Theft Unit)","award":378200,"kind":"county","place":"Potter County","stream":"catalytic","camera":false,"flock":false,"grant_no":"608-26-1880000C"}},{"type":"Feature","geometry":{"type":"Point","coordinates":[-95.801248,32.845626]},"properties":{"grantee":"Rains County","program":"Rains County Criminal Investigator Division (CID) Program","award":177907,"kind":"county","place":"Rains County","stream":"catalytic","camera":false,"flock":false,"grant_no":"608-26-1900000C"}},{"type":"Feature","geometry":{"type":"Point","coordinates":[-96.407774,32.898871]},"properties":{"grantee":"Rockwall County","program":"Auto Crime Suppression Initiative (ACSI)","award":226190,"kind":"county","place":"Rockwall County","stream":"catalytic","camera":false,"flock":false,"grant_no":"608-26-1990000C"}},{"type":"Feature","geometry":{"type":"Point","coordinates":[-98.830492,31.205615]},"properties":{"grantee":"San Saba County","program":"San Saba LPR Grant","award":19200,"kind":"county","place":"San Saba County","stream":"catalytic","camera":true,"flock":false,"grant_no":"608-26-2060000C"}},{"type":"Feature","geometry":{"type":"Point","coordinates":[-94.126891,31.774526]},"properties":{"grantee":"Shelby County","program":"Shelby County SO License Plate Reader (LPR) Grant","award":30000,"kind":"county","place":"Shelby County","stream":"catalytic","camera":true,"flock":false,"grant_no":"608-26-2100000C"}},{"type":"Feature","geometry":{"type":"Point","coordinates":[-95.245258,32.411091]},"properties":{"grantee":"Smith County","program":"Smith County - East Texas Auto Theft Task Force","award":29500,"kind":"county","place":"Smith County","stream":"catalytic","camera":false,"flock":false,"grant_no":"608-26-2120000C"}},{"type":"Feature","geometry":{"type":"Point","coordinates":[-97.784212,32.203221]},"properties":{"grantee":"Somervell County","program":"Somervell County Sheriff's Office Flock Grant Tom Green County Sheriff's Office Motor Vehicle Crime","award":40833,"kind":"county","place":"Somervell County","stream":"catalytic","camera":true,"flock":true,"grant_no":"608-26-2130000C"}},{"type":"Feature","geometry":{"type":"Point","coordinates":[-100.402147,31.396305]},"properties":{"grantee":"Tom Green County","program":"Specialized Investigator Addison PD Technology Initiative to Combat Catalytic Converter","award":156662,"kind":"county","place":"Tom Green County","stream":"catalytic","camera":false,"flock":false,"grant_no":"608-26-2260000C"}},{"type":"Feature","geometry":{"type":"Point","coordinates":[-96.829976,32.960283]},"properties":{"grantee":"Town of Addison","program":"Theft","award":237343,"kind":"city","place":"Addison","stream":"catalytic","camera":false,"flock":false,"grant_no":"608-26-0570100C"}},{"type":"Feature","geometry":{"type":"Point","coordinates":[-103.522562,31.398647]},"properties":{"grantee":"Town of Pecos City","program":"PECOS POLICE DEPARTMENT TECHNOLOGY GRANT Northern Collin/Denton County/Catalytic Converter Task Force","award":439109,"kind":"city","place":"Town of Pecos","stream":"catalytic","camera":false,"flock":false,"grant_no":"608-26-1950200C"}},{"type":"Feature","geometry":{"type":"Point","coordinates":[-96.810682,33.240737]},"properties":{"grantee":"Town of Prosper","program":"(FY26) - 224","award":404265,"kind":"city","place":"Prosper","stream":"catalytic","camera":false,"flock":false,"grant_no":"608-26-0430700C"}},{"type":"Feature","geometry":{"type":"Point","coordinates":[-95.123244,31.105535]},"properties":{"grantee":"Trinity County","program":"Theft Reduction","award":53125,"kind":"county","place":"Trinity County","stream":"catalytic","camera":false,"flock":false,"grant_no":"608-26-2280000C"}},{"type":"Feature","geometry":{"type":"Point","coordinates":[-95.999404,29.98666]},"properties":{"grantee":"Waller County","program":"Waller County Auto Theft Unit","award":67870,"kind":"county","place":"Waller County","stream":"catalytic","camera":false,"flock":false,"grant_no":"608-26-2370000C"}},{"type":"Feature","geometry":{"type":"Point","coordinates":[-95.397808,32.786391]},"properties":{"grantee":"Wood County","program":"Wood County ALPR program","award":84852,"kind":"county","place":"Wood County","stream":"catalytic","camera":true,"flock":false,"grant_no":"608-26-2500000C"}},{"type":"Feature","geometry":{"type":"Point","coordinates":[-98.688333,33.175021]},"properties":{"grantee":"Young County","program":"Young County Sheriff's Office MVCPA Grant","award":78400,"kind":"county","place":"Young County","stream":"catalytic","camera":false,"flock":false,"grant_no":"608-26-2520000C"}},{"type":"Feature","geometry":{"type":"Point","coordinates":[-99.76227,28.8607]},"properties":{"grantee":"Zavala County","program":"Auto Theft Taskforce Division","award":235534,"kind":"county","place":"Zavala County","stream":"catalytic","camera":false,"flock":false,"grant_no":"608-26-2540000C"}}]}