{"type": "FeatureCollection", "features": [{"type": "Feature", "geometry": {"type": "Polygon", "coordinates": [[[-99.757621, 30.074132], [-99.754142, 30.290698], [-99.301718, 30.286653], [-99.300988, 30.134298], [-98.920147, 30.13829], [-98.917725, 29.781398], [-99.176988, 29.895063], [-99.691215, 29.908582], [-99.689879, 30.073948], [-99.757621, 30.074132]]]}, "properties": {"county": "Kerr"}}, {"type": "Feature", "geometry": {"type": "Polygon", "coordinates": [[[-103.610887, 31.651802], [-102.767246, 31.651714], [-102.767365, 31.293803], [-102.827087, 31.267909], [-103.01104, 31.371306], [-103.459426, 31.428494], [-103.530927, 31.642284], [-103.57489, 31.632662], [-103.610887, 31.651802]]]}, "properties": {"county": "Ward"}}, {"type": "Feature", "geometry": {"type": "Polygon", "coordinates": [[[-101.03866, 32.970225], [-101.557434, 32.961025], [-101.556884, 33.39476], [-101.038788, 33.397214], [-101.03866, 32.970225]]]}, "properties": {"county": "Garza"}}, {"type": "Feature", "geometry": {"type": "Polygon", "coordinates": [[[-97.240108, 29.384488], [-97.613132, 29.109765], [-97.858782, 29.35289], [-97.633176, 29.649863], [-97.597743, 29.630718], [-97.317893, 29.784658], [-97.130517, 29.643296], [-97.204087, 29.580613], [-97.240108, 29.384488]]]}, "properties": {"county": "Gonzales"}}, {"type": "Feature", "geometry": {"type": "Polygon", "coordinates": [[[-101.085935, 35.619102], [-100.540158, 35.619296], [-100.538978, 35.183144], [-101.086281, 35.18214], [-101.085935, 35.619102]]]}, "properties": {"county": "Gray"}}, {"type": "Feature", "geometry": {"type": "Polygon", "coordinates": [[[-95.804306, 30.24557], [-96.093165, 30.225187], [-96.085893, 30.288983], [-96.15463, 30.330288], [-96.147255, 30.38284], [-96.079969, 30.43003], [-96.121806, 30.443426], [-96.187765, 30.598737], [-96.16837, 30.822997], [-95.863059, 30.864125], [-95.83024, 30.630284], [-95.804306, 30.24557]]]}, "properties": {"county": "Grimes"}}, {"type": "Feature", "geometry": {"type": "Polygon", "coordinates": [[[-100.415895, 34.747525], [-100.417783, 34.313524], [-100.946132, 34.312759], [-100.944939, 34.748281], [-100.415895, 34.747525]]]}, "properties": {"county": "Hall"}}, {"type": "Feature", "geometry": {"type": "Polygon", "coordinates": [[[-101.085156, 36.499244], [-101.085735, 36.055276], [-101.623466, 36.055405], [-101.623915, 36.499528], [-101.085156, 36.499244]]]}, "properties": {"county": "Hansford"}}, {"type": "Feature", "geometry": {"type": "Polygon", "coordinates": [[[-96.719114, 31.814887], [-96.932215, 31.708887], [-97.037266, 31.863079], [-97.277265, 31.745492], [-97.32653, 31.78836], [-97.28206, 31.843152], [-97.382848, 31.870788], [-97.438765, 31.933506], [-97.379992, 31.97274], [-97.485968, 32.017611], [-97.476086, 32.17346], [-97.086191, 32.265451], [-96.940656, 32.052087], [-96.896209, 32.073977], [-96.719114, 31.814887]]]}, "properties": {"county": "Hill"}}, {"type": "Feature", "geometry": {"type": "Polygon", "coordinates": [[[-101.68874, 32.525222], [-101.174571, 32.524112], [-101.183997, 32.087208], [-101.695011, 32.087532], [-101.68874, 32.525222]]]}, "properties": {"county": "Howard"}}, {"type": "Feature", "geometry": {"type": "Polygon", "coordinates": [[[-101.086068, 35.625267], [-101.622831, 35.624057], [-101.623466, 36.055405], [-101.085735, 36.055276], [-101.086068, 35.625267]]]}, "properties": {"county": "Hutchinson"}}, {"type": "Feature", "geometry": {"type": "Polygon", "coordinates": [[[-98.95423, 26.785694], [-98.954669, 27.269397], [-98.798087, 27.268012], [-98.798323, 27.354029], [-98.522293, 27.343284], [-98.523723, 27.265115], [-98.492943, 27.235012], [-98.466542, 27.054711], [-98.417883, 27.055285], [-98.422616, 26.783535], [-98.95423, 26.785694]]]}, "properties": {"county": "Jim Hogg"}}, {"type": "Feature", "geometry": {"type": "Polygon", "coordinates": [[[-99.474498, 33.733849], [-99.472444, 33.399023], [-99.99098, 33.397404], [-99.996434, 33.835967], [-99.835143, 33.8358], [-99.599863, 33.787634], [-99.474498, 33.733849]]]}, "properties": {"county": "Knox"}}, {"type": "Feature", "geometry": {"type": "Polygon", "coordinates": [[[-98.803325, 28.05748], [-99.388946, 28.030419], [-99.395736, 28.640784], [-98.800841, 28.647487], [-98.803325, 28.05748]]]}, "properties": {"county": "La Salle"}}, {"type": "Feature", "geometry": {"type": "Polygon", "coordinates": [[[-97.883148, 28.0569], [-98.334323, 28.0578], [-98.335031, 28.612658], [-98.098315, 28.786949], [-98.005252, 28.690239], [-98.089764, 28.662979], [-97.808774, 28.183415], [-97.904081, 28.114228], [-97.883148, 28.0569]]]}, "properties": {"county": "Live Oak"}}, {"type": "Feature", "geometry": {"type": "Polygon", "coordinates": [[[-101.56358, 33.830451], [-101.556884, 33.39476], [-102.075929, 33.389586], [-102.085733, 33.824675], [-101.56358, 33.830451]]]}, "properties": {"county": "Lubbock"}}, {"type": "Feature", "geometry": {"type": "Polygon", "coordinates": [[[-96.801123, 31.522269], [-97.343426, 31.244215], [-97.418606, 31.320202], [-97.60523, 31.587762], [-97.037266, 31.863079], [-96.801123, 31.522269]]]}, "properties": {"county": "McLennan"}}, {"type": "Feature", "geometry": {"type": "Polygon", "coordinates": [[[-98.964612, 30.921368], [-98.964232, 30.498482], [-99.484493, 30.499641], [-99.484755, 30.940605], [-99.092317, 30.941002], [-99.092431, 30.921968], [-98.964612, 30.921368]]]}, "properties": {"county": "Mason"}}, {"type": "Feature", "geometry": {"type": "Polygon", "coordinates": [[[-101.775802, 31.651319], [-102.287345, 31.651276], [-102.287048, 32.086991], [-101.776085, 32.086925], [-101.775802, 31.651319]]]}, "properties": {"county": "Midland"}}, {"type": "Feature", "geometry": {"type": "Polygon", "coordinates": [[[-95.096708, 30.167214], [-95.264013, 30.032217], [-95.551421, 30.170606], [-95.65543, 30.108994], [-95.80333, 30.090096], [-95.804351, 30.3378], [-95.83024, 30.630284], [-95.598971, 30.509002], [-95.359156, 30.504369], [-95.308395, 30.40575], [-95.165897, 30.344976], [-95.096708, 30.167214]]]}, "properties": {"county": "Montgomery"}}, {"type": "Feature", "geometry": {"type": "Polygon", "coordinates": [[[-96.896209, 32.073977], [-96.383082, 32.328851], [-96.115693, 32.160915], [-96.05478, 32.012526], [-96.496713, 31.796191], [-96.719114, 31.814887], [-96.896209, 32.073977]]]}, "properties": {"county": "Navarro"}}, {"type": "Feature", "geometry": {"type": "Polygon", "coordinates": [[[-100.665353, 32.085407], [-100.660626, 32.525312], [-100.146543, 32.522793], [-100.151911, 32.082638], [-100.665353, 32.085407]]]}, "properties": {"county": "Nolan"}}, {"type": "Feature", "geometry": {"type": "Polygon", "coordinates": [[[-100.946132, 34.312759], [-101.47158, 34.31229], [-101.471562, 34.747462], [-100.944939, 34.748281], [-100.946132, 34.312759]]]}, "properties": {"county": "Briscoe"}}, {"type": "Feature", "geometry": {"type": "Polygon", "coordinates": [[[-99.195871, 32.079235], [-98.924401, 32.078018], [-98.668441, 31.700514], [-98.760057, 31.687896], [-98.779951, 31.610735], [-98.991608, 31.484071], [-99.090622, 31.460927], [-99.202768, 31.467234], [-99.195871, 32.079235]]]}, "properties": {"county": "Brown"}}, {"type": "Feature", "geometry": {"type": "Polygon", "coordinates": [[[-97.315823, 29.786541], [-97.597743, 29.630718], [-97.721852, 29.682088], [-97.893896, 29.883734], [-97.655257, 30.072907], [-97.315823, 29.786541]]]}, "properties": {"county": "Caldwell"}}, {"type": "Feature", "geometry": {"type": "Polygon", "coordinates": [[[-97.476086, 32.17346], [-97.516121, 32.133612], [-97.615055, 32.203581], [-97.617066, 32.555484], [-97.086834, 32.549428], [-97.086191, 32.265451], [-97.476086, 32.17346]]]}, "properties": {"county": "Johnson"}}, {"type": "Feature", "geometry": {"type": "Polygon", "coordinates": [[[-95.15341, 32.570115], [-95.15211, 32.902641], [-94.719942, 32.904502], [-94.705177, 32.892062], [-94.70179, 32.652209], [-94.986935, 32.537246], [-95.15341, 32.570115]]]}, "properties": {"county": "Upshur"}}, {"type": "Feature", "geometry": {"type": "Polygon", "coordinates": [[[-100.112098, 29.623263], [-99.411817, 29.627514], [-99.41388, 29.091335], [-100.111406, 29.086318], [-100.112098, 29.623263]]]}, "properties": {"county": "Uvalde"}}, {"type": "Feature", "geometry": {"type": "Polygon", "coordinates": [[[-100.519208, 32.962926], [-101.03866, 32.970225], [-101.038788, 33.397214], [-100.517449, 33.397866], [-100.519208, 32.962926]]]}, "properties": {"county": "Kent"}}, {"type": "Feature", "geometry": {"type": "Polygon", "coordinates": [[[-100.000385, 35.182702], [-100.000381, 34.746358], [-100.540703, 34.747723], [-100.538978, 35.183144], [-100.000385, 35.182702]]]}, "properties": {"county": "Collingsworth"}}, {"type": "Feature", "geometry": {"type": "Polygon", "coordinates": [[[-99.631413, 32.081274], [-100.151911, 32.082638], [-100.146543, 32.522793], [-99.629639, 32.520713], [-99.631413, 32.081274]]]}, "properties": {"county": "Taylor"}}, {"type": "Feature", "geometry": {"type": "Polygon", "coordinates": [[[-99.472444, 33.399023], [-98.953938, 33.397534], [-98.950875, 32.956918], [-99.471258, 32.957025], [-99.472444, 33.399023]]]}, "properties": {"county": "Throckmorton"}}, {"type": "Feature", "geometry": {"type": "Polygon", "coordinates": [[[-99.60185, 31.49195], [-99.513678, 31.425495], [-99.402284, 31.446198], [-99.314875, 31.409875], [-99.202768, 31.467234], [-99.090622, 31.460927], [-99.092317, 30.941002], [-99.603627, 30.940726], [-99.60185, 31.49195]]]}, "properties": {"county": "McCulloch"}}, {"type": "Feature", "geometry": {"type": "Polygon", "coordinates": [[[-102.211037, 32.523244], [-101.68874, 32.525222], [-101.695011, 32.087532], [-102.211249, 32.0868], [-102.211037, 32.523244]]]}, "properties": {"county": "Martin"}}, {"type": "Feature", "geometry": {"type": "Polygon", "coordinates": [[[-102.211249, 32.0868], [-103.064344, 32.087051], [-103.064696, 32.522193], [-102.211037, 32.523244], [-102.211249, 32.0868]]]}, "properties": {"county": "Andrews"}}, {"type": "Feature", "geometry": {"type": "Polygon", "coordinates": [[[-99.60313, 29.627181], [-99.600862, 29.907662], [-99.176988, 29.895063], [-98.778782, 29.720167], [-98.927161, 29.56225], [-98.983787, 29.62345], [-99.60313, 29.627181]]]}, "properties": {"county": "Bandera"}}, {"type": "Feature", "geometry": {"type": "Polygon", "coordinates": [[[-97.070188, 30.98622], [-97.259082, 30.889596], [-97.315507, 30.752371], [-97.625288, 30.87043], [-97.828512, 30.906188], [-97.911684, 31.034919], [-97.913847, 31.065882], [-97.418606, 31.320202], [-97.343426, 31.244215], [-97.278113, 31.279799], [-97.070188, 30.98622]]]}, "properties": {"county": "Bell"}}, {"type": "Feature", "geometry": {"type": "Polygon", "coordinates": [[[-96.581519, 30.68889], [-96.45763, 30.744474], [-96.349364, 30.911423], [-96.24102, 30.973737], [-96.16837, 30.822997], [-96.187765, 30.598737], [-96.121806, 30.443426], [-96.079969, 30.43003], [-96.147255, 30.38284], [-96.15463, 30.330288], [-96.199544, 30.38291], [-96.299173, 30.379152], [-96.298866, 30.410502], [-96.272049, 30.416145], [-96.287993, 30.421281], [-96.285516, 30.448393], [-96.358817, 30.541753], [-96.510494, 30.627828], [-96.601708, 30.640535], [-96.584439, 30.658957], [-96.581519, 30.68889]]]}, "properties": {"county": "Brazos"}}, {"type": "Feature", "geometry": {"type": "Polygon", "coordinates": [[[-99.118665, 32.079585], [-99.631413, 32.081274], [-99.629579, 32.514657], [-99.114293, 32.514811], [-99.118665, 32.079585]]]}, "properties": {"county": "Callahan"}}, {"type": "Feature", "geometry": {"type": "Polygon", "coordinates": [[[-99.99772, 34.311829], [-100.417783, 34.313524], [-100.415895, 34.747525], [-100.000381, 34.746358], [-99.99772, 34.311829]]]}, "properties": {"county": "Childress"}}, {"type": "Feature", "geometry": {"type": "Polygon", "coordinates": [[[-99.721698, 31.576759], [-99.713971, 32.082089], [-99.195871, 32.079235], [-99.202768, 31.467234], [-99.314875, 31.409875], [-99.402284, 31.446198], [-99.513678, 31.425495], [-99.721698, 31.576759]]]}, "properties": {"county": "Coleman"}}, {"type": "Feature", "geometry": {"type": "Polygon", "coordinates": [[[-96.640315, 29.247804], [-96.658466, 29.263876], [-96.560555, 29.335439], [-96.793132, 29.577378], [-96.874222, 29.632706], [-96.569844, 29.961516], [-96.413283, 29.824985], [-96.344476, 29.830147], [-96.259226, 29.668912], [-96.175422, 29.633806], [-96.307672, 29.514523], [-96.349217, 29.406052], [-96.640315, 29.247804]]]}, "properties": {"county": "Colorado"}}, {"type": "Feature", "geometry": {"type": "Polygon", "coordinates": [[[-101.56358, 33.830451], [-101.041158, 33.833625], [-101.038788, 33.397214], [-101.556884, 33.39476], [-101.56358, 33.830451]]]}, "properties": {"county": "Crosby"}}, {"type": "Feature", "geometry": {"type": "Polygon", "coordinates": [[[-95.861778, 33.21933], [-95.857738, 33.461722], [-95.82673, 33.459038], [-95.758439, 33.495098], [-95.621027, 33.48706], [-95.30664, 33.378027], [-95.314165, 33.367232], [-95.584353, 33.359405], [-95.730784, 33.305405], [-95.861778, 33.21933]]]}, "properties": {"county": "Delta"}}, {"type": "Feature", "geometry": {"type": "Polygon", "coordinates": [[[-98.798323, 27.354029], [-98.803325, 28.05748], [-98.235497, 28.057966], [-98.232464, 27.262487], [-98.523723, 27.265115], [-98.522293, 27.343284], [-98.798323, 27.354029]]]}, "properties": {"county": "Duval"}}, {"type": "Feature", "geometry": {"type": "Polygon", "coordinates": [[[-97.945625, 32.233468], [-97.864864, 32.087328], [-98.208386, 31.917511], [-98.251211, 31.980127], [-98.327499, 31.941261], [-98.551158, 32.261436], [-98.475133, 32.298916], [-98.475177, 32.513039], [-98.068545, 32.511626], [-97.945625, 32.233468]]]}, "properties": {"county": "Erath"}}, {"type": "Feature", "geometry": {"type": "Polygon", "coordinates": [[[-101.564856, 34.312493], [-101.041484, 34.312444], [-101.041158, 33.833625], [-101.56358, 33.830451], [-101.564856, 34.312493]]]}, "properties": {"county": "Floyd"}}, {"type": "Feature", "geometry": {"type": "Polygon", "coordinates": [[[-98.8049, 29.090434], [-98.800841, 28.647487], [-99.409021, 28.640566], [-99.41388, 29.091335], [-98.8049, 29.090434]]]}, "properties": {"county": "Frio"}}, {"type": "Feature", "geometry": {"type": "Polygon", "coordinates": [[[-98.587897, 30.138954], [-99.300988, 30.134298], [-99.303996, 30.499832], [-98.59167, 30.499875], [-98.587897, 30.138954]]]}, "properties": {"county": "Gillespie"}}, {"type": "Feature", "geometry": {"type": "Polygon", "coordinates": [[[-101.267122, 31.650854], [-101.775802, 31.651319], [-101.776085, 32.086925], [-101.264216, 32.087136], [-101.267122, 31.650854]]]}, "properties": {"county": "Glasscock"}}, {"type": "Feature", "geometry": {"type": "Polygon", "coordinates": [[[-102.61515, 34.312891], [-102.090415, 34.313132], [-102.085733, 33.824675], [-102.615447, 33.825121], [-102.61515, 34.312891]]]}, "properties": {"county": "Lamb"}}, {"type": "Feature", "geometry": {"type": "Polygon", "coordinates": [[[-96.33109, 31.25223], [-96.322853, 31.374067], [-95.7873, 31.618385], [-95.710112, 31.615587], [-95.739279, 31.504056], [-95.657202, 31.317999], [-95.725226, 31.271084], [-95.76441, 31.094211], [-95.973841, 31.09215], [-96.24102, 30.973737], [-96.33109, 31.25223]]]}, "properties": {"county": "Leon"}}, {"type": "Feature", "geometry": {"type": "Polygon", "coordinates": [[[-98.964232, 30.498482], [-98.964612, 30.921368], [-98.445782, 30.921439], [-98.376877, 30.83489], [-98.432098, 30.78631], [-98.371905, 30.740485], [-98.438995, 30.673285], [-98.351041, 30.486096], [-98.411462, 30.502095], [-98.964232, 30.498482]]]}, "properties": {"county": "Llano"}}, {"type": "Feature", "geometry": {"type": "Polygon", "coordinates": [[[-95.617872, 30.930418], [-95.863059, 30.864125], [-96.16837, 30.822997], [-96.24102, 30.973737], [-95.973841, 31.09215], [-95.76441, 31.094211], [-95.663546, 31.083884], [-95.681158, 30.986958], [-95.617872, 30.930418]]]}, "properties": {"county": "Madison"}}, {"type": "Feature", "geometry": {"type": "Polygon", "coordinates": [[[-98.8049, 29.090434], [-99.41388, 29.091335], [-99.411817, 29.627514], [-98.983787, 29.62345], [-98.927161, 29.56225], [-98.806552, 29.690709], [-98.8049, 29.090434]]]}, "properties": {"county": "Medina"}}, {"type": "Feature", "geometry": {"type": "Polygon", "coordinates": [[[-100.660626, 32.525312], [-100.665353, 32.085407], [-101.183997, 32.087208], [-101.174562, 32.527703], [-100.660626, 32.525312]]]}, "properties": {"county": "Mitchell"}}, {"type": "Feature", "geometry": {"type": "Polygon", "coordinates": [[[-94.808783, 33.363636], [-94.65226, 33.268861], [-94.653994, 32.879506], [-94.705878, 32.879177], [-94.705177, 32.892062], [-94.819828, 32.982886], [-94.808783, 33.363636]]]}, "properties": {"county": "Morris"}}, {"type": "Feature", "geometry": {"type": "Polygon", "coordinates": [[[-99.99772, 34.311829], [-99.997621, 34.224355], [-100.047028, 34.22978], [-100.04848, 33.835974], [-100.518691, 33.83565], [-100.51734, 34.314102], [-99.99772, 34.311829]]]}, "properties": {"county": "Cottle"}}, {"type": "Feature", "geometry": {"type": "Polygon", "coordinates": [[[-101.7584, 30.288044], [-101.65853, 30.357861], [-101.740429, 30.420897], [-101.646245, 30.560763], [-101.65263, 30.619374], [-101.76842, 30.653077], [-101.883436, 30.925647], [-101.98364, 30.98717], [-102.191731, 31.003788], [-102.388804, 31.087156], [-100.962176, 31.08249], [-100.960643, 30.287776], [-101.7584, 30.288044]]]}, "properties": {"county": "Crockett"}}, {"type": "Feature", "geometry": {"type": "Polygon", "coordinates": [[[-100.146543, 32.522793], [-100.660626, 32.525312], [-100.65587, 32.963469], [-100.144224, 32.959978], [-100.146543, 32.522793]]]}, "properties": {"county": "Fisher"}}, {"type": "Feature", "geometry": {"type": "Polygon", "coordinates": [[[-95.82622, 29.78828], [-95.424118, 29.580233], [-95.462503, 29.43924], [-95.549994, 29.438439], [-95.579598, 29.340129], [-95.654355, 29.290945], [-95.752866, 29.324503], [-95.847656, 29.26259], [-95.8796, 29.266761], [-95.894468, 29.31498], [-95.94681, 29.333433], [-95.937434, 29.358086], [-95.97343, 29.411445], [-96.060676, 29.476473], [-96.044596, 29.562238], [-96.088912, 29.601658], [-96.02485, 29.602877], [-96.032711, 29.727944], [-95.82622, 29.78828]]]}, "properties": {"county": "Fort Bend"}}, {"type": "Feature", "geometry": {"type": "Polygon", "coordinates": [[[-96.922114, 33.959579], [-96.899442, 33.933728], [-96.88301, 33.868019], [-96.85609, 33.84749], [-96.761588, 33.824406], [-96.712422, 33.831633], [-96.67858, 33.892786], [-96.65864, 33.900081], [-96.615356, 33.881114], [-96.612925, 33.833939], [-96.500268, 33.772583], [-96.423362, 33.776365], [-96.378473, 33.726648], [-96.384602, 33.397826], [-96.94386, 33.41641], [-96.944611, 33.948994], [-96.922114, 33.959579]]]}, "properties": {"county": "Grayson"}}, {"type": "Feature", "geometry": {"type": "Polygon", "coordinates": [[[-102.090415, 34.313132], [-101.564856, 34.312493], [-101.56358, 33.830451], [-102.085733, 33.824675], [-102.090415, 34.313132]]]}, "properties": {"county": "Hale"}}, {"type": "Feature", "geometry": {"type": "Polygon", "coordinates": [[[-97.766431, 31.672461], [-98.27107, 31.416398], [-98.463736, 31.683989], [-98.156568, 31.841713], [-98.208386, 31.917511], [-98.005462, 32.017897], [-97.766431, 31.672461]]]}, "properties": {"county": "Hamilton"}}, {"type": "Feature", "geometry": {"type": "Polygon", "coordinates": [[[-101.041158, 33.833625], [-101.041484, 34.312444], [-100.51734, 34.314102], [-100.518691, 33.83565], [-101.041158, 33.833625]]]}, "properties": {"county": "Motley"}}, {"type": "Feature", "geometry": {"type": "Polygon", "coordinates": [[[-94.326616, 31.224754], [-94.495874, 31.405728], [-94.530634, 31.398654], [-94.544888, 31.431715], [-94.728679, 31.457226], [-94.865857, 31.526916], [-94.951969, 31.641351], [-94.967167, 31.753767], [-94.937532, 31.845555], [-94.452416, 31.844281], [-94.395361, 31.638752], [-94.311042, 31.589252], [-94.339773, 31.24082], [-94.326616, 31.224754]]]}, "properties": {"county": "Nacogdoches"}}, {"type": "Feature", "geometry": {"type": "Polygon", "coordinates": [[[-93.901452, 30.242672], [-93.865711, 30.947218], [-93.911126, 31.158071], [-93.599705, 31.176456], [-93.588503, 31.165581], [-93.535097, 31.185614], [-93.527644, 31.074509], [-93.540354, 31.008135], [-93.530936, 30.924534], [-93.558617, 30.869424], [-93.563292, 30.818503], [-93.727844, 30.57407], [-93.740045, 30.538765], [-93.710117, 30.5064], [-93.698302, 30.438657], [-93.757654, 30.390423], [-93.765822, 30.333318], [-93.720575, 30.295961], [-93.716223, 30.244318], [-93.901452, 30.242672]]]}, "properties": {"county": "Newton"}}, {"type": "Feature", "geometry": {"type": "Polygon", "coordinates": [[[-95.125451, 33.389454], [-94.808783, 33.363636], [-94.819828, 32.982886], [-94.926546, 33.069287], [-95.12613, 33.034581], [-95.125451, 33.389454]]]}, "properties": {"county": "Titus"}}, {"type": "Feature", "geometry": {"type": "Polygon", "coordinates": [[[-102.525184, 34.746931], [-101.998493, 34.74819], [-101.99802, 34.313039], [-102.525631, 34.313034], [-102.525184, 34.746931]]]}, "properties": {"county": "Castro"}}, {"type": "Feature", "geometry": {"type": "Polygon", "coordinates": [[[-98.575616, 32.954349], [-98.576256, 32.515163], [-99.09605, 32.514768], [-99.096016, 32.957037], [-98.575616, 32.954349]]]}, "properties": {"county": "Stephens"}}, {"type": "Feature", "geometry": {"type": "Polygon", "coordinates": [[[-99.988827, 32.960121], [-100.519208, 32.962926], [-100.517449, 33.397866], [-99.99098, 33.397404], [-99.988827, 32.960121]]]}, "properties": {"county": "Stonewall"}}, {"type": "Feature", "geometry": {"type": "Polygon", "coordinates": [[[-102.076214, 32.959702], [-102.595023, 32.958831], [-102.594836, 33.388489], [-102.075929, 33.389586], [-102.076214, 32.959702]]]}, "properties": {"county": "Terry"}}, {"type": "Feature", "geometry": {"type": "Polygon", "coordinates": [[[-101.085156, 36.499244], [-100.546145, 36.499343], [-100.546724, 36.056536], [-101.085716, 36.057572], [-101.085156, 36.499244]]]}, "properties": {"county": "Ochiltree"}}, {"type": "Feature", "geometry": {"type": "Polygon", "coordinates": [[[-103.042377, 35.183156], [-103.041554, 35.622487], [-102.162809, 35.627515], [-102.167471, 35.183233], [-103.042377, 35.183156]]]}, "properties": {"county": "Oldham"}}, {"type": "Feature", "geometry": {"type": "Polygon", "coordinates": [[[-97.544181, 32.994177], [-97.550582, 32.555391], [-98.066836, 32.558822], [-98.056094, 33.003332], [-97.544181, 32.994177]]]}, "properties": {"county": "Parker"}}, {"type": "Feature", "geometry": {"type": "Polygon", "coordinates": [[[-95.665389, 32.960434], [-95.635017, 32.72038], [-95.829581, 32.766967], [-95.987259, 32.876415], [-95.9453, 32.979877], [-95.665389, 32.960434]]]}, "properties": {"county": "Rains"}}, {"type": "Feature", "geometry": {"type": "Polygon", "coordinates": [[[-102.168839, 34.747417], [-102.167471, 35.183233], [-101.622941, 35.183117], [-101.629257, 34.747649], [-102.168839, 34.747417]]]}, "properties": {"county": "Randall"}}, {"type": "Feature", "geometry": {"type": "Polygon", "coordinates": [[[-100.540158, 35.619296], [-101.085935, 35.619102], [-101.085716, 36.057572], [-100.540221, 36.056491], [-100.540158, 35.619296]]]}, "properties": {"county": "Roberts"}}, {"type": "Feature", "geometry": {"type": "Polygon", "coordinates": [[[-96.51897, 32.813616], [-96.516866, 32.982308], [-96.297227, 32.981752], [-96.297376, 32.814185], [-96.51897, 32.813616]]]}, "properties": {"county": "Rockwall"}}, {"type": "Feature", "geometry": {"type": "Polygon", "coordinates": [[[-98.439687, 31.029537], [-98.445782, 30.921439], [-99.092431, 30.921968], [-99.090622, 31.460927], [-98.991608, 31.484071], [-98.967159, 31.435903], [-98.8725, 31.444299], [-98.854292, 31.413425], [-98.773, 31.410926], [-98.762589, 31.375282], [-98.726094, 31.428278], [-98.510341, 31.155666], [-98.523459, 31.088886], [-98.439687, 31.029537]]]}, "properties": {"county": "San Saba"}}, {"type": "Feature", "geometry": {"type": "Polygon", "coordinates": [[[-97.864864, 32.087328], [-97.945625, 32.233468], [-97.78276, 32.316493], [-97.615286, 32.318618], [-97.615055, 32.203581], [-97.864864, 32.087328]]]}, "properties": {"county": "Somervell"}}, {"type": "Feature", "geometry": {"type": "Polygon", "coordinates": [[[-97.334463, 30.402843], [-97.576167, 30.501799], [-97.775211, 30.429993], [-97.956734, 30.628249], [-98.049886, 30.624155], [-97.96286, 30.785641], [-97.828512, 30.906188], [-97.625288, 30.87043], [-97.271418, 30.735692], [-97.155219, 30.457344], [-97.334463, 30.402843]]]}, "properties": {"county": "Williamson"}}, {"type": "Feature", "geometry": {"type": "Polygon", "coordinates": [[[-97.918189, 33.433873], [-97.383015, 33.43289], [-97.39848, 32.990839], [-97.921642, 33.001284], [-97.918189, 33.433873]]]}, "properties": {"county": "Wise"}}, {"type": "Feature", "geometry": {"type": "Polygon", "coordinates": [[[-99.41388, 29.091335], [-99.409021, 28.640566], [-100.114336, 28.648122], [-100.111406, 29.086318], [-99.41388, 29.091335]]]}, "properties": {"county": "Zavala"}}, {"type": "Feature", "geometry": {"type": "Polygon", "coordinates": [[[-98.953088, 33.834], [-98.423577, 33.836047], [-98.420666, 33.396195], [-98.953938, 33.397534], [-98.953088, 33.834]]]}, "properties": {"county": "Archer"}}, {"type": "Feature", "geometry": {"type": "Polygon", "coordinates": [[[-101.090749, 34.748246], [-101.629257, 34.747649], [-101.622941, 35.183117], [-101.086281, 35.18214], [-101.090749, 34.748246]]]}, "properties": {"county": "Armstrong"}}, {"type": "Feature", "geometry": {"type": "Polygon", "coordinates": [[[-97.081834, 30.259357], [-97.024461, 30.051435], [-97.315823, 29.786541], [-97.649449, 30.067866], [-97.492679, 30.209946], [-97.369539, 30.419563], [-97.081834, 30.259357]]]}, "properties": {"county": "Bastrop"}}, {"type": "Feature", "geometry": {"type": "Polygon", "coordinates": [[[-98.59167, 30.499875], [-98.411462, 30.502095], [-98.125556, 30.426186], [-98.172977, 30.356312], [-98.2976, 30.037994], [-98.414018, 29.937557], [-98.587897, 30.138954], [-98.59167, 30.499875]]]}, "properties": {"county": "Blanco"}}, {"type": "Feature", "geometry": {"type": "Polygon", "coordinates": [[[-98.523723, 27.265115], [-98.058078, 27.260981], [-97.985887, 27.209308], [-97.985494, 26.780917], [-98.422616, 26.783535], [-98.417883, 27.055285], [-98.466542, 27.054711], [-98.492943, 27.235012], [-98.523723, 27.265115]]]}, "properties": {"county": "Brooks"}}, {"type": "Feature", "geometry": {"type": "Polygon", "coordinates": [[[-97.911684, 31.034919], [-97.828512, 30.906188], [-97.96286, 30.785641], [-98.123111, 30.484723], [-98.125556, 30.426186], [-98.351041, 30.486096], [-98.438995, 30.673285], [-98.371905, 30.740485], [-98.432098, 30.78631], [-98.376877, 30.83489], [-98.445782, 30.921439], [-98.439687, 31.029537], [-97.911684, 31.034919]]]}, "properties": {"county": "Burnet"}}, {"type": "Feature", "geometry": {"type": "Polygon", "coordinates": [[[-95.15211, 32.902641], [-95.152206, 33.01345], [-95.137213, 33.030938], [-94.926546, 33.069287], [-94.719942, 32.904502], [-95.15211, 32.902641]]]}, "properties": {"county": "Camp"}}, {"type": "Feature", "geometry": {"type": "Polygon", "coordinates": [[[-103.047346, 33.824675], [-102.615447, 33.825121], [-102.594836, 33.388489], [-103.056655, 33.388416], [-103.047346, 33.824675]]]}, "properties": {"county": "Cochran"}}, {"type": "Feature", "geometry": {"type": "Polygon", "coordinates": [[[-100.111234, 31.580267], [-99.721698, 31.576759], [-99.60185, 31.49195], [-99.603223, 31.087296], [-100.115216, 31.087994], [-100.111234, 31.580267]]]}, "properties": {"county": "Concho"}}, {"type": "Feature", "geometry": {"type": "Polygon", "coordinates": [[[-98.180006, 31.463717], [-97.689834, 31.711019], [-97.418606, 31.320202], [-97.9071, 31.069374], [-98.180006, 31.463717]]]}, "properties": {"county": "Coryell"}}, {"type": "Feature", "geometry": {"type": "Polygon", "coordinates": [[[-102.767246, 31.651714], [-102.31805, 31.651327], [-102.301212, 31.086212], [-102.388804, 31.087156], [-102.429545, 31.193557], [-102.676497, 31.326823], [-102.767365, 31.293803], [-102.767246, 31.651714]]]}, "properties": {"county": "Crane"}}, {"type": "Feature", "geometry": {"type": "Polygon", "coordinates": [[[-102.20852, 32.958956], [-101.691284, 32.961838], [-101.68874, 32.525222], [-102.202703, 32.523271], [-102.20852, 32.958956]]]}, "properties": {"county": "Dawson"}}, {"type": "Feature", "geometry": {"type": "Polygon", "coordinates": [[[-97.574639, 28.8133], [-97.75511, 29.007113], [-97.240108, 29.384488], [-96.976378, 29.104046], [-97.305916, 28.864037], [-97.41734, 28.925228], [-97.574639, 28.8133]]]}, "properties": {"county": "DeWitt"}}, {"type": "Feature", "geometry": {"type": "Polygon", "coordinates": [[[-100.114336, 28.648122], [-99.395736, 28.640784], [-99.394177, 28.204627], [-100.113719, 28.197819], [-100.114336, 28.648122]]]}, "properties": {"county": "Dimmit"}}, {"type": "Feature", "geometry": {"type": "Polygon", "coordinates": [[[-100.700393, 30.288276], [-99.754142, 30.290698], [-99.757621, 30.074132], [-99.967626, 30.082356], [-100.03088, 29.848273], [-100.014188, 29.623495], [-100.699932, 29.623897], [-100.700393, 30.288276]]]}, "properties": {"county": "Edwards"}}, {"type": "Feature", "geometry": {"type": "Polygon", "coordinates": [[[-97.317893, 29.784658], [-97.024461, 30.051435], [-97.019163, 30.032], [-96.794552, 30.160545], [-96.647223, 30.145174], [-96.62198, 30.044283], [-96.569844, 29.961516], [-96.874222, 29.632706], [-97.142643, 29.628101], [-97.130517, 29.643296], [-97.317893, 29.784658]]]}, "properties": {"county": "Fayette"}}, {"type": "Feature", "geometry": {"type": "Polygon", "coordinates": [[[-95.125451, 33.389454], [-95.12613, 33.034581], [-95.147452, 33.020871], [-95.172947, 32.961829], [-95.308957, 32.962572], [-95.308593, 33.37719], [-95.125451, 33.389454]]]}, "properties": {"county": "Franklin"}}, {"type": "Feature", "geometry": {"type": "Polygon", "coordinates": [[[-97.861875, 26.348156], [-97.527582, 26.299304], [-97.446987, 26.324947], [-97.377769, 26.409107], [-97.369627, 26.394603], [-97.388965, 26.36585], [-97.391001, 26.332262], [-97.358176, 26.356435], [-97.330441, 26.350582], [-97.354359, 26.313941], [-97.343927, 26.267376], [-97.311866, 26.273737], [-97.307031, 26.253126], [-97.32128, 26.228699], [-97.296598, 26.200709], [-97.306776, 26.159487], [-97.282094, 26.120301], [-97.295072, 26.108342], [-97.270898, 26.086459], [-97.199651, 26.077044], [-97.195071, 26.04193], [-97.226114, 26.024372], [-97.216954, 25.993838], [-97.167208, 26.007069], [-97.162628, 26.023482], [-97.18273, 26.053126], [-97.152009, 26.062108], [-97.145567, 25.971132], [-97.348275, 25.931143], [-97.366723, 25.885066], [-97.408357, 25.856459], [-97.511161, 25.887458], [-97.582565, 25.937857], [-97.671568, 26.033955], [-97.863056, 26.061273], [-97.861875, 26.348156]]]}, "properties": {"county": "Cameron"}}, {"type": "Feature", "geometry": {"type": "Polygon", "coordinates": [[[-101.085935, 35.619102], [-101.086281, 35.18214], [-101.622941, 35.183117], [-101.622831, 35.624057], [-101.085935, 35.619102]]]}, "properties": {"county": "Carson"}}, {"type": "Feature", "geometry": {"type": "Polygon", "coordinates": [[[-94.04299, 33.271243], [-94.042886, 32.881089], [-94.653994, 32.879506], [-94.65226, 33.268861], [-94.572463, 33.249826], [-94.517868, 33.282096], [-94.415739, 33.284017], [-94.379409, 33.255651], [-94.231333, 33.241073], [-94.218517, 33.296936], [-94.056144, 33.298036], [-94.04299, 33.271243]]]}, "properties": {"county": "Cass"}}, {"type": "Feature", "geometry": {"type": "Polygon", "coordinates": [[[-94.865857, 31.526916], [-95.003345, 31.42571], [-95.101382, 31.469887], [-95.176359, 31.584826], [-95.273203, 31.592886], [-95.258859, 31.609959], [-95.412908, 31.835157], [-95.446747, 31.843116], [-95.428512, 32.084475], [-95.456843, 32.112307], [-95.459908, 32.135559], [-94.985272, 32.137989], [-94.985037, 31.846193], [-94.937532, 31.845555], [-94.967167, 31.753767], [-94.951969, 31.641351], [-94.865857, 31.526916]]]}, "properties": {"county": "Cherokee"}}, {"type": "Feature", "geometry": {"type": "Polygon", "coordinates": [[[-98.421419, 33.466797], [-98.433769, 34.096116], [-98.383222, 34.147806], [-98.364023, 34.157109], [-98.325445, 34.151025], [-98.293901, 34.13302], [-98.16912, 34.114171], [-98.08526, 34.003259], [-98.041117, 33.993456], [-97.983521, 34.001559], [-97.94573, 33.989839], [-97.953395, 33.936445], [-97.977859, 33.889929], [-97.978919, 33.467129], [-98.421419, 33.466797]]]}, "properties": {"county": "Clay"}}, {"type": "Feature", "geometry": {"type": "Polygon", "coordinates": [[[-100.235761, 31.69297], [-100.82537, 31.696155], [-100.821594, 32.08661], [-100.235137, 32.082372], [-100.235761, 31.69297]]]}, "properties": {"county": "Coke"}}, {"type": "Feature", "geometry": {"type": "Polygon", "coordinates": [[[-96.297227, 32.981752], [-96.843979, 32.987554], [-96.834004, 33.405504], [-96.386474, 33.398075], [-96.384495, 33.341119], [-96.295413, 33.351936], [-96.297227, 32.981752]]]}, "properties": {"county": "Collin"}}, {"type": "Feature", "geometry": {"type": "Polygon", "coordinates": [[[-98.443852, 29.71965], [-98.550489, 29.760713], [-98.646124, 29.745181], [-98.2976, 30.037994], [-98.030523, 29.848539], [-97.999271, 29.752444], [-98.089941, 29.683479], [-98.310928, 29.594473], [-98.378068, 29.662613], [-98.338618, 29.721786], [-98.443852, 29.71965]]]}, "properties": {"county": "Comal"}}, {"type": "Feature", "geometry": {"type": "Polygon", "coordinates": [[[-94.117604, 30.241665], [-93.716223, 30.244318], [-93.695252, 30.1476], [-93.721589, 30.051939], [-93.789431, 29.987812], [-93.840799, 29.914423], [-93.860169, 29.977397], [-94.031976, 30.028013], [-94.115917, 30.160347], [-94.117604, 30.241665]]]}, "properties": {"county": "Orange"}}, {"type": "Feature", "geometry": {"type": "Polygon", "coordinates": [[[-102.525184, 34.746931], [-102.525631, 34.313034], [-103.043979, 34.312749], [-103.042769, 34.747361], [-102.525184, 34.746931]]]}, "properties": {"county": "Parmer"}}, {"type": "Feature", "geometry": {"type": "Polygon", "coordinates": [[[-101.267122, 31.650854], [-101.274799, 31.079379], [-101.776191, 31.079784], [-101.775802, 31.651319], [-101.267122, 31.650854]]]}, "properties": {"county": "Reagan"}}, {"type": "Feature", "geometry": {"type": "Polygon", "coordinates": [[[-99.967626, 30.082356], [-99.689879, 30.073948], [-99.691215, 29.908582], [-99.600862, 29.907662], [-99.60313, 29.627181], [-100.014188, 29.623495], [-100.03088, 29.848273], [-99.967626, 30.082356]]]}, "properties": {"county": "Real"}}, {"type": "Feature", "geometry": {"type": "Polygon", "coordinates": [[[-94.746096, 33.703016], [-94.746925, 33.328938], [-94.808783, 33.363636], [-95.125451, 33.389454], [-95.308637, 33.380662], [-95.310475, 33.871481], [-95.255541, 33.892047], [-95.252906, 33.933648], [-95.231113, 33.960361], [-95.067253, 33.917351], [-95.039452, 33.860621], [-94.8693, 33.745871], [-94.760604, 33.727054], [-94.746096, 33.703016]]]}, "properties": {"county": "Red River"}}, {"type": "Feature", "geometry": {"type": "Polygon", "coordinates": [[[-96.349364, 30.911423], [-96.45763, 30.744474], [-96.566983, 30.69567], [-96.599467, 30.728634], [-96.621281, 30.730819], [-96.68497, 30.906191], [-96.75633, 30.927206], [-96.829121, 31.105871], [-96.319165, 31.357129], [-96.33109, 31.25223], [-96.24102, 30.973737], [-96.349364, 30.911423]]]}, "properties": {"county": "Robertson"}}, {"type": "Feature", "geometry": {"type": "Polygon", "coordinates": [[[-100.234636, 31.587147], [-100.235137, 32.082372], [-99.713971, 32.082089], [-99.721698, 31.576759], [-100.234636, 31.587147]]]}, "properties": {"county": "Runnels"}}, {"type": "Feature", "geometry": {"type": "Polygon", "coordinates": [[[-94.039034, 31.134271], [-94.044154, 31.409979], [-93.983239, 31.466114], [-93.984461, 31.569419], [-93.834923, 31.58621], [-93.798087, 31.534044], [-93.729613, 31.487922], [-93.695866, 31.409392], [-93.640805, 31.372546], [-93.671676, 31.299586], [-93.614402, 31.260869], [-93.599705, 31.176456], [-93.911126, 31.158071], [-94.039034, 31.134271]]]}, "properties": {"county": "Sabine"}}, {"type": "Feature", "geometry": {"type": "Polygon", "coordinates": [[[-101.173378, 32.963597], [-100.65587, 32.963469], [-100.660626, 32.525312], [-101.174562, 32.527703], [-101.173378, 32.963597]]]}, "properties": {"county": "Scurry"}}, {"type": "Feature", "geometry": {"type": "Polygon", "coordinates": [[[-99.09605, 32.514768], [-99.612026, 32.514654], [-99.612001, 32.956962], [-99.096016, 32.957037], [-99.09605, 32.514768]]]}, "properties": {"county": "Shackelford"}}, {"type": "Feature", "geometry": {"type": "Polygon", "coordinates": [[[-94.511431, 31.973984], [-94.01563, 31.979856], [-93.975377, 31.92366], [-93.92029, 31.888651], [-93.840029, 31.800596], [-93.812477, 31.715246], [-93.834923, 31.58621], [-93.984461, 31.569419], [-94.090717, 31.620609], [-94.399091, 31.653596], [-94.452416, 31.844281], [-94.511431, 31.973984]]]}, "properties": {"county": "Shelby"}}, {"type": "Feature", "geometry": {"type": "Polygon", "coordinates": [[[-94.985272, 32.137989], [-95.459908, 32.135559], [-95.488733, 32.232486], [-95.449165, 32.355233], [-95.5943, 32.479858], [-95.594541, 32.687026], [-95.47297, 32.606426], [-95.332164, 32.604252], [-95.167523, 32.543957], [-95.15341, 32.570115], [-94.986935, 32.537246], [-94.985272, 32.137989]]]}, "properties": {"county": "Smith"}}, {"type": "Feature", "geometry": {"type": "Polygon", "coordinates": [[[-98.32067, 26.783081], [-98.58672, 26.257456], [-98.6329, 26.250348], [-98.705676, 26.27748], [-98.751164, 26.331307], [-98.807348, 26.369421], [-98.861354, 26.36599], [-99.047575, 26.406922], [-99.105719, 26.43872], [-99.172058, 26.57086], [-99.011112, 26.675023], [-98.95423, 26.785694], [-98.32067, 26.783081]]]}, "properties": {"county": "Starr"}}, {"type": "Feature", "geometry": {"type": "Polygon", "coordinates": [[[-100.821594, 32.08661], [-100.82537, 31.696155], [-100.861099, 31.705418], [-100.865256, 31.562294], [-101.26763, 31.556462], [-101.264216, 32.087136], [-100.821594, 32.08661]]]}, "properties": {"county": "Sterling"}}, {"type": "Feature", "geometry": {"type": "Polygon", "coordinates": [[[-100.960587, 30.706071], [-100.116234, 30.710366], [-100.116461, 30.290296], [-100.960643, 30.287776], [-100.960587, 30.706071]]]}, "properties": {"county": "Sutton"}}, {"type": "Feature", "geometry": {"type": "Polygon", "coordinates": [[[-101.47158, 34.31229], [-101.99802, 34.313039], [-101.998493, 34.74819], [-101.471562, 34.747462], [-101.47158, 34.31229]]]}, "properties": {"county": "Swisher"}}, {"type": "Feature", "geometry": {"type": "Polygon", "coordinates": [[[-100.688764, 31.086576], [-100.693065, 31.523954], [-101.267947, 31.528688], [-101.26763, 31.556462], [-100.865256, 31.562294], [-100.861099, 31.705418], [-100.82537, 31.696155], [-100.235761, 31.69297], [-100.234636, 31.587147], [-100.111234, 31.580267], [-100.115216, 31.087994], [-100.688764, 31.086576]]]}, "properties": {"county": "Tom Green"}}, {"type": "Feature", "geometry": {"type": "Polygon", "coordinates": [[[-97.369539, 30.419563], [-97.492679, 30.209946], [-97.710215, 30.024499], [-98.172977, 30.356312], [-98.125556, 30.426186], [-98.123111, 30.484723], [-98.049886, 30.624155], [-97.956734, 30.628249], [-97.775211, 30.429993], [-97.576167, 30.501799], [-97.369539, 30.419563]]]}, "properties": {"county": "Travis"}}, {"type": "Feature", "geometry": {"type": "Polygon", "coordinates": [[[-94.545717, 30.526977], [-94.657992, 31.012007], [-94.561943, 31.058952], [-94.45782, 31.033326], [-94.451127, 31.003445], [-94.353782, 31.039371], [-94.238424, 31.013705], [-94.243766, 30.983554], [-94.179343, 30.794974], [-94.150119, 30.790203], [-94.125824, 30.684052], [-94.05096, 30.638568], [-94.094812, 30.575543], [-94.071689, 30.526033], [-94.545717, 30.526977]]]}, "properties": {"county": "Tyler"}}, {"type": "Feature", "geometry": {"type": "Polygon", "coordinates": [[[-96.075899, 32.357505], [-96.076801, 32.838489], [-95.934433, 32.837217], [-95.829581, 32.766967], [-95.635017, 32.72038], [-95.59323, 32.693011], [-95.5943, 32.479858], [-95.449165, 32.355233], [-96.075899, 32.357505]]]}, "properties": {"county": "Van Zandt"}}, {"type": "Feature", "geometry": {"type": "Polygon", "coordinates": [[[-96.645867, 28.710457], [-96.853757, 28.635199], [-96.930367, 28.586728], [-96.890951, 28.507178], [-96.982147, 28.499639], [-97.048529, 28.549976], [-97.160751, 28.553475], [-97.182359, 28.610602], [-97.158933, 28.776156], [-97.231971, 28.865303], [-97.305916, 28.864037], [-96.976378, 29.104046], [-96.938587, 29.063244], [-96.832103, 29.021299], [-96.792133, 28.918803], [-96.711514, 28.851411], [-96.645867, 28.710457]]]}, "properties": {"county": "Victoria"}}, {"type": "Feature", "geometry": {"type": "Polygon", "coordinates": [[[-96.640883, 30.296786], [-96.358976, 30.372637], [-96.340485, 30.367925], [-96.312795, 30.3843], [-96.199544, 30.38291], [-96.15463, 30.330288], [-96.085893, 30.288983], [-96.093165, 30.225187], [-96.15901, 30.206613], [-96.191418, 30.134669], [-96.146052, 30.070224], [-96.292849, 30.09615], [-96.62198, 30.044283], [-96.647223, 30.145174], [-96.794552, 30.160545], [-96.731645, 30.243886], [-96.640883, 30.296786]]]}, "properties": {"county": "Washington"}}, {"type": "Feature", "geometry": {"type": "Polygon", "coordinates": [[[-100.000385, 35.182702], [-100.538978, 35.183144], [-100.540158, 35.619296], [-100.000392, 35.619115], [-100.000385, 35.182702]]]}, "properties": {"county": "Wheeler"}}, {"type": "Feature", "geometry": {"type": "Polygon", "coordinates": [[[-100.668356, 29.08397], [-100.793662, 29.242146], [-100.745564, 29.254809], [-100.699141, 29.419747], [-100.699932, 29.623897], [-100.112098, 29.623263], [-100.111406, 29.086318], [-100.668356, 29.08397]]]}, "properties": {"county": "Kinney"}}, {"type": "Feature", "geometry": {"type": "Polygon", "coordinates": [[[-98.423577, 33.836047], [-98.953088, 33.834], [-98.952527, 34.195621], [-98.858419, 34.152732], [-98.76557, 34.136376], [-98.700182, 34.135995], [-98.652347, 34.161029], [-98.599789, 34.160571], [-98.553717, 34.13366], [-98.504182, 34.072371], [-98.475066, 34.064269], [-98.433769, 34.096116], [-98.423577, 33.836047]]]}, "properties": {"county": "Wichita"}}, {"type": "Feature", "geometry": {"type": "Polygon", "coordinates": [[[-97.527582, 26.299304], [-97.861875, 26.348156], [-97.86192, 26.433579], [-98.004189, 26.448784], [-97.957405, 26.611769], [-97.861688, 26.597995], [-97.441206, 26.599901], [-97.416955, 26.553637], [-97.441383, 26.455418], [-97.411612, 26.447275], [-97.4195, 26.413178], [-97.382485, 26.411326], [-97.446987, 26.324947], [-97.527582, 26.299304]]]}, "properties": {"county": "Willacy"}}, {"type": "Feature", "geometry": {"type": "Polygon", "coordinates": [[[-95.15341, 32.570115], [-95.167523, 32.543957], [-95.332164, 32.604252], [-95.47297, 32.606426], [-95.626279, 32.708703], [-95.665389, 32.960434], [-95.172947, 32.961829], [-95.152206, 33.01345], [-95.15341, 32.570115]]]}, "properties": {"county": "Wood"}}, {"type": "Feature", "geometry": {"type": "Polygon", "coordinates": [[[-95.428512, 32.084475], [-95.446747, 31.843116], [-95.412908, 31.835157], [-95.258859, 31.609959], [-95.273203, 31.592886], [-95.651764, 31.541791], [-95.739279, 31.504056], [-95.710112, 31.615587], [-95.7873, 31.618385], [-95.794081, 31.66031], [-95.861262, 31.687451], [-95.875937, 31.755503], [-95.980568, 31.784561], [-95.994127, 31.866258], [-96.027788, 31.878242], [-96.022955, 31.957581], [-96.062172, 31.95634], [-96.052786, 32.005895], [-95.428512, 32.084475]]]}, "properties": {"county": "Anderson"}}, {"type": "Feature", "geometry": {"type": "Polygon", "coordinates": [[[-98.800841, 28.647487], [-98.804763, 29.250693], [-98.407336, 29.114435], [-98.098315, 28.786949], [-98.335031, 28.612658], [-98.335047, 28.648275], [-98.800841, 28.647487]]]}, "properties": {"county": "Atascosa"}}, {"type": "Feature", "geometry": {"type": "Polygon", "coordinates": [[[-96.62198, 30.044283], [-96.292849, 30.09615], [-96.146052, 30.070224], [-96.084541, 30.005137], [-96.122754, 29.968545], [-96.121313, 29.841963], [-96.049234, 29.803187], [-96.02485, 29.602877], [-96.088912, 29.601658], [-96.259226, 29.668912], [-96.344476, 29.830147], [-96.413283, 29.824985], [-96.569844, 29.961516], [-96.62198, 30.044283]]]}, "properties": {"county": "Austin"}}, {"type": "Feature", "geometry": {"type": "Polygon", "coordinates": [[[-101.557434, 32.961025], [-102.076214, 32.959702], [-102.075929, 33.389586], [-101.556884, 33.39476], [-101.557434, 32.961025]]]}, "properties": {"county": "Lynn"}}, {"type": "Feature", "geometry": {"type": "Polygon", "coordinates": [[[-103.043979, 34.312749], [-102.61515, 34.312891], [-102.615447, 33.825121], [-103.047346, 33.824675], [-103.043979, 34.312749]]]}, "properties": {"county": "Bailey"}}, {"type": "Feature", "geometry": {"type": "Polygon", "coordinates": [[[-99.47565, 33.834005], [-98.953088, 33.834], [-98.953938, 33.397534], [-99.472444, 33.399023], [-99.47565, 33.834005]]]}, "properties": {"county": "Baylor"}}, {"type": "Feature", "geometry": {"type": "Polygon", "coordinates": [[[-97.375579, 28.388684], [-97.567622, 28.129683], [-97.817716, 28.176848], [-97.808774, 28.183415], [-98.089764, 28.662979], [-97.915106, 28.719648], [-97.77853, 28.668027], [-97.696945, 28.541856], [-97.558496, 28.514054], [-97.551369, 28.450441], [-97.375579, 28.388684]]]}, "properties": {"county": "Bee"}}, {"type": "Feature", "geometry": {"type": "Polygon", "coordinates": [[[-98.134171, 29.441751], [-98.407336, 29.114435], [-98.804763, 29.250693], [-98.806552, 29.690709], [-98.778782, 29.720167], [-98.550489, 29.760713], [-98.443852, 29.71965], [-98.338618, 29.721786], [-98.378068, 29.662613], [-98.310928, 29.594473], [-98.298524, 29.561141], [-98.126767, 29.482248], [-98.134171, 29.441751]]]}, "properties": {"county": "Bexar"}}, {"type": "Feature", "geometry": {"type": "Polygon", "coordinates": [[[-101.173378, 32.963597], [-101.174571, 32.524112], [-101.68874, 32.525222], [-101.691284, 32.961838], [-101.173378, 32.963597]]]}, "properties": {"county": "Borden"}}, {"type": "Feature", "geometry": {"type": "Polygon", "coordinates": [[[-98.005462, 32.017897], [-97.615055, 32.203581], [-97.516121, 32.133612], [-97.476086, 32.17346], [-97.485968, 32.017611], [-97.379992, 31.97274], [-97.438765, 31.933506], [-97.382848, 31.870788], [-97.28206, 31.843152], [-97.32653, 31.78836], [-97.277265, 31.745492], [-97.60523, 31.587762], [-97.689834, 31.711019], [-97.766431, 31.672461], [-98.005462, 32.017897]]]}, "properties": {"county": "Bosque"}}, {"type": "Feature", "geometry": {"type": "Polygon", "coordinates": [[[-95.424118, 29.580233], [-95.297409, 29.596514], [-95.216422, 29.55608], [-95.233081, 29.465566], [-95.056528, 29.199934], [-95.125134, 29.067321], [-95.238924, 28.988644], [-95.38239, 28.866348], [-95.439594, 28.859022], [-95.507041, 28.824755], [-95.567708, 28.829758], [-95.67955, 28.965734], [-95.764937, 28.967359], [-95.770446, 29.06621], [-95.84631, 29.107799], [-95.874028, 29.229702], [-95.847656, 29.26259], [-95.752866, 29.324503], [-95.654355, 29.290945], [-95.579598, 29.340129], [-95.549994, 29.438439], [-95.462503, 29.43924], [-95.424118, 29.580233]]]}, "properties": {"county": "Brazoria"}}, {"type": "Feature", "geometry": {"type": "Polygon", "coordinates": [[[-99.301718, 30.286653], [-100.116461, 30.290296], [-100.116234, 30.710366], [-99.483869, 30.710771], [-99.484493, 30.499641], [-99.303996, 30.499832], [-99.301718, 30.286653]]]}, "properties": {"county": "Kimble"}}, {"type": "Feature", "geometry": {"type": "Polygon", "coordinates": [[[-98.950875, 32.956918], [-98.953938, 33.397534], [-98.420666, 33.396195], [-98.427211, 32.9523], [-98.950875, 32.956918]]]}, "properties": {"county": "Young"}}, {"type": "Feature", "geometry": {"type": "Polygon", "coordinates": [[[-95.857738, 33.461722], [-95.846334, 33.841136], [-95.763622, 33.847954], [-95.757156, 33.867293], [-95.599678, 33.934247], [-95.559414, 33.930179], [-95.544346, 33.880111], [-95.407795, 33.866308], [-95.310475, 33.871481], [-95.308637, 33.380662], [-95.621027, 33.48706], [-95.758439, 33.495098], [-95.82673, 33.459038], [-95.857738, 33.461722]]]}, "properties": {"county": "Lamar"}}, {"type": "Feature", "geometry": {"type": "Polygon", "coordinates": [[[-98.562739, 31.230582], [-98.180006, 31.463717], [-97.9071, 31.069374], [-97.911684, 31.034919], [-98.439687, 31.029537], [-98.523459, 31.088886], [-98.510341, 31.155666], [-98.562739, 31.230582]]]}, "properties": {"county": "Lampasas"}}, {"type": "Feature", "geometry": {"type": "Polygon", "coordinates": [[[-96.938587, 29.063244], [-97.240108, 29.384488], [-97.204087, 29.580613], [-97.142643, 29.628101], [-96.874222, 29.632706], [-96.793132, 29.577378], [-96.560555, 29.335439], [-96.938587, 29.063244]]]}, "properties": {"county": "Lavaca"}}, {"type": "Feature", "geometry": {"type": "Polygon", "coordinates": [[[-97.019163, 30.032], [-97.081834, 30.259357], [-97.334463, 30.402843], [-97.155219, 30.457344], [-96.963629, 30.557169], [-96.740542, 30.318655], [-96.640883, 30.296786], [-96.731645, 30.243886], [-96.794552, 30.160545], [-97.019163, 30.032]]]}, "properties": {"county": "Lee"}}, {"type": "Feature", "geometry": {"type": "Polygon", "coordinates": [[[-95.165897, 30.344976], [-94.849414, 30.493553], [-94.732732, 30.490066], [-94.603159, 30.130904], [-94.44491, 30.113015], [-94.442235, 29.889538], [-94.98146, 29.884276], [-94.985364, 29.972279], [-95.031179, 29.993324], [-95.165897, 30.344976]]]}, "properties": {"county": "Liberty"}}, {"type": "Feature", "geometry": {"type": "Polygon", "coordinates": [[[-96.236629, 31.413392], [-96.322853, 31.374067], [-96.319165, 31.357129], [-96.596862, 31.2209], [-96.932215, 31.708887], [-96.719114, 31.814887], [-96.496713, 31.796191], [-96.236629, 31.413392]]]}, "properties": {"county": "Limestone"}}, {"type": "Feature", "geometry": {"type": "Polygon", "coordinates": [[[-100.546724, 36.056536], [-100.546145, 36.499343], [-100.000406, 36.499702], [-100.000399, 36.055677], [-100.546724, 36.056536]]]}, "properties": {"county": "Lipscomb"}}, {"type": "Feature", "geometry": {"type": "Polygon", "coordinates": [[[-103.326501, 32.00037], [-103.327538, 31.65142], [-103.610887, 31.651802], [-103.625726, 31.705032], [-103.797232, 31.770187], [-103.829385, 31.887992], [-103.885584, 31.870373], [-103.980179, 32.000125], [-103.326501, 32.00037]]]}, "properties": {"county": "Loving"}}, {"type": "Feature", "geometry": {"type": "Polygon", "coordinates": [[[-100.113719, 28.197819], [-100.209464, 28.196866], [-100.291391, 28.275398], [-100.346986, 28.407232], [-100.333814, 28.499252], [-100.386963, 28.514023], [-100.429856, 28.596441], [-100.500354, 28.66196], [-100.507613, 28.740599], [-100.535438, 28.805195], [-100.640092, 28.915833], [-100.651512, 28.943432], [-100.645894, 28.986421], [-100.668356, 29.08397], [-100.111406, 29.086318], [-100.113719, 28.197819]]]}, "properties": {"county": "Maverick"}}, {"type": "Feature", "geometry": {"type": "Polygon", "coordinates": [[[-100.115216, 31.087994], [-99.603223, 31.087296], [-99.603627, 30.940726], [-99.484755, 30.940605], [-99.483869, 30.710771], [-100.116234, 30.710366], [-100.115216, 31.087994]]]}, "properties": {"county": "Menard"}}, {"type": "Feature", "geometry": {"type": "Polygon", "coordinates": [[[-96.829121, 31.105871], [-96.75633, 30.927206], [-96.68497, 30.906191], [-96.621281, 30.730819], [-97.155219, 30.457344], [-97.271418, 30.735692], [-97.315507, 30.752371], [-97.259082, 30.889596], [-96.829121, 31.105871]]]}, "properties": {"county": "Milam"}}, {"type": "Feature", "geometry": {"type": "Polygon", "coordinates": [[[-98.27107, 31.416398], [-98.562739, 31.230582], [-98.726094, 31.428278], [-98.762589, 31.375282], [-98.773, 31.410926], [-98.854292, 31.413425], [-98.8725, 31.444299], [-98.967159, 31.435903], [-98.991608, 31.484071], [-98.779951, 31.610735], [-98.760057, 31.687896], [-98.492802, 31.723608], [-98.27107, 31.416398]]]}, "properties": {"county": "Mills"}}, {"type": "Feature", "geometry": {"type": "Polygon", "coordinates": [[[-101.622831, 35.624057], [-102.162752, 35.620035], [-102.163015, 36.055249], [-101.623466, 36.055405], [-101.622831, 35.624057]]]}, "properties": {"county": "Moore"}}, {"type": "Feature", "geometry": {"type": "Polygon", "coordinates": [[[-97.377166, 27.875181], [-97.361246, 27.849891], [-97.391764, 27.813948], [-97.386166, 27.76662], [-97.34698, 27.725398], [-97.253955, 27.696696], [-97.296598, 27.613947], [-97.294054, 27.5941], [-97.325118, 27.560927], [-97.840678, 27.558358], [-97.942146, 27.635932], [-97.934274, 27.885202], [-97.798517, 27.995659], [-97.805765, 27.934287], [-97.691074, 27.917353], [-97.589473, 27.856101], [-97.377166, 27.875181]]]}, "properties": {"county": "Nueces"}}, {"type": "Feature", "geometry": {"type": "Polygon", "coordinates": [[[-98.576256, 32.515163], [-98.575616, 32.954349], [-98.427211, 32.9523], [-98.426553, 33.007913], [-98.056094, 33.003332], [-98.068545, 32.511626], [-98.576256, 32.515163]]]}, "properties": {"county": "Palo Pinto"}}, {"type": "Feature", "geometry": {"type": "Polygon", "coordinates": [[[-95.20018, 30.824566], [-94.939245, 31.041981], [-94.842947, 31.146578], [-94.561943, 31.058952], [-94.657992, 31.012007], [-94.537926, 30.491059], [-94.849414, 30.493553], [-94.830429, 30.541613], [-95.028628, 30.578485], [-95.054602, 30.680173], [-95.135384, 30.693816], [-95.131205, 30.781703], [-95.20018, 30.824566]]]}, "properties": {"county": "Polk"}}, {"type": "Feature", "geometry": {"type": "Polygon", "coordinates": [[[-103.980179, 32.000125], [-103.885584, 31.870373], [-103.829385, 31.887992], [-103.797232, 31.770187], [-103.625726, 31.705032], [-103.610887, 31.651802], [-103.57489, 31.632662], [-103.530927, 31.642284], [-103.459426, 31.428494], [-103.01104, 31.371306], [-103.585084, 30.76647], [-104.102351, 31.105203], [-104.024521, 32.00001], [-103.980179, 32.000125]]]}, "properties": {"county": "Reeves"}}, {"type": "Feature", "geometry": {"type": "Polygon", "coordinates": [[[-94.129632, 31.09928], [-94.339773, 31.24082], [-94.311042, 31.589252], [-94.395361, 31.638752], [-94.399091, 31.653596], [-94.090717, 31.620609], [-93.984461, 31.569419], [-93.983239, 31.466114], [-94.044154, 31.409979], [-94.039034, 31.134271], [-94.129632, 31.09928]]]}, "properties": {"county": "San Augustine"}}, {"type": "Feature", "geometry": {"type": "Polygon", "coordinates": [[[-100.116234, 30.710366], [-100.960587, 30.706071], [-100.962176, 31.08249], [-100.115216, 31.087994], [-100.116234, 30.710366]]]}, "properties": {"county": "Schleicher"}}, {"type": "Feature", "geometry": {"type": "Polygon", "coordinates": [[[-102.162463, 36.500326], [-101.623915, 36.499528], [-101.623466, 36.055405], [-102.163015, 36.055249], [-102.162463, 36.500326]]]}, "properties": {"county": "Sherman"}}, {"type": "Feature", "geometry": {"type": "Polygon", "coordinates": [[[-97.550582, 32.555391], [-97.544181, 32.994177], [-97.032287, 32.989324], [-97.038385, 32.548662], [-97.550582, 32.555391]]]}, "properties": {"county": "Tarrant"}}, {"type": "Feature", "geometry": {"type": "Polygon", "coordinates": [[[-94.842947, 31.146578], [-94.939245, 31.041981], [-95.20018, 30.824566], [-95.252385, 30.906719], [-95.327482, 30.859537], [-95.434335, 30.937405], [-95.434781, 31.058098], [-94.95811, 31.38693], [-94.909502, 31.337059], [-94.842947, 31.146578]]]}, "properties": {"county": "Trinity"}}, {"type": "Feature", "geometry": {"type": "Polygon", "coordinates": [[[-95.434781, 31.058098], [-95.434335, 30.937405], [-95.327482, 30.859537], [-95.359156, 30.504369], [-95.598971, 30.509002], [-95.83024, 30.630284], [-95.863059, 30.864125], [-95.617872, 30.930418], [-95.434781, 31.058098]]]}, "properties": {"county": "Walker"}}, {"type": "Feature", "geometry": {"type": "Polygon", "coordinates": [[[-96.088912, 29.601658], [-96.044596, 29.562238], [-96.060676, 29.476473], [-95.97343, 29.411445], [-95.937434, 29.358086], [-95.94681, 29.333433], [-95.894468, 29.31498], [-95.8796, 29.266761], [-95.841948, 29.258707], [-95.965196, 29.146865], [-96.309178, 28.963291], [-96.640315, 29.247804], [-96.349217, 29.406052], [-96.307672, 29.514523], [-96.175422, 29.633806], [-96.088912, 29.601658]]]}, "properties": {"county": "Wharton"}}, {"type": "Feature", "geometry": {"type": "Polygon", "coordinates": [[[-98.407336, 29.114435], [-98.134171, 29.441751], [-98.084684, 29.379594], [-97.840383, 29.376791], [-97.858782, 29.35289], [-97.728443, 29.221748], [-98.190991, 28.882333], [-98.407336, 29.114435]]]}, "properties": {"county": "Wilson"}}, {"type": "Feature", "geometry": {"type": "Polygon", "coordinates": [[[-97.77853, 28.668027], [-97.41734, 28.925228], [-97.305916, 28.864037], [-97.231971, 28.865303], [-97.158933, 28.776156], [-97.182359, 28.610602], [-97.160751, 28.553475], [-97.375579, 28.388684], [-97.551369, 28.450441], [-97.558496, 28.514054], [-97.696945, 28.541856], [-97.77853, 28.668027]]]}, "properties": {"county": "Goliad"}}, {"type": "Feature", "geometry": {"type": "Polygon", "coordinates": [[[-94.986935, 32.537246], [-94.70179, 32.652209], [-94.701986, 32.421782], [-94.579219, 32.394916], [-94.600776, 32.360044], [-94.638347, 32.370539], [-94.985411, 32.37082], [-94.986935, 32.537246]]]}, "properties": {"county": "Gregg"}}, {"type": "Feature", "geometry": {"type": "Polygon", "coordinates": [[[-98.134171, 29.441751], [-98.126767, 29.482248], [-98.298524, 29.561141], [-98.310928, 29.594473], [-98.089941, 29.683479], [-97.875259, 29.858208], [-97.721852, 29.682088], [-97.633176, 29.649863], [-97.840383, 29.376791], [-98.084684, 29.379594], [-98.134171, 29.441751]]]}, "properties": {"county": "Guadalupe"}}, {"type": "Feature", "geometry": {"type": "Polygon", "coordinates": [[[-102.163015, 36.055249], [-102.162809, 35.627515], [-103.041554, 35.622487], [-103.040824, 36.055231], [-102.163015, 36.055249]]]}, "properties": {"county": "Hartley"}}, {"type": "Feature", "geometry": {"type": "Polygon", "coordinates": [[[-98.172977, 30.356312], [-97.710215, 30.024499], [-97.893896, 29.883734], [-97.875259, 29.858208], [-97.999271, 29.752444], [-98.030523, 29.848539], [-98.2976, 30.037994], [-98.172977, 30.356312]]]}, "properties": {"county": "Hays"}}, {"type": "Feature", "geometry": {"type": "Polygon", "coordinates": [[[-102.075929, 33.389586], [-102.594836, 33.388489], [-102.615447, 33.825121], [-102.085733, 33.824675], [-102.075929, 33.389586]]]}, "properties": {"county": "Hockley"}}, {"type": "Feature", "geometry": {"type": "Polygon", "coordinates": [[[-96.297322, 32.841723], [-96.295413, 33.351936], [-95.858723, 33.40953], [-95.862521, 32.979571], [-95.9453, 32.979877], [-95.987259, 32.876415], [-95.934433, 32.837217], [-96.297322, 32.841723]]]}, "properties": {"county": "Hunt"}}, {"type": "Feature", "geometry": {"type": "Polygon", "coordinates": [[[-94.129632, 31.09928], [-94.039034, 31.134271], [-93.911126, 31.158071], [-93.865711, 30.947218], [-93.901452, 30.242672], [-94.117604, 30.241665], [-94.083386, 30.342181], [-94.116498, 30.433966], [-94.071689, 30.526033], [-94.094812, 30.575543], [-94.05096, 30.638568], [-94.125824, 30.684052], [-94.150119, 30.790203], [-94.179343, 30.794974], [-94.243766, 30.983554], [-94.238424, 31.013705], [-94.353782, 31.039371], [-94.451127, 31.003445], [-94.45782, 31.033326], [-94.129632, 31.09928]]]}, "properties": {"county": "Jasper"}}, {"type": "Feature", "geometry": {"type": "Polygon", "coordinates": [[[-98.005252, 28.690239], [-98.190991, 28.882333], [-97.728443, 29.221748], [-97.613132, 29.109765], [-97.75511, 29.007113], [-97.574639, 28.8133], [-97.77853, 28.668027], [-97.915106, 28.719648], [-98.005252, 28.690239]]]}, "properties": {"county": "Karnes"}}, {"type": "Feature", "geometry": {"type": "Polygon", "coordinates": [[[-100.518691, 33.83565], [-99.996434, 33.835967], [-99.99098, 33.397404], [-100.517449, 33.397866], [-100.518691, 33.83565]]]}, "properties": {"county": "King"}}, {"type": "Feature", "geometry": {"type": "Polygon", "coordinates": [[[-104.024521, 32.00001], [-104.102351, 31.105203], [-104.917163, 30.663626], [-104.916396, 30.835979], [-104.907592, 30.835919], [-104.918272, 32.000496], [-104.024521, 32.00001]]]}, "properties": {"county": "Culberson"}}, {"type": "Feature", "geometry": {"type": "Polygon", "coordinates": [[[-102.162463, 36.500326], [-102.163015, 36.055249], [-103.040824, 36.055231], [-103.041669, 36.478514], [-103.002434, 36.500397], [-102.162463, 36.500326]]]}, "properties": {"county": "Dallam"}}, {"type": "Feature", "geometry": {"type": "Polygon", "coordinates": [[[-97.032287, 32.989324], [-96.516866, 32.982308], [-96.523118, 32.545214], [-97.038385, 32.548662], [-97.032287, 32.989324]]]}, "properties": {"county": "Dallas"}}, {"type": "Feature", "geometry": {"type": "Polygon", "coordinates": [[[-96.834004, 33.405504], [-96.843979, 32.987554], [-97.39848, 32.990839], [-97.383095, 33.43045], [-96.834004, 33.405504]]]}, "properties": {"county": "Denton"}}, {"type": "Feature", "geometry": {"type": "Polygon", "coordinates": [[[-101.041158, 33.833625], [-100.518691, 33.83565], [-100.517449, 33.397866], [-101.038788, 33.397214], [-101.041158, 33.833625]]]}, "properties": {"county": "Dickens"}}, {"type": "Feature", "geometry": {"type": "Polygon", "coordinates": [[[-98.924401, 32.078018], [-99.118665, 32.079585], [-99.114293, 32.514811], [-98.475177, 32.513039], [-98.475133, 32.298916], [-98.924401, 32.078018]]]}, "properties": {"county": "Eastland"}}, {"type": "Feature", "geometry": {"type": "Polygon", "coordinates": [[[-97.086834, 32.549428], [-96.529987, 32.545282], [-96.452138, 32.358631], [-96.383082, 32.328851], [-96.940656, 32.052087], [-97.086191, 32.265451], [-97.086834, 32.549428]]]}, "properties": {"county": "Ellis"}}, {"type": "Feature", "geometry": {"type": "Polygon", "coordinates": [[[-97.070188, 30.98622], [-97.278113, 31.279799], [-96.801123, 31.522269], [-96.596862, 31.2209], [-97.070188, 30.98622]]]}, "properties": {"county": "Falls"}}, {"type": "Feature", "geometry": {"type": "Polygon", "coordinates": [[[-96.378473, 33.726648], [-96.36959, 33.716809], [-96.304675, 33.745901], [-96.181704, 33.758504], [-96.14807, 33.837799], [-95.949935, 33.857452], [-95.846334, 33.841136], [-95.858723, 33.40953], [-96.384495, 33.341119], [-96.378473, 33.726648]]]}, "properties": {"county": "Fannin"}}, {"type": "Feature", "geometry": {"type": "Polygon", "coordinates": [[[-99.997621, 34.224355], [-99.997853, 34.561485], [-99.954567, 34.578195], [-99.923211, 34.574552], [-99.884842, 34.546953], [-99.793684, 34.453894], [-99.69497, 34.378333], [-99.616793, 34.375391], [-99.574367, 34.418281], [-99.499875, 34.409608], [-99.474161, 34.398052], [-99.475294, 34.085618], [-99.547509, 34.05598], [-99.65301, 34.098971], [-99.772043, 34.093286], [-99.997621, 34.224355]]]}, "properties": {"county": "Hardeman"}}, {"type": "Feature", "geometry": {"type": "Polygon", "coordinates": [[[-94.545717, 30.526977], [-94.071689, 30.526033], [-94.116498, 30.433966], [-94.083386, 30.342181], [-94.117604, 30.241665], [-94.115917, 30.160347], [-94.209577, 30.187724], [-94.292629, 30.117671], [-94.44491, 30.113015], [-94.603159, 30.130904], [-94.732732, 30.490066], [-94.537926, 30.491059], [-94.545717, 30.526977]]]}, "properties": {"county": "Hardin"}}, {"type": "Feature", "geometry": {"type": "Polygon", "coordinates": [[[-95.424118, 29.580233], [-95.82622, 29.78828], [-95.960733, 30.163415], [-95.80333, 30.090096], [-95.65543, 30.108994], [-95.551421, 30.170606], [-95.264013, 30.032217], [-95.096708, 30.167214], [-95.031179, 29.993324], [-94.985364, 29.972279], [-94.98146, 29.884276], [-94.908654, 29.825181], [-94.931154, 29.673874], [-94.942681, 29.697778], [-94.965963, 29.70033], [-95.015636, 29.639457], [-94.982706, 29.601344], [-94.988993, 29.591155], [-95.018191, 29.554584], [-95.163927, 29.498051], [-95.216422, 29.55608], [-95.297409, 29.596514], [-95.424118, 29.580233]]]}, "properties": {"county": "Harris"}}, {"type": "Feature", "geometry": {"type": "Polygon", "coordinates": [[[-94.491818, 32.394137], [-94.579219, 32.394916], [-94.701986, 32.421782], [-94.70214, 32.793088], [-94.507323, 32.693738], [-94.390783, 32.694377], [-94.242809, 32.75073], [-94.043147, 32.69303], [-94.042901, 32.392283], [-94.347563, 32.330682], [-94.491818, 32.394137]]]}, "properties": {"county": "Harrison"}}, {"type": "Feature", "geometry": {"type": "Polygon", "coordinates": [[[-100.540221, 36.056491], [-100.000399, 36.055677], [-100.000392, 35.619115], [-100.540158, 35.619296], [-100.540221, 36.056491]]]}, "properties": {"county": "Hemphill"}}, {"type": "Feature", "geometry": {"type": "Polygon", "coordinates": [[[-95.449165, 32.355233], [-95.488733, 32.232486], [-95.456843, 32.112307], [-95.428512, 32.084475], [-96.052786, 32.005895], [-96.115693, 32.160915], [-96.383082, 32.328851], [-96.452138, 32.358631], [-95.449165, 32.355233]]]}, "properties": {"county": "Henderson"}}, {"type": "Feature", "geometry": {"type": "Polygon", "coordinates": [[[-94.746096, 33.703016], [-94.660964, 33.660322], [-94.52838, 33.615995], [-94.490684, 33.625586], [-94.485875, 33.637867], [-94.464336, 33.598819], [-94.355945, 33.54318], [-94.252656, 33.586144], [-94.181805, 33.593217], [-94.066846, 33.568909], [-94.04345, 33.552253], [-94.04299, 33.271243], [-94.056144, 33.298036], [-94.218517, 33.296936], [-94.231333, 33.241073], [-94.379409, 33.255651], [-94.415739, 33.284017], [-94.517868, 33.282096], [-94.572463, 33.249826], [-94.65226, 33.268861], [-94.746925, 33.328938], [-94.746096, 33.703016]]]}, "properties": {"county": "Bowie"}}, {"type": "Feature", "geometry": {"type": "Polygon", "coordinates": [[[-97.86192, 26.433579], [-97.863056, 26.061273], [-98.008307, 26.061147], [-98.044517, 26.043746], [-98.241664, 26.074544], [-98.386694, 26.157872], [-98.438822, 26.212022], [-98.58672, 26.257456], [-98.32067, 26.783081], [-97.985494, 26.780917], [-97.985303, 26.615809], [-97.957405, 26.611769], [-98.004189, 26.448784], [-97.86192, 26.433579]]]}, "properties": {"county": "Hidalgo"}}, {"type": "Feature", "geometry": {"type": "Polygon", "coordinates": [[[-95.862521, 32.979571], [-95.861778, 33.21933], [-95.730784, 33.305405], [-95.584353, 33.359405], [-95.314165, 33.367232], [-95.308593, 33.37719], [-95.308957, 32.962572], [-95.665389, 32.960434], [-95.862521, 32.979571]]]}, "properties": {"county": "Hopkins"}}, {"type": "Feature", "geometry": {"type": "Polygon", "coordinates": [[[-100.688764, 31.086576], [-101.274799, 31.079379], [-101.267947, 31.528688], [-100.693065, 31.523954], [-100.688764, 31.086576]]]}, "properties": {"county": "Irion"}}, {"type": "Feature", "geometry": {"type": "Polygon", "coordinates": [[[-97.978919, 33.467129], [-97.978967, 33.433748], [-97.918189, 33.433873], [-97.921642, 33.001284], [-98.426553, 33.007913], [-98.421419, 33.466797], [-97.978919, 33.467129]]]}, "properties": {"county": "Jack"}}, {"type": "Feature", "geometry": {"type": "Polygon", "coordinates": [[[-96.309178, 28.963291], [-96.323522, 28.675597], [-96.428394, 28.703523], [-96.575141, 28.702837], [-96.593796, 28.725403], [-96.645867, 28.710457], [-96.711514, 28.851411], [-96.792133, 28.918803], [-96.832103, 29.021299], [-96.938587, 29.063244], [-96.658466, 29.263876], [-96.309178, 28.963291]]]}, "properties": {"county": "Jackson"}}, {"type": "Feature", "geometry": {"type": "Polygon", "coordinates": [[[-103.439976, 30.665939], [-103.80068, 30.412527], [-103.90101, 30.41219], [-104.985365, 30.623792], [-104.102351, 31.105203], [-103.439976, 30.665939]]]}, "properties": {"county": "Jeff Davis"}}, {"type": "Feature", "geometry": {"type": "Polygon", "coordinates": [[[-98.232464, 27.262487], [-98.235497, 28.057966], [-97.883148, 28.0569], [-97.798517, 27.995659], [-97.934274, 27.885202], [-97.942146, 27.635932], [-98.0598, 27.635869], [-98.058078, 27.260981], [-98.232464, 27.262487]]]}, "properties": {"county": "Jim Wells"}}, {"type": "Feature", "geometry": {"type": "Polygon", "coordinates": [[[-100.144224, 32.959978], [-99.612001, 32.956962], [-99.612026, 32.514654], [-100.146543, 32.522793], [-100.144224, 32.959978]]]}, "properties": {"county": "Jones"}}, {"type": "Feature", "geometry": {"type": "Polygon", "coordinates": [[[-98.917725, 29.781398], [-98.920147, 30.13829], [-98.587897, 30.138954], [-98.414018, 29.937557], [-98.646124, 29.745181], [-98.778782, 29.720167], [-98.917725, 29.781398]]]}, "properties": {"county": "Kendall"}}, {"type": "Feature", "geometry": {"type": "Polygon", "coordinates": [[[-103.01104, 31.371306], [-102.827087, 31.267909], [-102.676497, 31.326823], [-102.429545, 31.193557], [-102.388804, 31.087156], [-102.191731, 31.003788], [-101.98364, 30.98717], [-101.883436, 30.925647], [-101.768377, 30.652938], [-102.137778, 30.655982], [-102.138406, 30.597521], [-102.342986, 30.598759], [-102.343085, 30.284116], [-102.566937, 30.283269], [-102.567049, 30.052808], [-103.585084, 30.76647], [-103.01104, 31.371306]]]}, "properties": {"county": "Pecos"}}, {"type": "Feature", "geometry": {"type": "Polygon", "coordinates": [[[-103.80068, 30.412527], [-103.792705, 29.262931], [-104.025488, 29.314404], [-104.167506, 29.402928], [-104.235847, 29.496744], [-104.394351, 29.560535], [-104.515512, 29.641493], [-104.538569, 29.677396], [-104.566055, 29.771379], [-104.679877, 29.920946], [-104.693592, 30.019077], [-104.687296, 30.179464], [-104.708916, 30.235826], [-104.859521, 30.390413], [-104.872808, 30.500145], [-104.929778, 30.59924], [-104.985365, 30.623792], [-103.90101, 30.41219], [-103.80068, 30.412527]]]}, "properties": {"county": "Presidio"}}, {"type": "Feature", "geometry": {"type": "Polygon", "coordinates": [[[-97.260818, 28.075759], [-97.351825, 28.123502], [-97.427171, 28.117668], [-97.541071, 28.164669], [-97.375268, 28.389116], [-97.160751, 28.553475], [-97.048529, 28.549976], [-96.982147, 28.499639], [-96.890951, 28.507178], [-96.76696, 28.410737], [-96.790235, 28.383926], [-96.791159, 28.319095], [-97.123072, 28.272817], [-97.023586, 28.187657], [-97.144916, 28.102622], [-97.260818, 28.075759]]]}, "properties": {"county": "Refugio"}}, {"type": "Feature", "geometry": {"type": "Polygon", "coordinates": [[[-94.452416, 31.844281], [-94.985037, 31.846193], [-94.985411, 32.37082], [-94.638347, 32.370539], [-94.600776, 32.360044], [-94.579219, 32.394916], [-94.491818, 32.394137], [-94.5805, 32.201363], [-94.599978, 31.973193], [-94.511431, 31.973984], [-94.452416, 31.844281]]]}, "properties": {"county": "Rusk"}}, {"type": "Feature", "geometry": {"type": "Polygon", "coordinates": [[[-94.849414, 30.493553], [-95.165897, 30.344976], [-95.308395, 30.40575], [-95.359156, 30.504369], [-95.327482, 30.859537], [-95.252385, 30.906719], [-95.20018, 30.824566], [-95.131205, 30.781703], [-95.135384, 30.693816], [-95.054602, 30.680173], [-95.028628, 30.578485], [-94.830429, 30.541613], [-94.849414, 30.493553]]]}, "properties": {"county": "San Jacinto"}}, {"type": "Feature", "geometry": {"type": "MultiPolygon", "coordinates": [[[[-97.372861, 27.278069], [-97.347438, 27.277963], [-97.377001, 27.101021], [-97.364726, 26.871693], [-97.333028, 26.736479], [-97.194644, 26.306513], [-97.154271, 26.066841], [-97.169842, 26.077853], [-97.194458, 26.27164], [-97.247619, 26.456261], [-97.276425, 26.521729], [-97.31073, 26.556558], [-97.345822, 26.700589], [-97.370438, 26.723896], [-97.364646, 26.767122], [-97.373056, 26.808481], [-97.387459, 26.820789], [-97.391649, 26.90197], [-97.390078, 27.156512], [-97.372861, 27.278069]]], [[[-97.63668, 27.281727], [-97.628916, 27.242953], [-97.54291, 27.229213], [-97.42408, 27.264073], [-97.443673, 27.116235], [-97.461739, 27.095624], [-97.495836, 27.094098], [-97.477515, 27.066108], [-97.487693, 27.053639], [-97.486676, 27.03481], [-97.473953, 27.029212], [-97.478533, 26.999186], [-97.555378, 26.99028], [-97.555378, 26.93888], [-97.540111, 26.900967], [-97.563266, 26.842188], [-97.471663, 26.758727], [-97.441206, 26.599901], [-97.861688, 26.597995], [-97.985303, 26.615809], [-97.985887, 27.209308], [-97.951904, 27.233249], [-97.63668, 27.281727]]]]}, "properties": {"county": "Kenedy"}}, {"type": "Feature", "geometry": {"type": "Polygon", "coordinates": [[[-97.541071, 28.164669], [-97.427171, 28.117668], [-97.351825, 28.123502], [-97.260818, 28.075759], [-97.134801, 27.902467], [-97.187183, 27.824126], [-97.225176, 27.825723], [-97.26301, 27.880106], [-97.295072, 27.878071], [-97.354614, 27.849572], [-97.377166, 27.875181], [-97.589473, 27.856101], [-97.691074, 27.917353], [-97.805765, 27.934287], [-97.798517, 27.995659], [-97.883148, 28.0569], [-97.904081, 28.114228], [-97.817716, 28.176848], [-97.567622, 28.129683], [-97.541071, 28.164669]]]}, "properties": {"county": "San Patricio"}}, {"type": "Feature", "geometry": {"type": "Polygon", "coordinates": [[[-101.761839, 29.777187], [-101.944913, 29.801468], [-102.050044, 29.78507], [-102.116076, 29.792527], [-102.297331, 29.875194], [-102.320819, 29.875193], [-102.567049, 30.052808], [-102.566937, 30.283269], [-102.343085, 30.284116], [-102.342986, 30.598759], [-102.138406, 30.597521], [-102.137778, 30.655982], [-101.769353, 30.653369], [-101.65263, 30.619374], [-101.646245, 30.560763], [-101.740429, 30.420897], [-101.65853, 30.357861], [-101.7584, 30.288044], [-101.761839, 29.777187]]]}, "properties": {"county": "Terrell"}}, {"type": "Feature", "geometry": {"type": "Polygon", "coordinates": [[[-102.31805, 31.651327], [-101.775802, 31.651319], [-101.776191, 31.079784], [-102.301212, 31.086212], [-102.31805, 31.651327]]]}, "properties": {"county": "Upton"}}, {"type": "Feature", "geometry": {"type": "Polygon", "coordinates": [[[-100.700393, 30.288276], [-100.699141, 29.419747], [-100.745564, 29.254809], [-100.793662, 29.242146], [-100.995607, 29.363403], [-101.060151, 29.458661], [-101.137503, 29.473542], [-101.235275, 29.524854], [-101.250383, 29.624171], [-101.314135, 29.659054], [-101.343743, 29.662047], [-101.403926, 29.757587], [-101.455007, 29.770188], [-101.625958, 29.771063], [-101.646418, 29.754304], [-101.761839, 29.777187], [-101.7584, 30.288044], [-100.700393, 30.288276]]]}, "properties": {"county": "Val Verde"}}, {"type": "Feature", "geometry": {"type": "Polygon", "coordinates": [[[-96.093165, 30.225187], [-95.804306, 30.24557], [-95.80333, 30.090096], [-95.960733, 30.163415], [-95.82622, 29.78828], [-96.032711, 29.727944], [-96.049234, 29.803187], [-96.121313, 29.841963], [-96.122754, 29.968545], [-96.084541, 30.005137], [-96.191418, 30.134669], [-96.15901, 30.206613], [-96.093165, 30.225187]]]}, "properties": {"county": "Waller"}}, {"type": "Feature", "geometry": {"type": "Polygon", "coordinates": [[[-98.798087, 27.268012], [-99.33361, 27.273223], [-99.370621, 27.319174], [-99.453949, 27.264673], [-99.494678, 27.277595], [-99.537771, 27.316073], [-99.492831, 27.390491], [-99.480219, 27.485796], [-99.541644, 27.605772], [-99.600619, 27.641314], [-99.666175, 27.638324], [-99.843463, 27.77456], [-99.876174, 27.806276], [-99.901486, 27.864162], [-99.895828, 27.904178], [-99.991447, 27.99456], [-100.083393, 28.144035], [-100.209464, 28.196866], [-99.394177, 28.204627], [-99.388946, 28.030419], [-98.803325, 28.05748], [-98.798087, 27.268012]]]}, "properties": {"county": "Webb"}}, {"type": "Feature", "geometry": {"type": "Polygon", "coordinates": [[[-99.211423, 34.337897], [-99.19089, 34.215251], [-98.952527, 34.195621], [-98.953088, 33.834], [-99.47565, 33.834005], [-99.474161, 34.398052], [-99.44076, 34.374123], [-99.407168, 34.372605], [-99.356713, 34.442144], [-99.261321, 34.403499], [-99.211423, 34.337897]]]}, "properties": {"county": "Wilbarger"}}, {"type": "Feature", "geometry": {"type": "Polygon", "coordinates": [[[-102.799086, 32.085795], [-102.798939, 31.651783], [-103.327538, 31.65142], [-103.326501, 32.00037], [-103.064423, 32.000518], [-103.064344, 32.087051], [-102.799086, 32.085795]]]}, "properties": {"county": "Winkler"}}, {"type": "Feature", "geometry": {"type": "Polygon", "coordinates": [[[-102.595023, 32.958831], [-103.064657, 32.959097], [-103.056655, 33.388416], [-102.594836, 33.388489], [-102.595023, 32.958831]]]}, "properties": {"county": "Yoakum"}}, {"type": "Feature", "geometry": {"type": "Polygon", "coordinates": [[[-98.95423, 26.785694], [-99.011112, 26.675023], [-99.172058, 26.57086], [-99.268613, 26.843213], [-99.321819, 26.906846], [-99.379149, 26.93449], [-99.446524, 27.023008], [-99.452316, 27.062669], [-99.429879, 27.094323], [-99.426348, 27.176262], [-99.453949, 27.264673], [-99.370621, 27.319174], [-99.33361, 27.273223], [-98.954669, 27.269397], [-98.95423, 26.785694]]]}, "properties": {"county": "Zapata"}}, {"type": "Feature", "geometry": {"type": "Polygon", "coordinates": [[[-94.326616, 31.224754], [-94.129632, 31.09928], [-94.45782, 31.033326], [-94.842947, 31.146578], [-94.909502, 31.337059], [-94.976033, 31.407744], [-95.005566, 31.421349], [-94.865857, 31.526916], [-94.728679, 31.457226], [-94.544888, 31.431715], [-94.530634, 31.398654], [-94.495874, 31.405728], [-94.326616, 31.224754]]]}, "properties": {"county": "Angelina"}}, {"type": "Feature", "geometry": {"type": "MultiPolygon", "coordinates": [[[[-96.791159, 28.319095], [-96.809573, 28.290287], [-96.787181, 28.255681], [-96.800413, 28.224128], [-96.934765, 28.123873], [-97.000414, 28.137614], [-97.027386, 28.124382], [-97.035528, 28.074], [-97.025859, 28.041939], [-97.134801, 27.902467], [-97.260818, 28.075759], [-97.144916, 28.102622], [-97.023586, 28.187657], [-97.123072, 28.272817], [-96.791159, 28.319095]]], [[[-96.853455, 28.061345], [-97.001441, 27.911442], [-97.045409, 27.837452], [-97.055823, 27.843404], [-96.985745, 27.954048], [-96.967807, 28.020041], [-96.952618, 28.01644], [-96.927085, 28.057292], [-96.890947, 28.076802], [-96.874972, 28.133236], [-96.84538, 28.108881], [-96.83003, 28.111842], [-96.853455, 28.061345]]]]}, "properties": {"county": "Aransas"}}, {"type": "Feature", "geometry": {"type": "Polygon", "coordinates": [[[-103.792705, 29.262931], [-103.80068, 30.412527], [-103.439976, 30.665939], [-102.320819, 29.878933], [-102.364647, 29.843624], [-102.386677, 29.76148], [-102.486819, 29.786725], [-102.554915, 29.748966], [-102.612879, 29.748182], [-102.689738, 29.722349], [-102.745494, 29.592967], [-102.808692, 29.522319], [-102.83332, 29.408981], [-102.875813, 29.353715], [-102.895886, 29.284778], [-102.886308, 29.24568], [-102.871347, 29.241625], [-102.866846, 29.225015], [-102.995688, 29.161219], [-103.10443, 29.03359], [-103.115328, 28.98527], [-103.163865, 28.972099], [-103.281903, 28.990089], [-103.383508, 29.024112], [-103.471037, 29.075368], [-103.503236, 29.11911], [-103.558679, 29.154962], [-103.714867, 29.184137], [-103.767814, 29.224954], [-103.792705, 29.262931]]]}, "properties": {"county": "Brewster"}}, {"type": "Feature", "geometry": {"type": "Polygon", "coordinates": [[[-96.294068, 30.380235], [-96.640883, 30.296786], [-96.740542, 30.318655], [-96.963629, 30.557169], [-96.621281, 30.730819], [-96.599467, 30.728634], [-96.566983, 30.69567], [-96.581519, 30.68889], [-96.584439, 30.658957], [-96.601708, 30.640535], [-96.510494, 30.627828], [-96.358817, 30.541753], [-96.285516, 30.448393], [-96.287993, 30.421281], [-96.272837, 30.409042], [-96.298866, 30.410502], [-96.306356, 30.391715], [-96.294068, 30.380235]]]}, "properties": {"county": "Burleson"}}, {"type": "Feature", "geometry": {"type": "MultiPolygon", "coordinates": [[[[-96.323522, 28.675597], [-96.322921, 28.64186], [-96.487943, 28.569677], [-96.485907, 28.607845], [-96.510844, 28.61497], [-96.499648, 28.635835], [-96.563262, 28.644487], [-96.572931, 28.667897], [-96.559699, 28.691306], [-96.575141, 28.702837], [-96.428394, 28.703523], [-96.323522, 28.675597]]], [[[-96.83003, 28.111842], [-96.81042, 28.126034], [-96.816443, 28.174808], [-96.791958, 28.188687], [-96.703838, 28.198246], [-96.703314, 28.216446], [-96.662462, 28.227314], [-96.651856, 28.251275], [-96.592934, 28.296972], [-96.450998, 28.337039], [-96.403206, 28.371475], [-96.397846, 28.343513], [-96.4137, 28.327343], [-96.621534, 28.2297], [-96.853455, 28.061345], [-96.83003, 28.111842]]], [[[-96.655528, 28.704167], [-96.664534, 28.696904], [-96.61059, 28.638889], [-96.622804, 28.622095], [-96.611099, 28.585962], [-96.565297, 28.5824], [-96.526111, 28.557972], [-96.505755, 28.525911], [-96.402446, 28.449066], [-96.59176, 28.357462], [-96.672677, 28.335579], [-96.705247, 28.348811], [-96.710336, 28.406827], [-96.76696, 28.410737], [-96.890951, 28.507178], [-96.930367, 28.586728], [-96.853757, 28.635199], [-96.655528, 28.704167]]]]}, "properties": {"county": "Calhoun"}}, {"type": "Feature", "geometry": {"type": "Polygon", "coordinates": [[[-94.370866, 29.55507], [-94.371828, 29.597178], [-94.408992, 29.597467], [-94.412771, 29.572612], [-94.511086, 29.542971], [-94.553988, 29.573882], [-94.740699, 29.525858], [-94.780938, 29.531093], [-94.790605, 29.548401], [-94.755237, 29.562782], [-94.708741, 29.625226], [-94.692434, 29.70361], [-94.724616, 29.774766], [-94.740919, 29.787081], [-94.816085, 29.75671], [-94.851108, 29.721373], [-94.872551, 29.67125], [-94.921318, 29.658178], [-94.931154, 29.673874], [-94.908654, 29.825181], [-94.98146, 29.884276], [-94.357976, 29.887464], [-94.354163, 29.561459], [-94.370866, 29.55507]]]}, "properties": {"county": "Chambers"}}, {"type": "Feature", "geometry": {"type": "Polygon", "coordinates": [[[-98.463736, 31.683989], [-98.492802, 31.723608], [-98.668441, 31.700514], [-98.924401, 32.078018], [-98.551158, 32.261436], [-98.327499, 31.941261], [-98.251211, 31.980127], [-98.156568, 31.841713], [-98.463736, 31.683989]]]}, "properties": {"county": "Comanche"}}, {"type": "Feature", "geometry": {"type": "Polygon", "coordinates": [[[-96.94386, 33.41641], [-97.487065, 33.433681], [-97.484071, 33.91568], [-97.450954, 33.891398], [-97.462857, 33.841772], [-97.453057, 33.828536], [-97.372941, 33.819454], [-97.310843, 33.872461], [-97.210921, 33.916064], [-97.180845, 33.895204], [-97.166629, 33.847311], [-97.1997, 33.827322], [-97.204827, 33.799908], [-97.172192, 33.737545], [-97.121102, 33.717174], [-97.092414, 33.733214], [-97.047972, 33.817931], [-96.985567, 33.886522], [-96.97287, 33.935698], [-96.944611, 33.948994], [-96.94386, 33.41641]]]}, "properties": {"county": "Cooke"}}, {"type": "Feature", "geometry": {"type": "Polygon", "coordinates": [[[-102.799086, 32.085795], [-102.287048, 32.086991], [-102.287345, 31.651276], [-102.798939, 31.651783], [-102.799086, 32.085795]]]}, "properties": {"county": "Ector"}}, {"type": "Feature", "geometry": {"type": "MultiPolygon", "coordinates": [[[[-97.055823, 27.843404], [-97.04598, 27.835004], [-97.166682, 27.676583], [-97.276091, 27.472145], [-97.347438, 27.277963], [-97.372861, 27.278069], [-97.357606, 27.307875], [-97.361796, 27.359988], [-97.317277, 27.46369], [-97.236882, 27.598293], [-97.231383, 27.632336], [-97.214099, 27.631551], [-97.200743, 27.650144], [-97.203089, 27.688001], [-97.103326, 27.789068], [-97.092589, 27.819183], [-97.134489, 27.825206], [-97.055823, 27.843404]]], [[[-97.985887, 27.209308], [-98.058078, 27.260981], [-98.0598, 27.635869], [-97.942146, 27.635932], [-97.840678, 27.558358], [-97.325118, 27.560927], [-97.372935, 27.401224], [-97.420263, 27.317254], [-97.450798, 27.313691], [-97.508304, 27.275014], [-97.544437, 27.284175], [-97.498126, 27.308602], [-97.502706, 27.322343], [-97.483877, 27.351351], [-97.501688, 27.366618], [-97.609068, 27.285193], [-97.951904, 27.233249], [-97.985887, 27.209308]]]]}, "properties": {"county": "Kleberg"}}, {"type": "Feature", "geometry": {"type": "Polygon", "coordinates": [[[-98.334323, 28.0578], [-98.803325, 28.05748], [-98.800848, 28.647306], [-98.335047, 28.648275], [-98.334323, 28.0578]]]}, "properties": {"county": "McMullen"}}, {"type": "Feature", "geometry": {"type": "Polygon", "coordinates": [[[-94.705878, 32.879177], [-94.042886, 32.881089], [-94.043147, 32.69303], [-94.242809, 32.75073], [-94.390783, 32.694377], [-94.507323, 32.693738], [-94.70214, 32.793088], [-94.705878, 32.879177]]]}, "properties": {"county": "Marion"}}, {"type": "Feature", "geometry": {"type": "Polygon", "coordinates": [[[-96.322921, 28.64186], [-96.309178, 28.963291], [-95.965196, 29.146865], [-95.874028, 29.229702], [-95.84631, 29.107799], [-95.770446, 29.06621], [-95.764937, 28.967359], [-95.67955, 28.965734], [-95.567708, 28.829758], [-95.507041, 28.824755], [-95.812504, 28.664942], [-96.220376, 28.491966], [-96.378616, 28.383909], [-96.374138, 28.404275], [-96.335119, 28.437795], [-96.223825, 28.495067], [-96.21505, 28.509679], [-95.98616, 28.606319], [-95.978526, 28.650594], [-95.996338, 28.658736], [-96.006516, 28.648049], [-96.047737, 28.649067], [-96.221784, 28.580364], [-96.233998, 28.601738], [-96.212624, 28.622604], [-96.230944, 28.641433], [-96.192267, 28.687744], [-96.19583, 28.69894], [-96.287942, 28.683164], [-96.304227, 28.671459], [-96.303718, 28.644996], [-96.322921, 28.64186]]]}, "properties": {"county": "Matagorda"}}, {"type": "Feature", "geometry": {"type": "Polygon", "coordinates": [[[-97.484071, 33.91568], [-97.487065, 33.433681], [-97.978967, 33.433748], [-97.97781, 33.889894], [-97.877387, 33.850236], [-97.834333, 33.857671], [-97.671772, 33.99137], [-97.589598, 33.953554], [-97.597115, 33.917868], [-97.587441, 33.902479], [-97.555002, 33.897282], [-97.50096, 33.919643], [-97.484071, 33.91568]]]}, "properties": {"county": "Montague"}}, {"type": "Feature", "geometry": {"type": "Polygon", "coordinates": [[[-103.042769, 34.747361], [-103.042377, 35.183156], [-102.167471, 35.183233], [-102.168839, 34.747417], [-103.042769, 34.747361]]]}, "properties": {"county": "Deaf Smith"}}, {"type": "Feature", "geometry": {"type": "Polygon", "coordinates": [[[-106.206018, 31.466648], [-106.381039, 31.73211], [-106.436743, 31.756872], [-106.472514, 31.751802], [-106.625763, 31.856276], [-106.599096, 32.000731], [-105.998003, 32.002328], [-105.997658, 31.386489], [-106.132782, 31.425367], [-106.206018, 31.466648]]]}, "properties": {"county": "El Paso"}}, {"type": "Feature", "geometry": {"type": "Polygon", "coordinates": [[[-99.475294, 34.085618], [-99.474498, 33.733849], [-99.599863, 33.787634], [-99.835143, 33.8358], [-100.04848, 33.835974], [-100.047028, 34.22978], [-99.997621, 34.224355], [-99.772043, 34.093286], [-99.65301, 34.098971], [-99.547509, 34.05598], [-99.475294, 34.085618]]]}, "properties": {"county": "Foard"}}, {"type": "Feature", "geometry": {"type": "Polygon", "coordinates": [[[-96.496713, 31.796191], [-96.05478, 32.012526], [-96.062172, 31.95634], [-96.022955, 31.957581], [-96.027788, 31.878242], [-95.994127, 31.866258], [-95.980568, 31.784561], [-95.875937, 31.755503], [-95.861262, 31.687451], [-95.794081, 31.66031], [-95.7873, 31.618385], [-96.236629, 31.413392], [-96.496713, 31.796191]]]}, "properties": {"county": "Freestone"}}, {"type": "Feature", "geometry": {"type": "Polygon", "coordinates": [[[-102.20852, 32.958956], [-102.202703, 32.523271], [-103.064696, 32.522193], [-103.064657, 32.959097], [-102.20852, 32.958956]]]}, "properties": {"county": "Gaines"}}, {"type": "Feature", "geometry": {"type": "Polygon", "coordinates": [[[-100.538978, 35.183144], [-100.540703, 34.747723], [-101.090749, 34.748246], [-101.086281, 35.18214], [-100.538978, 35.183144]]]}, "properties": {"county": "Donley"}}, {"type": "Feature", "geometry": {"type": "MultiPolygon", "coordinates": [[[[-94.370866, 29.55507], [-94.631084, 29.451464], [-94.694158, 29.415632], [-94.731047, 29.369141], [-94.782356, 29.364266], [-94.766848, 29.393489], [-94.706365, 29.436805], [-94.681541, 29.471389], [-94.608557, 29.483345], [-94.566674, 29.531988], [-94.532348, 29.5178], [-94.495025, 29.525031], [-94.511086, 29.542971], [-94.412771, 29.572612], [-94.408992, 29.597467], [-94.371828, 29.597178], [-94.370866, 29.55507]]], [[[-95.233081, 29.465566], [-95.216422, 29.55608], [-95.163927, 29.498051], [-95.018191, 29.554584], [-94.981916, 29.511141], [-94.909465, 29.496838], [-94.930861, 29.450504], [-94.8908, 29.433432], [-94.886536, 29.297826], [-94.824953, 29.306005], [-94.822307, 29.344254], [-94.810696, 29.353435], [-94.784895, 29.335535], [-94.72253, 29.331446], [-95.026219, 29.148064], [-95.119271, 29.077844], [-95.056528, 29.199934], [-95.233081, 29.465566]]]]}, "properties": {"county": "Galveston"}}, {"type": "Feature", "geometry": {"type": "Polygon", "coordinates": [[[-97.945625, 32.233468], [-98.068545, 32.511626], [-98.066836, 32.558822], [-97.617066, 32.555484], [-97.615286, 32.318618], [-97.78276, 32.316493], [-97.945625, 32.233468]]]}, "properties": {"county": "Hood"}}, {"type": "Feature", "geometry": {"type": "Polygon", "coordinates": [[[-95.273203, 31.592886], [-95.176359, 31.584826], [-95.101382, 31.469887], [-95.003345, 31.42571], [-94.95811, 31.38693], [-95.617872, 30.930418], [-95.681158, 30.986958], [-95.663546, 31.083884], [-95.76441, 31.094211], [-95.725226, 31.271084], [-95.657202, 31.317999], [-95.739279, 31.504056], [-95.651764, 31.541791], [-95.273203, 31.592886]]]}, "properties": {"county": "Houston"}}, {"type": "Feature", "geometry": {"type": "Polygon", "coordinates": [[[-104.985365, 30.623792], [-105.129328, 30.750139], [-105.211234, 30.799609], [-105.265479, 30.802536], [-105.394627, 30.85892], [-105.411833, 30.893367], [-105.55679, 30.989469], [-105.60333, 31.082625], [-105.750519, 31.16494], [-105.869353, 31.288634], [-105.923131, 31.312089], [-105.997658, 31.386489], [-105.998003, 32.002328], [-104.918272, 32.000496], [-104.907592, 30.835919], [-104.916396, 30.835979], [-104.917163, 30.663626], [-104.985365, 30.623792]]]}, "properties": {"county": "Hudspeth"}}, {"type": "Feature", "geometry": {"type": "Polygon", "coordinates": [[[-94.354163, 29.561459], [-94.357976, 29.887464], [-94.442235, 29.889538], [-94.44491, 30.113015], [-94.292629, 30.117671], [-94.209577, 30.187724], [-94.115917, 30.160347], [-94.031976, 30.028013], [-93.860169, 29.977397], [-93.840799, 29.914423], [-93.890679, 29.843159], [-93.89847, 29.771577], [-93.837971, 29.690619], [-93.852868, 29.675885], [-94.001406, 29.681486], [-94.056506, 29.671163], [-94.354163, 29.561459]]]}, "properties": {"county": "Jefferson"}}, {"type": "Feature", "geometry": {"type": "Polygon", "coordinates": [[[-96.529987, 32.545282], [-96.51897, 32.813616], [-96.297376, 32.814185], [-96.297322, 32.841723], [-96.076801, 32.838489], [-96.075899, 32.357505], [-96.452138, 32.358631], [-96.529987, 32.545282]]]}, "properties": {"county": "Kaufman"}}, {"type": "Feature", "geometry": {"type": "Polygon", "coordinates": [[[-94.01563, 31.979856], [-94.599978, 31.973193], [-94.5805, 32.201363], [-94.491818, 32.394137], [-94.347563, 32.330682], [-94.042901, 32.392283], [-94.04272, 31.999265], [-94.01563, 31.979856]]]}, "properties": {"county": "Panola"}}, {"type": "Feature", "geometry": {"type": "Polygon", "coordinates": [[[-99.472444, 33.399023], [-99.471258, 32.957025], [-99.988827, 32.960121], [-99.99098, 33.397404], [-99.472444, 33.399023]]]}, "properties": {"county": "Haskell"}}, {"type": "Feature", "geometry": {"type": "Polygon", "coordinates": [[[-101.622941, 35.183117], [-102.167471, 35.183233], [-102.162752, 35.620035], [-101.6228, 35.620196], [-101.622941, 35.183117]]]}, "properties": {"county": "Potter"}}]}